<?xml version="1.0" encoding="UTF-8"?>
<gpx xmlns="http://www.topografix.com/GPX/1/1" xmlns:gpxtpx="http://www.garmin.com/xmlschemas/TrackPointExtension/v1" xmlns:xsi="http://www.w3.org/2001/XMLSchema-instance" xsi:schemaLocation="http://www.topografix.com/GPX/1/1 http://www.topografix.com/GPX/1/1/gpx.xsd" version="1.1" creator="gpx.py -- https://github.com/tkrajina/gpxpy">
  <trk>
    <name>gpx from keep</name>
    <type>Walk</type>
    <trkseg>
      <trkpt lat="39.893824981174006" lon="116.465186367317">
        <ele>41.35511602461338</ele>
        <time>2026-07-13T23:15:58Z</time>
      </trkpt>
      <trkpt lat="39.8939088073656" lon="116.46528532540759">
        <ele>41.25739876087755</ele>
        <time>2026-07-13T23:16:08Z</time>
      </trkpt>
      <trkpt lat="39.893913043307485" lon="116.4653459850864">
        <ele>43.47352421004325</ele>
        <time>2026-07-13T23:16:15Z</time>
      </trkpt>
      <trkpt lat="39.893872877893" lon="116.46539425226821">
        <ele>40.75849716551602</ele>
        <time>2026-07-13T23:16:19Z</time>
      </trkpt>
      <trkpt lat="39.89384966224795" lon="116.46547956736768">
        <ele>40.173825070261955</ele>
        <time>2026-07-13T23:16:27Z</time>
      </trkpt>
      <trkpt lat="39.89386141195349" lon="116.46557508933253">
        <ele>40.0609588585794</ele>
        <time>2026-07-13T23:16:34Z</time>
      </trkpt>
      <trkpt lat="39.89385160283778" lon="116.46564415179067">
        <ele>40.294373497366905</ele>
        <time>2026-07-13T23:16:38Z</time>
      </trkpt>
      <trkpt lat="39.89390215402993" lon="116.46571953360944">
        <ele>39.946987548843026</ele>
        <time>2026-07-13T23:16:46Z</time>
      </trkpt>
      <trkpt lat="39.893933214304745" lon="116.46578576591178">
        <ele>39.156311807222664</ele>
        <time>2026-07-13T23:17:02Z</time>
      </trkpt>
      <trkpt lat="39.89398021410787" lon="116.46582771340535">
        <ele>39.749157113954425</ele>
        <time>2026-07-13T23:17:06Z</time>
      </trkpt>
      <trkpt lat="39.89390287139112" lon="116.46600839164587">
        <ele>39.57373557332903</ele>
        <time>2026-07-13T23:17:22Z</time>
      </trkpt>
      <trkpt lat="39.894001387667245" lon="116.46604897510201">
        <ele>39.069958480075</ele>
        <time>2026-07-13T23:17:30Z</time>
      </trkpt>
      <trkpt lat="39.89419723407518" lon="116.4662659971059">
        <ele>38.596946571953595</ele>
        <time>2026-07-13T23:18:00Z</time>
      </trkpt>
      <trkpt lat="39.89425655827947" lon="116.46642435824612">
        <ele>39.94508810993284</ele>
        <time>2026-07-13T23:18:12Z</time>
      </trkpt>
      <trkpt lat="39.89429286001957" lon="116.4664755596495">
        <ele>39.32590795587748</ele>
        <time>2026-07-13T23:18:18Z</time>
      </trkpt>
      <trkpt lat="39.89440171423615" lon="116.4664873932559">
        <ele>38.54061977006495</ele>
        <time>2026-07-13T23:18:30Z</time>
      </trkpt>
      <trkpt lat="39.89454987351041" lon="116.46644135922178">
        <ele>39.27721378766</ele>
        <time>2026-07-13T23:18:42Z</time>
      </trkpt>
      <trkpt lat="39.89470940264269" lon="116.4664485216208">
        <ele>39.317308420315385</ele>
        <time>2026-07-13T23:18:54Z</time>
      </trkpt>
      <trkpt lat="39.89501327559513" lon="116.46643864338509">
        <ele>39.43813161365688</ele>
        <time>2026-07-13T23:19:24Z</time>
      </trkpt>
      <trkpt lat="39.8951944793975" lon="116.46648170473762">
        <ele>38.89486546162516</ele>
        <time>2026-07-13T23:19:42Z</time>
      </trkpt>
      <trkpt lat="39.89531176467186" lon="116.46645160295479">
        <ele>38.628826677799225</ele>
        <time>2026-07-13T23:19:54Z</time>
      </trkpt>
      <trkpt lat="39.895388984430696" lon="116.4664767574637">
        <ele>38.85915965400636</ele>
        <time>2026-07-13T23:20:01Z</time>
      </trkpt>
      <trkpt lat="39.895559845313706" lon="116.46645905825243">
        <ele>39.12431026715785</ele>
        <time>2026-07-13T23:20:19Z</time>
      </trkpt>
      <trkpt lat="39.89564018677147" lon="116.46647511254838">
        <ele>38.75242905598134</ele>
        <time>2026-07-13T23:20:28Z</time>
      </trkpt>
      <trkpt lat="39.89569692387967" lon="116.46645408778274">
        <ele>38.631371626630425</ele>
        <time>2026-07-13T23:20:37Z</time>
      </trkpt>
      <trkpt lat="39.89570186499464" lon="116.46681170551783">
        <ele>38.618379837833345</ele>
        <time>2026-07-13T23:21:01Z</time>
      </trkpt>
      <trkpt lat="39.89576130054126" lon="116.4667849915136">
        <ele>39.2090102089569</ele>
        <time>2026-07-13T23:21:25Z</time>
      </trkpt>
      <trkpt lat="39.89607647469843" lon="116.46678613024044">
        <ele>39.17947207018733</ele>
        <time>2026-07-13T23:21:55Z</time>
      </trkpt>
      <trkpt lat="39.896132163730975" lon="116.46681695593635">
        <ele>38.92444434855133</ele>
        <time>2026-07-13T23:22:04Z</time>
      </trkpt>
      <trkpt lat="39.89630454320619" lon="116.46675906540477">
        <ele>39.71690703369677</ele>
        <time>2026-07-13T23:22:19Z</time>
      </trkpt>
      <trkpt lat="39.89662169183287" lon="116.46676750847556">
        <ele>40.36269114911556</ele>
        <time>2026-07-13T23:22:55Z</time>
      </trkpt>
      <trkpt lat="39.89690467398276" lon="116.46676868600399">
        <ele>39.80869390349835</ele>
        <time>2026-07-13T23:23:19Z</time>
      </trkpt>
      <trkpt lat="39.89695850519765" lon="116.46679755203914">
        <ele>40.90106921736151</ele>
        <time>2026-07-13T23:23:28Z</time>
      </trkpt>
      <trkpt lat="39.89707569103315" lon="116.46678594244267">
        <ele>40.85458176210523</ele>
        <time>2026-07-13T23:23:40Z</time>
      </trkpt>
      <trkpt lat="39.897128084026065" lon="116.46680204772859">
        <ele>40.70341820362955</ele>
        <time>2026-07-13T23:23:49Z</time>
      </trkpt>
      <trkpt lat="39.89743442278648" lon="116.46678237514222">
        <ele>41.670040735043585</ele>
        <time>2026-07-13T23:24:17Z</time>
      </trkpt>
      <trkpt lat="39.8977066648526" lon="116.46682543420867">
        <ele>40.43594314344227</ele>
        <time>2026-07-13T23:24:41Z</time>
      </trkpt>
      <trkpt lat="39.89781324528652" lon="116.46681407481226">
        <ele>40.18074139300734</ele>
        <time>2026-07-13T23:24:49Z</time>
      </trkpt>
      <trkpt lat="39.8980638588188" lon="116.46687877492522">
        <ele>40.21829376928508</ele>
        <time>2026-07-13T23:25:17Z</time>
      </trkpt>
      <trkpt lat="39.89823760557656" lon="116.46682469572848">
        <ele>41.153609928674996</ele>
        <time>2026-07-13T23:25:33Z</time>
      </trkpt>
      <trkpt lat="39.89854512830673" lon="116.46682947237358">
        <ele>41.03994801826775</ele>
        <time>2026-07-13T23:26:05Z</time>
      </trkpt>
      <trkpt lat="39.8988508368836" lon="116.46683481735872">
        <ele>39.53542436752468</ele>
        <time>2026-07-13T23:26:36Z</time>
      </trkpt>
      <trkpt lat="39.89891708784778" lon="116.46684681100226">
        <ele>38.9887505536899</ele>
        <time>2026-07-13T23:26:44Z</time>
      </trkpt>
      <trkpt lat="39.899053246669816" lon="116.46684994019655">
        <ele>40.232983528636396</ele>
        <time>2026-07-13T23:27:04Z</time>
      </trkpt>
      <trkpt lat="39.89910629778456" lon="116.46683434796901">
        <ele>40.81018927693367</ele>
        <time>2026-07-13T23:27:08Z</time>
      </trkpt>
      <trkpt lat="39.89927465230712" lon="116.46685281316915">
        <ele>39.38588196784258</ele>
        <time>2026-07-13T23:27:32Z</time>
      </trkpt>
      <trkpt lat="39.899214435763966" lon="116.46675307722072">
        <ele>39.47297002840787</ele>
        <time>2026-07-13T23:27:48Z</time>
      </trkpt>
      <trkpt lat="39.899218776644105" lon="116.46662549675219">
        <ele>39.78308379184455</ele>
        <time>2026-07-13T23:27:56Z</time>
      </trkpt>
      <trkpt lat="39.899174931557" lon="116.46644824839856">
        <ele>40.844614846631885</ele>
        <time>2026-07-13T23:28:12Z</time>
      </trkpt>
      <trkpt lat="39.89925210004398" lon="116.46645625040532">
        <ele>39.941470173187554</ele>
        <time>2026-07-13T23:29:12Z</time>
      </trkpt>
      <trkpt lat="39.89919811628989" lon="116.466370196964">
        <ele>38.60221011471003</ele>
        <time>2026-07-13T23:29:24Z</time>
      </trkpt>
      <trkpt lat="39.89916903551628" lon="116.46626867742542">
        <ele>39.26462220586836</ele>
        <time>2026-07-13T23:30:00Z</time>
      </trkpt>
      <trkpt lat="39.89918864441729" lon="116.46618913583374">
        <ele>39.23759037721902</ele>
        <time>2026-07-13T23:30:28Z</time>
      </trkpt>
      <trkpt lat="39.89922223967852" lon="116.46623133634591">
        <ele>39.83621644601226</ele>
        <time>2026-07-13T23:30:39Z</time>
      </trkpt>
      <trkpt lat="39.8991855288246" lon="116.46617630103316">
        <ele>40.13512520585209</ele>
        <time>2026-07-13T23:30:51Z</time>
      </trkpt>
      <trkpt lat="39.899161241000975" lon="116.46608389087272">
        <ele>40.44251487776637</ele>
        <time>2026-07-13T23:30:59Z</time>
      </trkpt>
      <trkpt lat="39.89919531412793" lon="116.46595885795924">
        <ele>40.50767347496003</ele>
        <time>2026-07-13T23:31:07Z</time>
      </trkpt>
      <trkpt lat="39.89919068561214" lon="116.46584993186741">
        <ele>39.996731790713966</ele>
        <time>2026-07-13T23:31:15Z</time>
      </trkpt>
      <trkpt lat="39.89915133718998" lon="116.46568665258955">
        <ele>39.7558717969805</ele>
        <time>2026-07-13T23:31:31Z</time>
      </trkpt>
      <trkpt lat="39.89901748062836" lon="116.46532943300083">
        <ele>40.18960873503238</ele>
        <time>2026-07-13T23:32:07Z</time>
      </trkpt>
      <trkpt lat="39.89897443798275" lon="116.46505410938451">
        <ele>40.26468966435641</ele>
        <time>2026-07-13T23:32:27Z</time>
      </trkpt>
      <trkpt lat="39.89893761549024" lon="116.4646411456071">
        <ele>40.86388369463384</ele>
        <time>2026-07-13T23:33:02Z</time>
      </trkpt>
      <trkpt lat="39.898954828208595" lon="116.46449988184152">
        <ele>40.75455318111926</ele>
        <time>2026-07-13T23:33:14Z</time>
      </trkpt>
      <trkpt lat="39.89893516480562" lon="116.46441640114314">
        <ele>41.31097238045186</ele>
        <time>2026-07-13T23:33:22Z</time>
      </trkpt>
      <trkpt lat="39.89895509611032" lon="116.46434181101677">
        <ele>41.16664202697575</ele>
        <time>2026-07-13T23:33:30Z</time>
      </trkpt>
      <trkpt lat="39.898954257201865" lon="116.46423634385555">
        <ele>40.854428053833544</ele>
        <time>2026-07-13T23:33:38Z</time>
      </trkpt>
      <trkpt lat="39.898896727771856" lon="116.46401027978214">
        <ele>40.74981753528118</ele>
        <time>2026-07-13T23:33:58Z</time>
      </trkpt>
      <trkpt lat="39.898913871608066" lon="116.46391737762455">
        <ele>41.14379648119211</ele>
        <time>2026-07-13T23:34:06Z</time>
      </trkpt>
      <trkpt lat="39.898895800510545" lon="116.46348819300782">
        <ele>40.8658012887463</ele>
        <time>2026-07-13T23:34:46Z</time>
      </trkpt>
      <trkpt lat="39.89892090938751" lon="116.46337472006344">
        <ele>40.47537960764021</ele>
        <time>2026-07-13T23:34:54Z</time>
      </trkpt>
      <trkpt lat="39.89891575242676" lon="116.463194452917">
        <ele>40.83428153023124</ele>
        <time>2026-07-13T23:35:09Z</time>
      </trkpt>
      <trkpt lat="39.89893387493864" lon="116.46313928247699">
        <ele>40.871964012272656</ele>
        <time>2026-07-13T23:35:13Z</time>
      </trkpt>
      <trkpt lat="39.89893471717742" lon="116.46304321155216">
        <ele>40.839656732045114</ele>
        <time>2026-07-13T23:35:21Z</time>
      </trkpt>
      <trkpt lat="39.89896728786961" lon="116.46298983925652">
        <ele>40.4080825606361</ele>
        <time>2026-07-13T23:35:25Z</time>
      </trkpt>
      <trkpt lat="39.898967431167506" lon="116.46274365923664">
        <ele>39.73463049530983</ele>
        <time>2026-07-13T23:35:45Z</time>
      </trkpt>
      <trkpt lat="39.89901780222882" lon="116.46266869861361">
        <ele>41.16505601070821</ele>
        <time>2026-07-13T23:35:53Z</time>
      </trkpt>
      <trkpt lat="39.899028192668325" lon="116.46257231481196">
        <ele>41.005245259962976</ele>
        <time>2026-07-13T23:36:01Z</time>
      </trkpt>
      <trkpt lat="39.89912781688745" lon="116.46226025653624">
        <ele>40.42642452567816</ele>
        <time>2026-07-13T23:36:29Z</time>
      </trkpt>
      <trkpt lat="39.89914447595957" lon="116.46215304356437">
        <ele>40.23228588607162</ele>
        <time>2026-07-13T23:36:37Z</time>
      </trkpt>
      <trkpt lat="39.89912478042922" lon="116.46209069173783">
        <ele>38.5332277584821</ele>
        <time>2026-07-13T23:36:41Z</time>
      </trkpt>
      <trkpt lat="39.8991945690641" lon="116.4618435331898">
        <ele>39.09163496270776</ele>
        <time>2026-07-13T23:37:03Z</time>
      </trkpt>
      <trkpt lat="39.899195808103066" lon="116.46162263927762">
        <ele>39.31246371846646</ele>
        <time>2026-07-13T23:37:19Z</time>
      </trkpt>
      <trkpt lat="39.89922172685292" lon="116.46152375336943">
        <ele>39.377948665991426</ele>
        <time>2026-07-13T23:37:27Z</time>
      </trkpt>
      <trkpt lat="39.89920713284081" lon="116.4613960609815">
        <ele>39.70776757225394</ele>
        <time>2026-07-13T23:37:35Z</time>
      </trkpt>
      <trkpt lat="39.899226123409825" lon="116.46130999059918">
        <ele>39.254273225553334</ele>
        <time>2026-07-13T23:37:43Z</time>
      </trkpt>
      <trkpt lat="39.899281029247746" lon="116.46127491127159">
        <ele>38.94378059729934</ele>
        <time>2026-07-13T23:37:47Z</time>
      </trkpt>
      <trkpt lat="39.89936280575027" lon="116.46128309693134">
        <ele>39.54905899055302</ele>
        <time>2026-07-13T23:37:51Z</time>
      </trkpt>
      <trkpt lat="39.8994251196661" lon="116.46123789446888">
        <ele>38.634292841888964</ele>
        <time>2026-07-13T23:37:55Z</time>
      </trkpt>
      <trkpt lat="39.89942693412021" lon="116.46094653290395">
        <ele>38.85101513750851</ele>
        <time>2026-07-13T23:38:15Z</time>
      </trkpt>
      <trkpt lat="39.89944245495044" lon="116.46086619932272">
        <ele>39.69818451628089</ele>
        <time>2026-07-13T23:38:23Z</time>
      </trkpt>
      <trkpt lat="39.89948591896734" lon="116.46076621542329">
        <ele>39.99523045960814</ele>
        <time>2026-07-13T23:38:31Z</time>
      </trkpt>
      <trkpt lat="39.89947650939364" lon="116.46065102516427">
        <ele>40.47574779205024</ele>
        <time>2026-07-13T23:38:39Z</time>
      </trkpt>
      <trkpt lat="39.899502943557536" lon="116.46060075662422">
        <ele>39.583879482001066</ele>
        <time>2026-07-13T23:38:43Z</time>
      </trkpt>
      <trkpt lat="39.899506055672674" lon="116.46053614432797">
        <ele>40.824473187327385</ele>
        <time>2026-07-13T23:38:47Z</time>
      </trkpt>
      <trkpt lat="39.899474996725424" lon="116.46048706606061">
        <ele>40.678165351971984</ele>
        <time>2026-07-13T23:38:54Z</time>
      </trkpt>
      <trkpt lat="39.899488757017224" lon="116.46042204077227">
        <ele>40.33943719882518</ele>
        <time>2026-07-13T23:39:00Z</time>
      </trkpt>
      <trkpt lat="39.899547167018945" lon="116.46038140987955">
        <ele>41.097451268695295</ele>
        <time>2026-07-13T23:39:04Z</time>
      </trkpt>
      <trkpt lat="39.89957197939689" lon="116.46032968951974">
        <ele>40.18417681567371</ele>
        <time>2026-07-13T23:39:08Z</time>
      </trkpt>
      <trkpt lat="39.899595003828274" lon="116.46004509832069">
        <ele>39.83320836909115</ele>
        <time>2026-07-13T23:39:28Z</time>
      </trkpt>
      <trkpt lat="39.89971568355788" lon="116.45987328632243">
        <ele>40.63706636335701</ele>
        <time>2026-07-13T23:39:48Z</time>
      </trkpt>
      <trkpt lat="39.89966125698535" lon="116.45988702621999">
        <ele>41.472061096690595</ele>
        <time>2026-07-13T23:44:58Z</time>
      </trkpt>
      <trkpt lat="39.89962053537126" lon="116.45986079387788">
        <ele>41.82236208859831</ele>
        <time>2026-07-13T23:55:16Z</time>
      </trkpt>
      <trkpt lat="39.89955738334242" lon="116.45969167499112">
        <ele>40.86955248191953</ele>
        <time>2026-07-13T23:55:32Z</time>
      </trkpt>
      <trkpt lat="39.899553152964025" lon="116.45959613807213">
        <ele>40.677076457068324</ele>
        <time>2026-07-13T23:55:40Z</time>
      </trkpt>
      <trkpt lat="39.8995893658415" lon="116.45951201375291">
        <ele>40.72836508695036</ele>
        <time>2026-07-13T23:55:47Z</time>
      </trkpt>
      <trkpt lat="39.89960906180837" lon="116.45935068256547">
        <ele>40.32179685216397</ele>
        <time>2026-07-13T23:55:59Z</time>
      </trkpt>
      <trkpt lat="39.899664451526704" lon="116.4592479611239">
        <ele>41.14201973192394</ele>
        <time>2026-07-13T23:56:11Z</time>
      </trkpt>
      <trkpt lat="39.89960080830443" lon="116.45905934168094">
        <ele>40.86014723405242</ele>
        <time>2026-07-13T23:56:29Z</time>
      </trkpt>
      <trkpt lat="39.89969652282685" lon="116.45889494962806">
        <ele>41.22343835700303</ele>
        <time>2026-07-13T23:56:50Z</time>
      </trkpt>
      <trkpt lat="39.899682274836344" lon="116.45876506363358">
        <ele>40.73297689668834</ele>
        <time>2026-07-13T23:57:02Z</time>
      </trkpt>
      <trkpt lat="39.89963753395689" lon="116.45870892102435">
        <ele>40.71598749328405</ele>
        <time>2026-07-13T23:57:08Z</time>
      </trkpt>
      <trkpt lat="39.89961600055536" lon="116.45864163780516">
        <ele>40.92897257208824</ele>
        <time>2026-07-13T23:57:14Z</time>
      </trkpt>
      <trkpt lat="39.899628988974264" lon="116.45857364453474">
        <ele>40.85910420678556</ele>
        <time>2026-07-13T23:57:20Z</time>
      </trkpt>
      <trkpt lat="39.89957875604293" lon="116.45846105051054">
        <ele>40.59158862940967</ele>
        <time>2026-07-13T23:57:32Z</time>
      </trkpt>
      <trkpt lat="39.899617720086034" lon="116.45838876873188">
        <ele>40.35443323850632</ele>
        <time>2026-07-13T23:57:41Z</time>
      </trkpt>
      <trkpt lat="39.89966935167991" lon="116.45839206354748">
        <ele>40.79280543141067</ele>
        <time>2026-07-13T23:57:47Z</time>
      </trkpt>
      <trkpt lat="39.899706675155414" lon="116.45843600000619">
        <ele>40.729469211772084</ele>
        <time>2026-07-13T23:59:12Z</time>
      </trkpt>
      <trkpt lat="39.89965983422536" lon="116.45841387615606">
        <ele>40.50008738785982</ele>
        <time>2026-07-13T23:59:55Z</time>
      </trkpt>
      <trkpt lat="39.89963075840369" lon="116.4583644540526">
        <ele>40.24523802194744</ele>
        <time>2026-07-14T00:00:16Z</time>
      </trkpt>
      <trkpt lat="39.89955895072536" lon="116.45837153339457">
        <ele>40.47292818874121</ele>
        <time>2026-07-14T00:00:43Z</time>
      </trkpt>
      <trkpt lat="39.89950883107314" lon="116.45834630956075">
        <ele>41.26241266261786</ele>
        <time>2026-07-14T00:00:52Z</time>
      </trkpt>
      <trkpt lat="39.89940963601787" lon="116.458345792286">
        <ele>41.26241266261786</ele>
        <time>2026-07-14T00:01:29Z</time>
      </trkpt>
      <trkpt lat="39.899409571339845" lon="116.45831970889252">
        <ele>41.26241266261786</ele>
        <time>2026-07-14T00:01:36Z</time>
      </trkpt>
      <trkpt lat="39.8994094644132" lon="116.4582765710231">
        <ele>41.26241266261786</ele>
        <time>2026-07-14T00:01:49Z</time>
      </trkpt>
      <trkpt lat="39.89952238761573" lon="116.45827740821075">
        <ele>40.69225550536066</ele>
        <time>2026-07-14T00:02:31Z</time>
      </trkpt>
      <trkpt lat="39.89954235707673" lon="116.45811092413344">
        <ele>40.86033473350108</ele>
        <time>2026-07-14T00:03:19Z</time>
      </trkpt>
      <trkpt lat="39.899474291524704" lon="116.45806561421827">
        <ele>40.28909925185144</ele>
        <time>2026-07-14T00:03:25Z</time>
      </trkpt>
      <trkpt lat="39.89943322102599" lon="116.45792292595151">
        <ele>40.9527687150985</ele>
        <time>2026-07-14T00:03:43Z</time>
      </trkpt>
      <trkpt lat="39.899356044834235" lon="116.4579025535693">
        <ele>41.108876653015614</ele>
        <time>2026-07-14T00:03:52Z</time>
      </trkpt>
      <trkpt lat="39.89921592154892" lon="116.45802805862975">
        <ele>41.15491697285324</ele>
        <time>2026-07-14T00:03:55Z</time>
      </trkpt>
      <trkpt lat="39.899378065187065" lon="116.4580385955346">
        <ele>40.77401967998594</ele>
        <time>2026-07-14T00:04:01Z</time>
      </trkpt>
      <trkpt lat="39.8994249470959" lon="116.45806571282262">
        <ele>40.73839006759226</ele>
        <time>2026-07-14T00:04:04Z</time>
      </trkpt>
      <trkpt lat="39.899424054237684" lon="116.45817670465911">
        <ele>40.576773897744715</ele>
        <time>2026-07-14T00:04:12Z</time>
      </trkpt>
      <trkpt lat="39.899353776154435" lon="116.4582234852904">
        <ele>40.67452086042613</ele>
        <time>2026-07-14T00:04:20Z</time>
      </trkpt>
      <trkpt lat="39.89929993647913" lon="116.4582038067625">
        <ele>39.931935051456094</ele>
        <time>2026-07-14T00:04:28Z</time>
      </trkpt>
      <trkpt lat="39.89927355089604" lon="116.45825883537913">
        <ele>39.98517802171409</ele>
        <time>2026-07-14T00:04:32Z</time>
      </trkpt>
      <trkpt lat="39.899252138003355" lon="116.45843387696277">
        <ele>39.67639902886003</ele>
        <time>2026-07-14T00:04:47Z</time>
      </trkpt>
      <trkpt lat="39.899274724736806" lon="116.45867654617143">
        <ele>40.45899257156998</ele>
        <time>2026-07-14T00:05:08Z</time>
      </trkpt>
      <trkpt lat="39.899286579754445" lon="116.45907972868467">
        <ele>40.67849463224411</ele>
        <time>2026-07-14T00:05:38Z</time>
      </trkpt>
      <trkpt lat="39.899269834282784" lon="116.45946176024191">
        <ele>40.63559928815812</ele>
        <time>2026-07-14T00:06:08Z</time>
      </trkpt>
      <trkpt lat="39.89926877021103" lon="116.45990405020616">
        <ele>40.600886086933315</ele>
        <time>2026-07-14T00:06:39Z</time>
      </trkpt>
      <trkpt lat="39.89923515161163" lon="116.46026722992966">
        <ele>41.2752273818478</ele>
        <time>2026-07-14T00:07:08Z</time>
      </trkpt>
      <trkpt lat="39.899257685836766" lon="116.46031837818356">
        <ele>40.48088502790779</ele>
        <time>2026-07-14T00:07:44Z</time>
      </trkpt>
      <trkpt lat="39.89921926279931" lon="116.46040455175299">
        <ele>42.812697880901396</ele>
        <time>2026-07-14T00:08:05Z</time>
      </trkpt>
      <trkpt lat="39.899221080457636" lon="116.46085843719393">
        <ele>40.048873318359256</ele>
        <time>2026-07-14T00:08:42Z</time>
      </trkpt>
      <trkpt lat="39.89920197874508" lon="116.46101750626481">
        <ele>39.482478263787925</ele>
        <time>2026-07-14T00:08:54Z</time>
      </trkpt>
      <trkpt lat="39.898915965208225" lon="116.46096394870376">
        <ele>38.90556104667485</ele>
        <time>2026-07-14T00:09:24Z</time>
      </trkpt>
      <trkpt lat="39.89866893481717" lon="116.46102208219122">
        <ele>39.90889161918312</ele>
        <time>2026-07-14T00:09:42Z</time>
      </trkpt>
      <trkpt lat="39.89849275641659" lon="116.46098802551002">
        <ele>39.52623350638896</ele>
        <time>2026-07-14T00:10:00Z</time>
      </trkpt>
      <trkpt lat="39.89840104983965" lon="116.46100902763374">
        <ele>40.29406776372343</ele>
        <time>2026-07-14T00:10:09Z</time>
      </trkpt>
      <trkpt lat="39.898332540802315" lon="116.46098918959126">
        <ele>40.59918358922005</ele>
        <time>2026-07-14T00:10:15Z</time>
      </trkpt>
      <trkpt lat="39.898021086834284" lon="116.46095480526117">
        <ele>40.76731850858778</ele>
        <time>2026-07-14T00:10:43Z</time>
      </trkpt>
      <trkpt lat="39.89784351708245" lon="116.46098845062949">
        <ele>40.02366966288537</ele>
        <time>2026-07-14T00:11:01Z</time>
      </trkpt>
      <trkpt lat="39.897655508982226" lon="116.46099161125466">
        <ele>39.43119887635112</ele>
        <time>2026-07-14T00:11:19Z</time>
      </trkpt>
      <trkpt lat="39.897539768095065" lon="116.46096389221022">
        <ele>40.15312146488577</ele>
        <time>2026-07-14T00:11:28Z</time>
      </trkpt>
      <trkpt lat="39.89739385696782" lon="116.46098262544979">
        <ele>40.155080187134445</ele>
        <time>2026-07-14T00:11:40Z</time>
      </trkpt>
      <trkpt lat="39.897116830069535" lon="116.460921684518">
        <ele>40.13430061098188</ele>
        <time>2026-07-14T00:12:13Z</time>
      </trkpt>
      <trkpt lat="39.8970639249151" lon="116.46094393974596">
        <ele>40.04145176988095</ele>
        <time>2026-07-14T00:12:19Z</time>
      </trkpt>
      <trkpt lat="39.896968547665146" lon="116.46091761243508">
        <ele>39.97419378999621</ele>
        <time>2026-07-14T00:12:32Z</time>
      </trkpt>
      <trkpt lat="39.896802564591276" lon="116.46093945645515">
        <ele>40.15153515897691</ele>
        <time>2026-07-14T00:12:44Z</time>
      </trkpt>
      <trkpt lat="39.896746928286824" lon="116.4609091528677">
        <ele>40.0642774971202</ele>
        <time>2026-07-14T00:12:52Z</time>
      </trkpt>
      <trkpt lat="39.89664925534171" lon="116.46094122519064">
        <ele>40.22156314179301</ele>
        <time>2026-07-14T00:13:00Z</time>
      </trkpt>
      <trkpt lat="39.89642029697207" lon="116.46089154858396">
        <ele>39.24484122544527</ele>
        <time>2026-07-14T00:13:25Z</time>
      </trkpt>
      <trkpt lat="39.89637242423319" lon="116.46085997495109">
        <ele>40.21911801211536</ele>
        <time>2026-07-14T00:13:37Z</time>
      </trkpt>
      <trkpt lat="39.896239992448265" lon="116.46089514255797">
        <ele>40.26473991665989</ele>
        <time>2026-07-14T00:13:49Z</time>
      </trkpt>
      <trkpt lat="39.89604223630793" lon="116.46090926140897">
        <ele>40.48760651331395</ele>
        <time>2026-07-14T00:14:07Z</time>
      </trkpt>
      <trkpt lat="39.895992370623475" lon="116.46089304895413">
        <ele>40.72503875941038</ele>
        <time>2026-07-14T00:14:13Z</time>
      </trkpt>
      <trkpt lat="39.895820529913514" lon="116.46094701703008">
        <ele>40.38085692189634</ele>
        <time>2026-07-14T00:14:28Z</time>
      </trkpt>
      <trkpt lat="39.89577799722717" lon="116.46102266016507">
        <ele>40.353360736742616</ele>
        <time>2026-07-14T00:14:46Z</time>
      </trkpt>
      <trkpt lat="39.89577166194113" lon="116.46110143992101">
        <ele>40.55359378550202</ele>
        <time>2026-07-14T00:14:50Z</time>
      </trkpt>
      <trkpt lat="39.89573250357798" lon="116.46120788523966">
        <ele>40.91649852320552</ele>
        <time>2026-07-14T00:14:58Z</time>
      </trkpt>
      <trkpt lat="39.89555394590491" lon="116.46116778280293">
        <ele>41.448795242235065</ele>
        <time>2026-07-14T00:15:14Z</time>
      </trkpt>
      <trkpt lat="39.89542929844822" lon="116.46117017815465">
        <ele>41.132084359414876</ele>
        <time>2026-07-14T00:15:26Z</time>
      </trkpt>
      <trkpt lat="39.89511118839644" lon="116.46107808018205">
        <ele>41.09433472529054</ele>
        <time>2026-07-14T00:15:53Z</time>
      </trkpt>
      <trkpt lat="39.8948202322406" lon="116.46093632059417">
        <ele>41.438228162005544</ele>
        <time>2026-07-14T00:16:23Z</time>
      </trkpt>
      <trkpt lat="39.894655699316445" lon="116.46090842797138">
        <ele>41.447675245814025</ele>
        <time>2026-07-14T00:16:41Z</time>
      </trkpt>
      <trkpt lat="39.89453168327221" lon="116.46082358666695">
        <ele>40.3818476209417</ele>
        <time>2026-07-14T00:16:56Z</time>
      </trkpt>
      <trkpt lat="39.89442569696026" lon="116.46083965410887">
        <ele>41.03576721996069</ele>
        <time>2026-07-14T00:17:04Z</time>
      </trkpt>
      <trkpt lat="39.89429899978508" lon="116.46081512410959">
        <ele>40.91209277044982</ele>
        <time>2026-07-14T00:17:16Z</time>
      </trkpt>
      <trkpt lat="39.89424588663679" lon="116.46083246866499">
        <ele>40.487435853108764</ele>
        <time>2026-07-14T00:17:20Z</time>
      </trkpt>
      <trkpt lat="39.89419439068512" lon="116.46090367862422">
        <ele>41.50410732999444</ele>
        <time>2026-07-14T00:17:24Z</time>
      </trkpt>
      <trkpt lat="39.893921618864624" lon="116.46089624576804">
        <ele>40.86235722154379</ele>
        <time>2026-07-14T00:17:51Z</time>
      </trkpt>
      <trkpt lat="39.89378832868442" lon="116.46085965751881">
        <ele>40.36414444819093</ele>
        <time>2026-07-14T00:18:03Z</time>
      </trkpt>
      <trkpt lat="39.89369679303179" lon="116.46073984091704">
        <ele>39.74540189001709</ele>
        <time>2026-07-14T00:18:15Z</time>
      </trkpt>
      <trkpt lat="39.893623553388494" lon="116.46071841653529">
        <ele>38.31856205035001</ele>
        <time>2026-07-14T00:18:24Z</time>
      </trkpt>
      <trkpt lat="39.893499518918155" lon="116.46075246523039">
        <ele>39.456342418678105</ele>
        <time>2026-07-14T00:18:33Z</time>
      </trkpt>
      <trkpt lat="39.89339212003683" lon="116.46084820166514">
        <ele>40.44407811202109</ele>
        <time>2026-07-14T00:18:42Z</time>
      </trkpt>
      <trkpt lat="39.89319196518058" lon="116.46085098538529">
        <ele>39.95876939967275</ele>
        <time>2026-07-14T00:18:56Z</time>
      </trkpt>
      <trkpt lat="39.89315687622711" lon="116.46089207200693">
        <ele>40.158727562986314</ele>
        <time>2026-07-14T00:19:00Z</time>
      </trkpt>
      <trkpt lat="39.8931085801801" lon="116.46088234402858">
        <ele>39.55579811800271</ele>
        <time>2026-07-14T00:19:04Z</time>
      </trkpt>
      <trkpt lat="39.89300477046396" lon="116.46079178765025">
        <ele>40.934173645451665</ele>
        <time>2026-07-14T00:19:20Z</time>
      </trkpt>
      <trkpt lat="39.89289119668392" lon="116.46083987054587">
        <ele>39.93880581576377</ele>
        <time>2026-07-14T00:19:28Z</time>
      </trkpt>
      <trkpt lat="39.8928403896692" lon="116.46088528175977">
        <ele>40.042742990888655</ele>
        <time>2026-07-14T00:19:32Z</time>
      </trkpt>
      <trkpt lat="39.89277447209212" lon="116.46087816311724">
        <ele>40.109219188801944</ele>
        <time>2026-07-14T00:19:36Z</time>
      </trkpt>
      <trkpt lat="39.89263279750979" lon="116.46089592651686">
        <ele>40.522726816125214</ele>
        <time>2026-07-14T00:19:48Z</time>
      </trkpt>
      <trkpt lat="39.89249901973654" lon="116.46095953701582">
        <ele>40.28904579393566</ele>
        <time>2026-07-14T00:20:00Z</time>
      </trkpt>
      <trkpt lat="39.892416547581355" lon="116.46096701117915">
        <ele>39.02971186675131</ele>
        <time>2026-07-14T00:20:08Z</time>
      </trkpt>
      <trkpt lat="39.89232373550701" lon="116.46094564342391">
        <ele>39.865291595458984</ele>
        <time>2026-07-14T00:20:16Z</time>
      </trkpt>
      <trkpt lat="39.89228416862486" lon="116.46104306013126">
        <ele>39.48534152843058</ele>
        <time>2026-07-14T00:20:24Z</time>
      </trkpt>
      <trkpt lat="39.89227547284256" lon="116.46116405225908">
        <ele>39.81795261055231</ele>
        <time>2026-07-14T00:20:32Z</time>
      </trkpt>
      <trkpt lat="39.89229512502025" lon="116.46153630002713">
        <ele>38.609092915430665</ele>
        <time>2026-07-14T00:21:02Z</time>
      </trkpt>
      <trkpt lat="39.89232206841135" lon="116.46170750270821">
        <ele>40.10676460713148</ele>
        <time>2026-07-14T00:21:14Z</time>
      </trkpt>
      <trkpt lat="39.89231792198426" lon="116.46188821409751">
        <ele>39.55777900945395</ele>
        <time>2026-07-14T00:21:26Z</time>
      </trkpt>
      <trkpt lat="39.89233016865368" lon="116.46205312779442">
        <ele>39.31095923110843</ele>
        <time>2026-07-14T00:21:38Z</time>
      </trkpt>
      <trkpt lat="39.892308432331035" lon="116.46214694131646">
        <ele>40.789806585758924</ele>
        <time>2026-07-14T00:21:44Z</time>
      </trkpt>
      <trkpt lat="39.89231052231161" lon="116.46228607980483">
        <ele>40.33899586554617</ele>
        <time>2026-07-14T00:22:02Z</time>
      </trkpt>
      <trkpt lat="39.8922459927748" lon="116.46231120653849">
        <ele>40.84826207347214</ele>
        <time>2026-07-14T00:22:05Z</time>
      </trkpt>
      <trkpt lat="39.89211574972676" lon="116.46229203336652">
        <ele>41.28660690840209</ele>
        <time>2026-07-14T00:22:21Z</time>
      </trkpt>
      <trkpt lat="39.892115537300924" lon="116.46236321100126">
        <ele>41.287778943486316</ele>
        <time>2026-07-14T00:22:46Z</time>
      </trkpt>
      <trkpt lat="39.89211564482713" lon="116.46232717688645">
        <ele>41.297978034370544</ele>
        <time>2026-07-14T00:22:51Z</time>
      </trkpt>
      <trkpt lat="39.89211564205957" lon="116.46232810421544">
        <ele>41.304639827609826</ele>
        <time>2026-07-14T00:23:16Z</time>
      </trkpt>
      <trkpt lat="39.89211575168902" lon="116.46229137607017">
        <ele>41.29864166773529</ele>
        <time>2026-07-14T00:23:30Z</time>
      </trkpt>
      <trkpt lat="39.89211571774909" lon="116.46230274545228">
        <ele>41.0274542020638</ele>
        <time>2026-07-14T00:23:48Z</time>
      </trkpt>
      <trkpt lat="39.892021023645775" lon="116.46233019067542">
        <ele>41.222417598590255</ele>
        <time>2026-07-14T00:23:56Z</time>
      </trkpt>
      <trkpt lat="39.892075042824004" lon="116.46229489798102">
        <ele>41.290648814072235</ele>
        <time>2026-07-14T00:24:21Z</time>
      </trkpt>
      <trkpt lat="39.892003468286916" lon="116.46233371956158">
        <ele>41.28911541644854</ele>
        <time>2026-07-14T00:24:44Z</time>
      </trkpt>
      <trkpt lat="39.892067491510375" lon="116.46229631685115">
        <ele>41.287498992720614</ele>
        <time>2026-07-14T00:24:50Z</time>
      </trkpt>
      <trkpt lat="39.89209513587034" lon="116.46224535296288">
        <ele>41.282988298987156</ele>
        <time>2026-07-14T00:26:27Z</time>
      </trkpt>
      <trkpt lat="39.89210690104459" lon="116.46226573245711">
        <ele>41.3009194525175</ele>
        <time>2026-07-14T00:26:39Z</time>
      </trkpt>
      <trkpt lat="39.89211193498911" lon="116.46228352962115">
        <ele>41.29524393946995</ele>
        <time>2026-07-14T00:28:26Z</time>
      </trkpt>
      <trkpt lat="39.892114192957266" lon="116.4622601825999">
        <ele>41.28601532581625</ele>
        <time>2026-07-14T00:28:38Z</time>
      </trkpt>
      <trkpt lat="39.89211507512028" lon="116.46227998833157">
        <ele>41.281136235654664</ele>
        <time>2026-07-14T00:28:56Z</time>
      </trkpt>
      <trkpt lat="39.89211551836103" lon="116.46226715042633">
        <ele>41.2935098075862</ele>
        <time>2026-07-14T00:29:08Z</time>
      </trkpt>
      <trkpt lat="39.89211560998636" lon="116.46229479993049">
        <ele>41.28736738833046</ele>
        <time>2026-07-14T00:29:20Z</time>
      </trkpt>
      <trkpt lat="39.89211573457019" lon="116.46227816586367">
        <ele>41.29350885391212</ele>
        <time>2026-07-14T00:29:26Z</time>
      </trkpt>
      <trkpt lat="39.892107508469735" lon="116.46230307935289">
        <ele>41.277215552950004</ele>
        <time>2026-07-14T00:30:25Z</time>
      </trkpt>
      <trkpt lat="39.8921484108491" lon="116.46226866450085">
        <ele>41.293389644622586</ele>
        <time>2026-07-14T00:30:37Z</time>
      </trkpt>
      <trkpt lat="39.89212740462545" lon="116.46233704954675">
        <ele>41.290552903269315</ele>
        <time>2026-07-14T00:33:06Z</time>
      </trkpt>
      <trkpt lat="39.89213702350084" lon="116.4622458554562">
        <ele>41.28749756220958</ele>
        <time>2026-07-14T00:33:36Z</time>
      </trkpt>
      <trkpt lat="39.89212772721058" lon="116.46233370634752">
        <ele>41.30015339470893</ele>
        <time>2026-07-14T00:34:00Z</time>
      </trkpt>
      <trkpt lat="39.89214439949927" lon="116.46227876756028">
        <ele>41.29470828387879</ele>
        <time>2026-07-14T00:34:06Z</time>
      </trkpt>
      <trkpt lat="39.892140440156005" lon="116.46221975544452">
        <ele>41.289477498845436</ele>
        <time>2026-07-14T00:36:24Z</time>
      </trkpt>
      <trkpt lat="39.892077617755746" lon="116.46230044364388">
        <ele>41.29424484247128</ele>
        <time>2026-07-14T00:36:42Z</time>
      </trkpt>
      <trkpt lat="39.892140401850696" lon="116.46221993133638">
        <ele>41.290814902087256</ele>
        <time>2026-07-14T00:36:48Z</time>
      </trkpt>
      <trkpt lat="39.89205709059448" lon="116.4623461607151">
        <ele>41.195932997433594</ele>
        <time>2026-07-14T00:36:54Z</time>
      </trkpt>
      <trkpt lat="39.892094562431154" lon="116.46230383772713">
        <ele>41.270702606849284</ele>
        <time>2026-07-14T00:37:15Z</time>
      </trkpt>
      <trkpt lat="39.89200877919055" lon="116.46237544516426">
        <ele>41.29333169684769</ele>
        <time>2026-07-14T00:37:46Z</time>
      </trkpt>
      <trkpt lat="39.89212083322574" lon="116.46229750392729">
        <ele>41.295017790154986</ele>
        <time>2026-07-14T00:37:52Z</time>
      </trkpt>
      <trkpt lat="39.891941652745054" lon="116.46246728187674">
        <ele>41.26995582805566</ele>
        <time>2026-07-14T00:38:10Z</time>
      </trkpt>
      <trkpt lat="39.89204446950797" lon="116.4623613783616">
        <ele>41.285517928354714</ele>
        <time>2026-07-14T00:38:17Z</time>
      </trkpt>
      <trkpt lat="39.89195136683284" lon="116.462405268287">
        <ele>41.29410442352267</ele>
        <time>2026-07-14T00:38:22Z</time>
      </trkpt>
      <trkpt lat="39.892004122763964" lon="116.46241888081681">
        <ele>41.301389320785724</ele>
        <time>2026-07-14T00:38:29Z</time>
      </trkpt>
      <trkpt lat="39.89206089988022" lon="116.46233864981906">
        <ele>41.29215210340637</ele>
        <time>2026-07-14T00:38:41Z</time>
      </trkpt>
      <trkpt lat="39.89201696964541" lon="116.46236598828966">
        <ele>41.29970983674808</ele>
        <time>2026-07-14T00:38:47Z</time>
      </trkpt>
      <trkpt lat="39.89208322213233" lon="116.4623496335467">
        <ele>41.29614897888752</ele>
        <time>2026-07-14T00:38:53Z</time>
      </trkpt>
      <trkpt lat="39.89211483670067" lon="116.46230334803924">
        <ele>41.38448812301037</ele>
        <time>2026-07-14T00:39:36Z</time>
      </trkpt>
      <trkpt lat="39.89214633124982" lon="116.46219234836215">
        <ele>42.000813223421574</ele>
        <time>2026-07-14T00:39:43Z</time>
      </trkpt>
      <trkpt lat="39.89214393100991" lon="116.46230180395135">
        <ele>41.244402000680566</ele>
        <time>2026-07-14T00:39:46Z</time>
      </trkpt>
      <trkpt lat="39.89220193366672" lon="116.46232230339328">
        <ele>40.538974600844085</ele>
        <time>2026-07-14T00:39:49Z</time>
      </trkpt>
      <trkpt lat="39.892279801356956" lon="116.46246321842945">
        <ele>40.206737449392676</ele>
        <time>2026-07-14T00:39:59Z</time>
      </trkpt>
      <trkpt lat="39.89228805203702" lon="116.46267997138062">
        <ele>39.52133563160896</ele>
        <time>2026-07-14T00:40:17Z</time>
      </trkpt>
      <trkpt lat="39.89227053964872" lon="116.4628661809901">
        <ele>40.744141383096576</ele>
        <time>2026-07-14T00:40:32Z</time>
      </trkpt>
      <trkpt lat="39.892285329206835" lon="116.46290178539941">
        <ele>40.8708504056558</ele>
        <time>2026-07-14T00:40:35Z</time>
      </trkpt>
    </trkseg>
  </trk>
</gpx>