<?xml version="1.0" encoding="UTF-8"?>
<gpx xmlns="http://www.topografix.com/GPX/1/1" xmlns:gpxtpx="http://www.garmin.com/xmlschemas/TrackPointExtension/v1" xmlns:xsi="http://www.w3.org/2001/XMLSchema-instance" xsi:schemaLocation="http://www.topografix.com/GPX/1/1 http://www.topografix.com/GPX/1/1/gpx.xsd" version="1.1" creator="gpx.py -- https://github.com/tkrajina/gpxpy">
  <trk>
    <name>gpx from keep</name>
    <type>Run</type>
    <trkseg>
      <trkpt lat="39.89366937450069" lon="116.46351824594349">
        <ele>45.82075309753418</ele>
        <time>2026-07-19T23:55:37Z</time>
      </trkpt>
      <trkpt lat="39.89373651274406" lon="116.46351271289667">
        <ele>46.51588249206543</ele>
        <time>2026-07-19T23:55:41Z</time>
      </trkpt>
      <trkpt lat="39.89378092520209" lon="116.46348080615121">
        <ele>45.95734986010939</ele>
        <time>2026-07-19T23:55:47Z</time>
      </trkpt>
      <trkpt lat="39.89380149190098" lon="116.46339478742651">
        <ele>45.710279610939324</ele>
        <time>2026-07-19T23:55:53Z</time>
      </trkpt>
      <trkpt lat="39.89377067823566" lon="116.46329980522093">
        <ele>44.89332405664027</ele>
        <time>2026-07-19T23:55:59Z</time>
      </trkpt>
      <trkpt lat="39.8937258676789" lon="116.46328661090061">
        <ele>42.35914437286556</ele>
        <time>2026-07-19T23:56:02Z</time>
      </trkpt>
      <trkpt lat="39.893707408067236" lon="116.46322773211382">
        <ele>40.93744676373899</ele>
        <time>2026-07-19T23:56:08Z</time>
      </trkpt>
      <trkpt lat="39.89375132398048" lon="116.46314126724673">
        <ele>40.57875538710505</ele>
        <time>2026-07-19T23:56:14Z</time>
      </trkpt>
      <trkpt lat="39.89379842258276" lon="116.46310661044566">
        <ele>39.671402394771576</ele>
        <time>2026-07-19T23:56:17Z</time>
      </trkpt>
      <trkpt lat="39.89385517653649" lon="116.46311766209992">
        <ele>40.7815779550001</ele>
        <time>2026-07-19T23:56:23Z</time>
      </trkpt>
      <trkpt lat="39.89387897521914" lon="116.4631821236486">
        <ele>41.06016205623746</ele>
        <time>2026-07-19T23:56:29Z</time>
      </trkpt>
      <trkpt lat="39.89387168396465" lon="116.46325030083523">
        <ele>41.489340488798916</ele>
        <time>2026-07-19T23:56:32Z</time>
      </trkpt>
      <trkpt lat="39.8939277393595" lon="116.46361863808887">
        <ele>40.058962052688</ele>
        <time>2026-07-19T23:56:58Z</time>
      </trkpt>
      <trkpt lat="39.89395003850624" lon="116.46368714901197">
        <ele>40.45716231223196</ele>
        <time>2026-07-19T23:57:02Z</time>
      </trkpt>
      <trkpt lat="39.89391304913337" lon="116.4637459576543">
        <ele>39.74199653882533</ele>
        <time>2026-07-19T23:57:06Z</time>
      </trkpt>
      <trkpt lat="39.89393554873324" lon="116.46382480600076">
        <ele>38.86447679530829</ele>
        <time>2026-07-19T23:57:10Z</time>
      </trkpt>
      <trkpt lat="39.89388875917421" lon="116.4638578130296">
        <ele>38.20762891601771</ele>
        <time>2026-07-19T23:57:14Z</time>
      </trkpt>
      <trkpt lat="39.893883424162446" lon="116.46393512995965">
        <ele>39.83034504298121</ele>
        <time>2026-07-19T23:57:18Z</time>
      </trkpt>
      <trkpt lat="39.89390921952101" lon="116.46401173474389">
        <ele>40.887366166338325</ele>
        <time>2026-07-19T23:57:26Z</time>
      </trkpt>
      <trkpt lat="39.8939365351095" lon="116.46428898372785">
        <ele>40.04596025496721</ele>
        <time>2026-07-19T23:57:48Z</time>
      </trkpt>
      <trkpt lat="39.893912085276476" lon="116.46444436729112">
        <ele>39.326095092110336</ele>
        <time>2026-07-19T23:58:00Z</time>
      </trkpt>
      <trkpt lat="39.89402906624279" lon="116.46481227542131">
        <ele>38.534048113040626</ele>
        <time>2026-07-19T23:58:30Z</time>
      </trkpt>
      <trkpt lat="39.894120618452995" lon="116.46525852886742">
        <ele>38.864027885720134</ele>
        <time>2026-07-19T23:58:56Z</time>
      </trkpt>
      <trkpt lat="39.89417565505032" lon="116.46550162693715">
        <ele>39.919343386776745</ele>
        <time>2026-07-19T23:59:08Z</time>
      </trkpt>
      <trkpt lat="39.89420321909513" lon="116.46556767714698">
        <ele>40.28807426337153</ele>
        <time>2026-07-19T23:59:11Z</time>
      </trkpt>
      <trkpt lat="39.894270066044804" lon="116.4656231686049">
        <ele>39.05424043443054</ele>
        <time>2026-07-19T23:59:15Z</time>
      </trkpt>
      <trkpt lat="39.89429193785731" lon="116.46584830613259">
        <ele>38.653176945634186</ele>
        <time>2026-07-19T23:59:23Z</time>
      </trkpt>
      <trkpt lat="39.8943323940596" lon="116.465947773378">
        <ele>38.4218010045588</ele>
        <time>2026-07-19T23:59:27Z</time>
      </trkpt>
      <trkpt lat="39.894391282222074" lon="116.46629433330877">
        <ele>39.00573234632611</ele>
        <time>2026-07-19T23:59:41Z</time>
      </trkpt>
      <trkpt lat="39.89445311029517" lon="116.46641612166493">
        <ele>38.05315309390426</ele>
        <time>2026-07-19T23:59:48Z</time>
      </trkpt>
      <trkpt lat="39.89446715599275" lon="116.46669616793928">
        <ele>38.54378266260028</ele>
        <time>2026-07-19T23:59:59Z</time>
      </trkpt>
      <trkpt lat="39.89472459399536" lon="116.46672983373439">
        <ele>38.73497776128352</ele>
        <time>2026-07-20T00:00:15Z</time>
      </trkpt>
      <trkpt lat="39.89481352842343" lon="116.46668662393866">
        <ele>40.26146281696856</ele>
        <time>2026-07-20T00:00:19Z</time>
      </trkpt>
      <trkpt lat="39.89485584871604" lon="116.46671044411259">
        <ele>39.490947344340384</ele>
        <time>2026-07-20T00:00:23Z</time>
      </trkpt>
      <trkpt lat="39.89501913791707" lon="116.46671023271033">
        <ele>40.18846260011196</ele>
        <time>2026-07-20T00:00:31Z</time>
      </trkpt>
      <trkpt lat="39.895106379062796" lon="116.46673931424091">
        <ele>39.6963824769482</ele>
        <time>2026-07-20T00:00:35Z</time>
      </trkpt>
      <trkpt lat="39.89538092066117" lon="116.4667368660843">
        <ele>38.981499566696584</ele>
        <time>2026-07-20T00:00:51Z</time>
      </trkpt>
      <trkpt lat="39.89543810862632" lon="116.46675738742557">
        <ele>38.702754970639944</ele>
        <time>2026-07-20T00:00:55Z</time>
      </trkpt>
      <trkpt lat="39.8957101186846" lon="116.46677145315323">
        <ele>39.66130654513836</ele>
        <time>2026-07-20T00:01:11Z</time>
      </trkpt>
      <trkpt lat="39.89593838062146" lon="116.46674800944415">
        <ele>39.23125368729234</ele>
        <time>2026-07-20T00:02:02Z</time>
      </trkpt>
      <trkpt lat="39.896110329835054" lon="116.46676460034234">
        <ele>39.82382083963603</ele>
        <time>2026-07-20T00:02:10Z</time>
      </trkpt>
      <trkpt lat="39.896174816975616" lon="116.46674656716483">
        <ele>39.326451568864286</ele>
        <time>2026-07-20T00:02:14Z</time>
      </trkpt>
      <trkpt lat="39.89639376425927" lon="116.46678327423619">
        <ele>39.86158683989197</ele>
        <time>2026-07-20T00:02:26Z</time>
      </trkpt>
      <trkpt lat="39.896686589264824" lon="116.46677587334084">
        <ele>39.0525669446215</ele>
        <time>2026-07-20T00:02:42Z</time>
      </trkpt>
      <trkpt lat="39.897007148694186" lon="116.46678870882275">
        <ele>40.26999651547521</ele>
        <time>2026-07-20T00:02:58Z</time>
      </trkpt>
      <trkpt lat="39.89715395852322" lon="116.46680518171402">
        <ele>40.965259820222855</ele>
        <time>2026-07-20T00:03:06Z</time>
      </trkpt>
      <trkpt lat="39.8974459309401" lon="116.4667696156699">
        <ele>41.662693784572184</ele>
        <time>2026-07-20T00:03:22Z</time>
      </trkpt>
      <trkpt lat="39.89775070877838" lon="116.46675297779754">
        <ele>41.02854164969176</ele>
        <time>2026-07-20T00:03:38Z</time>
      </trkpt>
      <trkpt lat="39.897867636061314" lon="116.46676480938517">
        <ele>39.87265452090651</ele>
        <time>2026-07-20T00:03:46Z</time>
      </trkpt>
      <trkpt lat="39.897958559894604" lon="116.46684041171463">
        <ele>40.92365265451372</ele>
        <time>2026-07-20T00:03:54Z</time>
      </trkpt>
      <trkpt lat="39.89826609104046" lon="116.46677937722899">
        <ele>41.49402834754437</ele>
        <time>2026-07-20T00:04:25Z</time>
      </trkpt>
      <trkpt lat="39.89843036232039" lon="116.46680694661768">
        <ele>40.91186957154423</ele>
        <time>2026-07-20T00:04:41Z</time>
      </trkpt>
      <trkpt lat="39.898489094826814" lon="116.46673728309776">
        <ele>41.37041223514825</ele>
        <time>2026-07-20T00:04:45Z</time>
      </trkpt>
      <trkpt lat="39.89854142840667" lon="116.46678928672644">
        <ele>40.39495968353003</ele>
        <time>2026-07-20T00:04:53Z</time>
      </trkpt>
      <trkpt lat="39.8986412139772" lon="116.46681596212997">
        <ele>41.95633869525045</ele>
        <time>2026-07-20T00:05:01Z</time>
      </trkpt>
      <trkpt lat="39.89880421262338" lon="116.46679623928277">
        <ele>40.46600348968059</ele>
        <time>2026-07-20T00:05:09Z</time>
      </trkpt>
      <trkpt lat="39.89889536509241" lon="116.46684871679935">
        <ele>39.98775278311223</ele>
        <time>2026-07-20T00:05:13Z</time>
      </trkpt>
      <trkpt lat="39.89906522786256" lon="116.46686699490998">
        <ele>38.88434854801744</ele>
        <time>2026-07-20T00:05:21Z</time>
      </trkpt>
      <trkpt lat="39.899318822084254" lon="116.4667644472523">
        <ele>37.905360952951014</ele>
        <time>2026-07-20T00:05:33Z</time>
      </trkpt>
      <trkpt lat="39.899340428579606" lon="116.46635098297712">
        <ele>39.23654424585402</ele>
        <time>2026-07-20T00:05:49Z</time>
      </trkpt>
      <trkpt lat="39.899322272624836" lon="116.4660296635483">
        <ele>40.49921656027436</ele>
        <time>2026-07-20T00:06:05Z</time>
      </trkpt>
      <trkpt lat="39.89923509541408" lon="116.46564826766989">
        <ele>39.678884961642325</ele>
        <time>2026-07-20T00:06:22Z</time>
      </trkpt>
      <trkpt lat="39.899215703266776" lon="116.46550223533326">
        <ele>39.270443538203835</ele>
        <time>2026-07-20T00:06:28Z</time>
      </trkpt>
      <trkpt lat="39.89918336859052" lon="116.46542279945989">
        <ele>40.428429590538144</ele>
        <time>2026-07-20T00:06:31Z</time>
      </trkpt>
      <trkpt lat="39.89909827020475" lon="116.4650804693061">
        <ele>39.27299392875284</ele>
        <time>2026-07-20T00:06:43Z</time>
      </trkpt>
      <trkpt lat="39.89903889257899" lon="116.46469429711023">
        <ele>40.60029705427587</ele>
        <time>2026-07-20T00:06:56Z</time>
      </trkpt>
      <trkpt lat="39.89899778408802" lon="116.46433866078858">
        <ele>41.86905619781464</ele>
        <time>2026-07-20T00:07:08Z</time>
      </trkpt>
      <trkpt lat="39.89897346825353" lon="116.463892536812">
        <ele>41.31693974509835</ele>
        <time>2026-07-20T00:07:24Z</time>
      </trkpt>
      <trkpt lat="39.89897621687864" lon="116.46378879742761">
        <ele>41.12900495529175</ele>
        <time>2026-07-20T00:07:28Z</time>
      </trkpt>
      <trkpt lat="39.89895115229088" lon="116.4636685428332">
        <ele>40.721770480275154</ele>
        <time>2026-07-20T00:07:32Z</time>
      </trkpt>
      <trkpt lat="39.89899675914879" lon="116.46324246510179">
        <ele>40.758684979751706</ele>
        <time>2026-07-20T00:07:48Z</time>
      </trkpt>
      <trkpt lat="39.899032084815" lon="116.46289816983536">
        <ele>40.71878496836871</ele>
        <time>2026-07-20T00:08:00Z</time>
      </trkpt>
      <trkpt lat="39.89910838263759" lon="116.46270754792408">
        <ele>41.32504173088819</ele>
        <time>2026-07-20T00:08:08Z</time>
      </trkpt>
      <trkpt lat="39.89913589474665" lon="116.46252885814577">
        <ele>40.82161571923643</ele>
        <time>2026-07-20T00:08:15Z</time>
      </trkpt>
      <trkpt lat="39.89917621712668" lon="116.46243302601123">
        <ele>41.36394327227026</ele>
        <time>2026-07-20T00:08:18Z</time>
      </trkpt>
      <trkpt lat="39.89919277323514" lon="116.46232627653897">
        <ele>41.43261960800737</ele>
        <time>2026-07-20T00:08:24Z</time>
      </trkpt>
      <trkpt lat="39.8992273846452" lon="116.46225769130207">
        <ele>41.612776971422136</ele>
        <time>2026-07-20T00:08:27Z</time>
      </trkpt>
      <trkpt lat="39.899308650655605" lon="116.46190168101738">
        <ele>40.33902164362371</ele>
        <time>2026-07-20T00:08:42Z</time>
      </trkpt>
      <trkpt lat="39.899380971960376" lon="116.461542349844">
        <ele>40.27733759675175</ele>
        <time>2026-07-20T00:09:03Z</time>
      </trkpt>
      <trkpt lat="39.89942018592581" lon="116.46119195001639">
        <ele>40.09251113049686</ele>
        <time>2026-07-20T00:09:22Z</time>
      </trkpt>
      <trkpt lat="39.899433022613906" lon="116.46091798960258">
        <ele>40.17289058212191</ele>
        <time>2026-07-20T00:09:34Z</time>
      </trkpt>
      <trkpt lat="39.89949082512417" lon="116.46084093159374">
        <ele>41.75089468527585</ele>
        <time>2026-07-20T00:09:38Z</time>
      </trkpt>
      <trkpt lat="39.89949964687496" lon="116.4607357568565">
        <ele>42.33671339601278</ele>
        <time>2026-07-20T00:09:42Z</time>
      </trkpt>
      <trkpt lat="39.8995667629272" lon="116.4605594079178">
        <ele>41.25505983363837</ele>
        <time>2026-07-20T00:09:50Z</time>
      </trkpt>
      <trkpt lat="39.89960629823705" lon="116.46049546927303">
        <ele>40.86178992781788</ele>
        <time>2026-07-20T00:09:54Z</time>
      </trkpt>
      <trkpt lat="39.899558381763306" lon="116.46033921792855">
        <ele>40.26412948593497</ele>
        <time>2026-07-20T00:10:02Z</time>
      </trkpt>
      <trkpt lat="39.899575509593866" lon="116.46027274033155">
        <ele>41.158724199049175</ele>
        <time>2026-07-20T00:10:06Z</time>
      </trkpt>
      <trkpt lat="39.89956965973211" lon="116.4601584775584">
        <ele>41.71123600471765</ele>
        <time>2026-07-20T00:10:10Z</time>
      </trkpt>
      <trkpt lat="39.89958661365551" lon="116.4599744609678">
        <ele>41.9619881734252</ele>
        <time>2026-07-20T00:10:18Z</time>
      </trkpt>
      <trkpt lat="39.89966662362749" lon="116.45986228866418">
        <ele>41.77894966956228</ele>
        <time>2026-07-20T00:10:27Z</time>
      </trkpt>
      <trkpt lat="39.89966662362749" lon="116.45986228866418">
        <ele>41.77894966956228</ele>
        <time>2026-07-20T00:10:28Z</time>
      </trkpt>
      <trkpt lat="39.89971093208371" lon="116.459871704882">
        <ele>41.25567274633795</ele>
        <time>2026-07-20T00:19:04Z</time>
      </trkpt>
      <trkpt lat="39.899669853715665" lon="116.45982725908989">
        <ele>40.58319891244173</ele>
        <time>2026-07-20T00:19:12Z</time>
      </trkpt>
      <trkpt lat="39.899612875058274" lon="116.45980592791436">
        <ele>42.62253294698894</ele>
        <time>2026-07-20T00:19:16Z</time>
      </trkpt>
      <trkpt lat="39.8995570815345" lon="116.45963460021277">
        <ele>41.62125411815941</ele>
        <time>2026-07-20T00:19:28Z</time>
      </trkpt>
      <trkpt lat="39.899614646904524" lon="116.45956135191301">
        <ele>41.07977708708495</ele>
        <time>2026-07-20T00:19:36Z</time>
      </trkpt>
      <trkpt lat="39.89967537332166" lon="116.45937275293691">
        <ele>42.20700012054294</ele>
        <time>2026-07-20T00:19:52Z</time>
      </trkpt>
      <trkpt lat="39.89968346523157" lon="116.45927052230086">
        <ele>41.80232133064419</ele>
        <time>2026-07-20T00:20:00Z</time>
      </trkpt>
      <trkpt lat="39.89958543931959" lon="116.45899442727355">
        <ele>43.04323959071189</ele>
        <time>2026-07-20T00:20:24Z</time>
      </trkpt>
      <trkpt lat="39.899634933048794" lon="116.45896440682075">
        <ele>41.83253028802574</ele>
        <time>2026-07-20T00:20:36Z</time>
      </trkpt>
      <trkpt lat="39.89967847849824" lon="116.45890334798789">
        <ele>41.68715139850974</ele>
        <time>2026-07-20T00:20:48Z</time>
      </trkpt>
      <trkpt lat="39.89967662796696" lon="116.45884135355836">
        <ele>41.01355258375406</ele>
        <time>2026-07-20T00:20:57Z</time>
      </trkpt>
      <trkpt lat="39.899626039034594" lon="116.45869971380013">
        <ele>40.53829822875559</ele>
        <time>2026-07-20T00:21:09Z</time>
      </trkpt>
      <trkpt lat="39.89954204693986" lon="116.45857146000172">
        <ele>40.82620503939688</ele>
        <time>2026-07-20T00:21:19Z</time>
      </trkpt>
      <trkpt lat="39.89956973285646" lon="116.45841125597138">
        <ele>40.94997152592987</ele>
        <time>2026-07-20T00:21:31Z</time>
      </trkpt>
      <trkpt lat="39.899503266421725" lon="116.45844986020478">
        <ele>44.506262093782425</ele>
        <time>2026-07-20T00:22:11Z</time>
      </trkpt>
      <trkpt lat="39.89945711246377" lon="116.45843730907151">
        <ele>42.67655664496124</ele>
        <time>2026-07-20T00:22:19Z</time>
      </trkpt>
      <trkpt lat="39.89953611237307" lon="116.45844948786082">
        <ele>41.41402671299875</ele>
        <time>2026-07-20T00:22:23Z</time>
      </trkpt>
      <trkpt lat="39.899479344525126" lon="116.45835457129574">
        <ele>40.81601229403168</ele>
        <time>2026-07-20T00:25:17Z</time>
      </trkpt>
      <trkpt lat="39.89950757945013" lon="116.45842157591589">
        <ele>40.3906230032444</ele>
        <time>2026-07-20T00:25:25Z</time>
      </trkpt>
      <trkpt lat="39.899670695523916" lon="116.45840814816464">
        <ele>41.23239580448717</ele>
        <time>2026-07-20T00:27:49Z</time>
      </trkpt>
      <trkpt lat="39.89971637390719" lon="116.45842566696537">
        <ele>41.187412010505795</ele>
        <time>2026-07-20T00:28:29Z</time>
      </trkpt>
      <trkpt lat="39.8996848298511" lon="116.45837756099965">
        <ele>41.71872854884714</ele>
        <time>2026-07-20T00:28:53Z</time>
      </trkpt>
      <trkpt lat="39.89957928546052" lon="116.45836626773644">
        <ele>40.66222482081503</ele>
        <time>2026-07-20T00:29:16Z</time>
      </trkpt>
      <trkpt lat="39.899538465885456" lon="116.45840341917574">
        <ele>40.87051239609718</ele>
        <time>2026-07-20T00:29:40Z</time>
      </trkpt>
      <trkpt lat="39.899540052971375" lon="116.45834326312593">
        <ele>40.94424546137452</ele>
        <time>2026-07-20T00:29:52Z</time>
      </trkpt>
      <trkpt lat="39.89952282817078" lon="116.45827731102568">
        <ele>40.09427515696734</ele>
        <time>2026-07-20T00:30:36Z</time>
      </trkpt>
      <trkpt lat="39.899520366029044" lon="116.4580965588204">
        <ele>40.818661376833916</ele>
        <time>2026-07-20T00:31:12Z</time>
      </trkpt>
      <trkpt lat="39.89945114661666" lon="116.4580477050206">
        <ele>40.51094094756991</ele>
        <time>2026-07-20T00:31:20Z</time>
      </trkpt>
      <trkpt lat="39.899436126399664" lon="116.4579665233604">
        <ele>40.93987751379609</ele>
        <time>2026-07-20T00:31:27Z</time>
      </trkpt>
      <trkpt lat="39.89945765212399" lon="116.45791074217912">
        <ele>41.44617270119488</ele>
        <time>2026-07-20T00:31:38Z</time>
      </trkpt>
      <trkpt lat="39.8994331775333" lon="116.45781135995354">
        <ele>39.40589717030525</ele>
        <time>2026-07-20T00:31:50Z</time>
      </trkpt>
      <trkpt lat="39.89925401020518" lon="116.4580265702887">
        <ele>45.92561149597168</ele>
        <time>2026-07-20T00:31:55Z</time>
      </trkpt>
      <trkpt lat="39.89930367801324" lon="116.4579134283184">
        <ele>41.5137873403728</ele>
        <time>2026-07-20T00:32:03Z</time>
      </trkpt>
      <trkpt lat="39.899325869147816" lon="116.45801359716425">
        <ele>40.71749195549637</ele>
        <time>2026-07-20T00:32:07Z</time>
      </trkpt>
      <trkpt lat="39.899373226233806" lon="116.4580178297711">
        <ele>41.019172050990164</ele>
        <time>2026-07-20T00:32:11Z</time>
      </trkpt>
      <trkpt lat="39.89940165382764" lon="116.45807045799414">
        <ele>40.667291978374124</ele>
        <time>2026-07-20T00:32:15Z</time>
      </trkpt>
      <trkpt lat="39.899421342191594" lon="116.45817507174456">
        <ele>41.152101173996925</ele>
        <time>2026-07-20T00:32:23Z</time>
      </trkpt>
      <trkpt lat="39.89937804388936" lon="116.45822214110855">
        <ele>40.56912714522332</ele>
        <time>2026-07-20T00:32:43Z</time>
      </trkpt>
      <trkpt lat="39.89930808319635" lon="116.45823584461664">
        <ele>40.3891138844192</ele>
        <time>2026-07-20T00:32:51Z</time>
      </trkpt>
      <trkpt lat="39.89927540139193" lon="116.45833971424692">
        <ele>40.57890294212848</ele>
        <time>2026-07-20T00:32:59Z</time>
      </trkpt>
      <trkpt lat="39.899285066664405" lon="116.45844952777568">
        <ele>40.802102932706475</ele>
        <time>2026-07-20T00:33:07Z</time>
      </trkpt>
      <trkpt lat="39.89927513895717" lon="116.45876664676896">
        <ele>41.47645806893706</ele>
        <time>2026-07-20T00:33:31Z</time>
      </trkpt>
      <trkpt lat="39.8992542681851" lon="116.45890481205097">
        <ele>41.08134369831532</ele>
        <time>2026-07-20T00:33:39Z</time>
      </trkpt>
      <trkpt lat="39.899227312270995" lon="116.45897171974903">
        <ele>39.71610949188471</ele>
        <time>2026-07-20T00:33:46Z</time>
      </trkpt>
      <trkpt lat="39.89924522683307" lon="116.45903101091092">
        <ele>41.31779864337295</ele>
        <time>2026-07-20T00:33:50Z</time>
      </trkpt>
      <trkpt lat="39.89924277796734" lon="116.45916816860316">
        <ele>42.212142017669976</ele>
        <time>2026-07-20T00:33:58Z</time>
      </trkpt>
      <trkpt lat="39.899208296359035" lon="116.45922181815405">
        <ele>40.695172597654164</ele>
        <time>2026-07-20T00:34:02Z</time>
      </trkpt>
      <trkpt lat="39.89918328850879" lon="116.45937795435391">
        <ele>41.19194417912513</ele>
        <time>2026-07-20T00:34:10Z</time>
      </trkpt>
      <trkpt lat="39.89916739975787" lon="116.45969831687685">
        <ele>41.09377793315798</ele>
        <time>2026-07-20T00:34:42Z</time>
      </trkpt>
      <trkpt lat="39.89919008758329" lon="116.45988590446247">
        <ele>41.189407389611006</ele>
        <time>2026-07-20T00:34:54Z</time>
      </trkpt>
      <trkpt lat="39.89919919515423" lon="116.4601376144977">
        <ele>40.634139710105956</ele>
        <time>2026-07-20T00:35:10Z</time>
      </trkpt>
      <trkpt lat="39.89923850665032" lon="116.46022701746782">
        <ele>42.50824174191803</ele>
        <time>2026-07-20T00:35:14Z</time>
      </trkpt>
      <trkpt lat="39.89920987553657" lon="116.46029613530324">
        <ele>41.11187968496233</ele>
        <time>2026-07-20T00:35:18Z</time>
      </trkpt>
      <trkpt lat="39.89921916555359" lon="116.46039291652775">
        <ele>41.55717102903873</ele>
        <time>2026-07-20T00:35:22Z</time>
      </trkpt>
      <trkpt lat="39.89918678576905" lon="116.46052147273237">
        <ele>41.48617353849113</ele>
        <time>2026-07-20T00:35:30Z</time>
      </trkpt>
      <trkpt lat="39.89917809149109" lon="116.46074925985904">
        <ele>39.38775397371501</ele>
        <time>2026-07-20T00:35:42Z</time>
      </trkpt>
      <trkpt lat="39.89911404983652" lon="116.46083695657806">
        <ele>39.6111497906968</ele>
        <time>2026-07-20T00:35:48Z</time>
      </trkpt>
      <trkpt lat="39.899062561892656" lon="116.46086864736968">
        <ele>39.87722063623369</ele>
        <time>2026-07-20T00:35:51Z</time>
      </trkpt>
      <trkpt lat="39.89902398021845" lon="116.46091764201063">
        <ele>39.05512282252312</ele>
        <time>2026-07-20T00:35:54Z</time>
      </trkpt>
      <trkpt lat="39.898974222841915" lon="116.46091515774808">
        <ele>39.199856110848486</ele>
        <time>2026-07-20T00:35:57Z</time>
      </trkpt>
      <trkpt lat="39.89893014349877" lon="116.46095491042824">
        <ele>38.40563008002937</ele>
        <time>2026-07-20T00:36:03Z</time>
      </trkpt>
      <trkpt lat="39.89886076724063" lon="116.46094884874097">
        <ele>39.975976516492665</ele>
        <time>2026-07-20T00:36:06Z</time>
      </trkpt>
      <trkpt lat="39.89875579981431" lon="116.46100240912206">
        <ele>40.05258978717029</ele>
        <time>2026-07-20T00:36:10Z</time>
      </trkpt>
      <trkpt lat="39.89849635364402" lon="116.46094650111564">
        <ele>41.11448150407523</ele>
        <time>2026-07-20T00:36:22Z</time>
      </trkpt>
      <trkpt lat="39.898250637678885" lon="116.46097668530281">
        <ele>39.22335653286427</ele>
        <time>2026-07-20T00:36:34Z</time>
      </trkpt>
      <trkpt lat="39.8980349985643" lon="116.46094579751534">
        <ele>39.36935549136251</ele>
        <time>2026-07-20T00:36:46Z</time>
      </trkpt>
      <trkpt lat="39.897842045583225" lon="116.46097046435148">
        <ele>39.74776121228933</ele>
        <time>2026-07-20T00:36:58Z</time>
      </trkpt>
      <trkpt lat="39.89755865474123" lon="116.46093954276309">
        <ele>40.186725717037916</ele>
        <time>2026-07-20T00:37:14Z</time>
      </trkpt>
      <trkpt lat="39.8973902392738" lon="116.46095131464723">
        <ele>39.97787970583886</ele>
        <time>2026-07-20T00:37:22Z</time>
      </trkpt>
      <trkpt lat="39.89724176191365" lon="116.46093560530174">
        <ele>40.40951700042933</ele>
        <time>2026-07-20T00:37:30Z</time>
      </trkpt>
      <trkpt lat="39.897165955963466" lon="116.4609483487624">
        <ele>39.56074426602572</ele>
        <time>2026-07-20T00:37:34Z</time>
      </trkpt>
      <trkpt lat="39.896839343929166" lon="116.46093099465067">
        <ele>40.19979540910572</ele>
        <time>2026-07-20T00:37:51Z</time>
      </trkpt>
      <trkpt lat="39.89656576442884" lon="116.46091923614976">
        <ele>40.04417035635561</ele>
        <time>2026-07-20T00:38:06Z</time>
      </trkpt>
      <trkpt lat="39.89630758071299" lon="116.46089412603631">
        <ele>39.80750600155443</ele>
        <time>2026-07-20T00:38:22Z</time>
      </trkpt>
      <trkpt lat="39.89621760818754" lon="116.4609016763031">
        <ele>40.39358623046428</ele>
        <time>2026-07-20T00:38:26Z</time>
      </trkpt>
      <trkpt lat="39.896135889217355" lon="116.46093143447192">
        <ele>41.174627335742116</ele>
        <time>2026-07-20T00:38:30Z</time>
      </trkpt>
      <trkpt lat="39.89607453380184" lon="116.46092342402247">
        <ele>40.818155815824866</ele>
        <time>2026-07-20T00:38:34Z</time>
      </trkpt>
      <trkpt lat="39.89604627369661" lon="116.46097435001542">
        <ele>40.407101158984005</ele>
        <time>2026-07-20T00:38:38Z</time>
      </trkpt>
      <trkpt lat="39.89602468679795" lon="116.46117411491907">
        <ele>40.578136780299246</ele>
        <time>2026-07-20T00:38:46Z</time>
      </trkpt>
      <trkpt lat="39.89596895230848" lon="116.46120634091214">
        <ele>41.37217005994171</ele>
        <time>2026-07-20T00:38:54Z</time>
      </trkpt>
      <trkpt lat="39.89586846301048" lon="116.46119584617688">
        <ele>41.260466436855495</ele>
        <time>2026-07-20T00:39:10Z</time>
      </trkpt>
      <trkpt lat="39.895791122311316" lon="116.46123077188297">
        <ele>41.11637423560023</ele>
        <time>2026-07-20T00:39:18Z</time>
      </trkpt>
      <trkpt lat="39.89573410832167" lon="116.46155372139229">
        <ele>41.296697940677404</ele>
        <time>2026-07-20T00:39:42Z</time>
      </trkpt>
      <trkpt lat="39.89574587714937" lon="116.46164351847199">
        <ele>40.919590533711016</ele>
        <time>2026-07-20T00:39:49Z</time>
      </trkpt>
      <trkpt lat="39.89573819535759" lon="116.46172602555167">
        <ele>41.801562764681876</ele>
        <time>2026-07-20T00:39:55Z</time>
      </trkpt>
      <trkpt lat="39.895709846202024" lon="116.46180355849809">
        <ele>41.354050846770406</ele>
        <time>2026-07-20T00:40:01Z</time>
      </trkpt>
      <trkpt lat="39.895710981028124" lon="116.46188339370002">
        <ele>40.657930210232735</ele>
        <time>2026-07-20T00:40:07Z</time>
      </trkpt>
      <trkpt lat="39.89567827783709" lon="116.46213616002164">
        <ele>39.69955127313733</ele>
        <time>2026-07-20T00:40:25Z</time>
      </trkpt>
      <trkpt lat="39.895683592773494" lon="116.46238131129698">
        <ele>40.65765979979187</ele>
        <time>2026-07-20T00:40:43Z</time>
      </trkpt>
      <trkpt lat="39.89566259059888" lon="116.46247258298683">
        <ele>41.334919672459364</ele>
        <time>2026-07-20T00:40:49Z</time>
      </trkpt>
      <trkpt lat="39.89566620362803" lon="116.46272802210768">
        <ele>41.734939619898796</ele>
        <time>2026-07-20T00:41:10Z</time>
      </trkpt>
      <trkpt lat="39.89563673941925" lon="116.46277848453938">
        <ele>41.786406269297004</ele>
        <time>2026-07-20T00:41:13Z</time>
      </trkpt>
      <trkpt lat="39.895630111369115" lon="116.46285620952833">
        <ele>41.298558477312326</ele>
        <time>2026-07-20T00:41:16Z</time>
      </trkpt>
      <trkpt lat="39.89565712138492" lon="116.46293734528881">
        <ele>39.97117107361555</ele>
        <time>2026-07-20T00:41:28Z</time>
      </trkpt>
      <trkpt lat="39.89556290943719" lon="116.46302187955206">
        <ele>38.83236425649375</ele>
        <time>2026-07-20T00:41:43Z</time>
      </trkpt>
      <trkpt lat="39.89536801613044" lon="116.462993232714">
        <ele>40.60103324241936</ele>
        <time>2026-07-20T00:41:56Z</time>
      </trkpt>
      <trkpt lat="39.89507330285449" lon="116.4629726489737">
        <ele>41.08003285899758</ele>
        <time>2026-07-20T00:42:38Z</time>
      </trkpt>
      <trkpt lat="39.89477121749636" lon="116.4629881652546">
        <ele>40.99027229566127</ele>
        <time>2026-07-20T00:43:08Z</time>
      </trkpt>
      <trkpt lat="39.89449852585777" lon="116.4629653678746">
        <ele>40.93840205203742</ele>
        <time>2026-07-20T00:43:38Z</time>
      </trkpt>
      <trkpt lat="39.894407523625354" lon="116.46295277642871">
        <ele>40.23987026605755</ele>
        <time>2026-07-20T00:43:47Z</time>
      </trkpt>
      <trkpt lat="39.894230185129295" lon="116.46302257403191">
        <ele>40.79052254837006</ele>
        <time>2026-07-20T00:44:06Z</time>
      </trkpt>
      <trkpt lat="39.894141142337546" lon="116.46304682756409">
        <ele>41.433356653898954</ele>
        <time>2026-07-20T00:44:15Z</time>
      </trkpt>
    </trkseg>
  </trk>
</gpx>