<?xml version="1.0" encoding="UTF-8"?>
<gpx xmlns="http://www.topografix.com/GPX/1/1" xmlns:gpxtpx="http://www.garmin.com/xmlschemas/TrackPointExtension/v1" xmlns:xsi="http://www.w3.org/2001/XMLSchema-instance" xsi:schemaLocation="http://www.topografix.com/GPX/1/1 http://www.topografix.com/GPX/1/1/gpx.xsd" version="1.1" creator="gpx.py -- https://github.com/tkrajina/gpxpy">
  <trk>
    <name>gpx from keep</name>
    <type>Run</type>
    <trkseg>
      <trkpt lat="39.8939420755995" lon="116.46460968729968">
        <ele>42.40247917175293</ele>
        <time>2026-07-12T23:47:38Z</time>
      </trkpt>
      <trkpt lat="39.893899423781114" lon="116.46469192862246">
        <ele>41.41944694519043</ele>
        <time>2026-07-12T23:47:46Z</time>
      </trkpt>
      <trkpt lat="39.893870139566175" lon="116.4648017695367">
        <ele>39.593031086958945</ele>
        <time>2026-07-12T23:47:54Z</time>
      </trkpt>
      <trkpt lat="39.89384121972878" lon="116.46504933053019">
        <ele>39.145358147099614</ele>
        <time>2026-07-12T23:48:10Z</time>
      </trkpt>
      <trkpt lat="39.893850353085476" lon="116.46516380810908">
        <ele>40.496421799995005</ele>
        <time>2026-07-12T23:48:18Z</time>
      </trkpt>
      <trkpt lat="39.89389636783746" lon="116.46524830310193">
        <ele>42.34945028368384</ele>
        <time>2026-07-12T23:48:26Z</time>
      </trkpt>
      <trkpt lat="39.89386461320762" lon="116.46538162693254">
        <ele>42.77046876307577</ele>
        <time>2026-07-12T23:48:34Z</time>
      </trkpt>
      <trkpt lat="39.89384411592955" lon="116.4655973481094">
        <ele>41.39167623221874</ele>
        <time>2026-07-12T23:48:50Z</time>
      </trkpt>
      <trkpt lat="39.89387293901703" lon="116.46564614500014">
        <ele>40.85983080789447</ele>
        <time>2026-07-12T23:48:53Z</time>
      </trkpt>
      <trkpt lat="39.893892950212845" lon="116.46572965571771">
        <ele>41.17526548914611</ele>
        <time>2026-07-12T23:48:59Z</time>
      </trkpt>
      <trkpt lat="39.89393058290763" lon="116.46579017075608">
        <ele>42.842941160313785</ele>
        <time>2026-07-12T23:49:05Z</time>
      </trkpt>
      <trkpt lat="39.8941688289623" lon="116.46589192407974">
        <ele>38.919394539669156</ele>
        <time>2026-07-12T23:49:23Z</time>
      </trkpt>
      <trkpt lat="39.894236846716055" lon="116.46593883523751">
        <ele>38.8837831960991</ele>
        <time>2026-07-12T23:49:29Z</time>
      </trkpt>
      <trkpt lat="39.89427830803204" lon="116.46602333371027">
        <ele>38.37757445406169</ele>
        <time>2026-07-12T23:49:35Z</time>
      </trkpt>
      <trkpt lat="39.89428807391053" lon="116.4661835988944">
        <ele>39.10151275154203</ele>
        <time>2026-07-12T23:49:44Z</time>
      </trkpt>
      <trkpt lat="39.89431921175974" lon="116.46623361405986">
        <ele>39.35988003294915</ele>
        <time>2026-07-12T23:49:48Z</time>
      </trkpt>
      <trkpt lat="39.89439917610287" lon="116.4662874420534">
        <ele>39.21485299617052</ele>
        <time>2026-07-12T23:49:57Z</time>
      </trkpt>
      <trkpt lat="39.89442968585914" lon="116.46646038397805">
        <ele>38.454431290738285</ele>
        <time>2026-07-12T23:50:09Z</time>
      </trkpt>
      <trkpt lat="39.89457726310031" lon="116.46646114546856">
        <ele>38.07696172129363</ele>
        <time>2026-07-12T23:50:21Z</time>
      </trkpt>
      <trkpt lat="39.894633266586894" lon="116.46649782052708">
        <ele>38.27282923646271</ele>
        <time>2026-07-12T23:50:27Z</time>
      </trkpt>
      <trkpt lat="39.89464205642424" lon="116.4666134926582">
        <ele>38.47854308504611</ele>
        <time>2026-07-12T23:50:36Z</time>
      </trkpt>
      <trkpt lat="39.89466476229406" lon="116.46668855798873">
        <ele>38.743921069428325</ele>
        <time>2026-07-12T23:50:39Z</time>
      </trkpt>
      <trkpt lat="39.8946998448051" lon="116.4667342361204">
        <ele>38.801185792312026</ele>
        <time>2026-07-12T23:50:42Z</time>
      </trkpt>
      <trkpt lat="39.89492957108362" lon="116.46673218059463">
        <ele>38.52871401142329</ele>
        <time>2026-07-12T23:50:54Z</time>
      </trkpt>
      <trkpt lat="39.89527438990656" lon="116.46677336501945">
        <ele>38.02736570313573</ele>
        <time>2026-07-12T23:51:09Z</time>
      </trkpt>
      <trkpt lat="39.89554529494599" lon="116.46678444419767">
        <ele>37.88420530129224</ele>
        <time>2026-07-12T23:51:21Z</time>
      </trkpt>
      <trkpt lat="39.89583669286965" lon="116.46677624955755">
        <ele>39.345645636320114</ele>
        <time>2026-07-12T23:51:33Z</time>
      </trkpt>
      <trkpt lat="39.89612158880585" lon="116.4667461517909">
        <ele>38.66434852499515</ele>
        <time>2026-07-12T23:51:45Z</time>
      </trkpt>
      <trkpt lat="39.8962471216501" lon="116.46675039470198">
        <ele>38.95889379829168</ele>
        <time>2026-07-12T23:51:51Z</time>
      </trkpt>
      <trkpt lat="39.896459587813965" lon="116.4667890650662">
        <ele>39.637418538331985</ele>
        <time>2026-07-12T23:52:02Z</time>
      </trkpt>
      <trkpt lat="39.896714109358925" lon="116.46676660651994">
        <ele>39.675209793262184</ele>
        <time>2026-07-12T23:52:14Z</time>
      </trkpt>
      <trkpt lat="39.89699445849477" lon="116.46678865756252">
        <ele>39.49472313094884</ele>
        <time>2026-07-12T23:52:30Z</time>
      </trkpt>
      <trkpt lat="39.89734511850245" lon="116.46678235049768">
        <ele>40.72059456910938</ele>
        <time>2026-07-12T23:52:47Z</time>
      </trkpt>
      <trkpt lat="39.89766678656325" lon="116.46680407039224">
        <ele>40.30257062334567</ele>
        <time>2026-07-12T23:53:08Z</time>
      </trkpt>
      <trkpt lat="39.89795463187681" lon="116.4668187825989">
        <ele>40.010544292628765</ele>
        <time>2026-07-12T23:53:32Z</time>
      </trkpt>
      <trkpt lat="39.898245701225406" lon="116.46683144959042">
        <ele>41.514717914164066</ele>
        <time>2026-07-12T23:53:56Z</time>
      </trkpt>
      <trkpt lat="39.89848642157167" lon="116.46684742892427">
        <ele>40.949349840171635</ele>
        <time>2026-07-12T23:54:15Z</time>
      </trkpt>
      <trkpt lat="39.89855763417175" lon="116.46687684147447">
        <ele>40.990761945955455</ele>
        <time>2026-07-12T23:54:19Z</time>
      </trkpt>
      <trkpt lat="39.89864907821114" lon="116.46688462659175">
        <ele>40.76516965869814</ele>
        <time>2026-07-12T23:54:23Z</time>
      </trkpt>
      <trkpt lat="39.898830191441355" lon="116.46684301261874">
        <ele>40.75409939605743</ele>
        <time>2026-07-12T23:54:31Z</time>
      </trkpt>
      <trkpt lat="39.89918487337125" lon="116.46684859160462">
        <ele>39.62234632112086</ele>
        <time>2026-07-12T23:54:47Z</time>
      </trkpt>
      <trkpt lat="39.89925335725749" lon="116.46683436425474">
        <ele>39.385886708274484</ele>
        <time>2026-07-12T23:54:51Z</time>
      </trkpt>
      <trkpt lat="39.89933504685256" lon="116.46678728662732">
        <ele>39.99126956332475</ele>
        <time>2026-07-12T23:54:55Z</time>
      </trkpt>
      <trkpt lat="39.899351797063844" lon="116.46668190715404">
        <ele>39.38764054141939</ele>
        <time>2026-07-12T23:54:59Z</time>
      </trkpt>
      <trkpt lat="39.89939282936172" lon="116.46660784416378">
        <ele>39.22802246827632</ele>
        <time>2026-07-12T23:55:03Z</time>
      </trkpt>
      <trkpt lat="39.899594312814344" lon="116.46649937873093">
        <ele>37.62309568282217</ele>
        <time>2026-07-12T23:55:19Z</time>
      </trkpt>
      <trkpt lat="39.89954306322053" lon="116.4665694113378">
        <ele>38.32368434779346</ele>
        <time>2026-07-12T23:55:27Z</time>
      </trkpt>
      <trkpt lat="39.8997164400399" lon="116.46646300115465">
        <ele>37.53681774716824</ele>
        <time>2026-07-12T23:55:31Z</time>
      </trkpt>
      <trkpt lat="39.899752838157745" lon="116.46660654532438">
        <ele>38.94165296666324</ele>
        <time>2026-07-12T23:55:35Z</time>
      </trkpt>
      <trkpt lat="39.89988564667446" lon="116.46664503241234">
        <ele>38.2666690479964</ele>
        <time>2026-07-12T23:55:39Z</time>
      </trkpt>
      <trkpt lat="39.899934256701364" lon="116.46669464469694">
        <ele>38.23972021881491</ele>
        <time>2026-07-12T23:55:43Z</time>
      </trkpt>
      <trkpt lat="39.90016730095576" lon="116.46674846329864">
        <ele>39.64875912480056</ele>
        <time>2026-07-12T23:55:55Z</time>
      </trkpt>
      <trkpt lat="39.90025153473517" lon="116.46673457231331">
        <ele>40.136237614788115</ele>
        <time>2026-07-12T23:55:59Z</time>
      </trkpt>
      <trkpt lat="39.90047822107992" lon="116.46679011953698">
        <ele>39.17388339526951</ele>
        <time>2026-07-12T23:56:10Z</time>
      </trkpt>
      <trkpt lat="39.900626483280206" lon="116.46672908994589">
        <ele>40.137112371623516</ele>
        <time>2026-07-12T23:56:18Z</time>
      </trkpt>
      <trkpt lat="39.90086786923274" lon="116.46650003227066">
        <ele>38.44152225647122</ele>
        <time>2026-07-12T23:56:34Z</time>
      </trkpt>
      <trkpt lat="39.90095254440237" lon="116.46646374532119">
        <ele>40.99364067334682</ele>
        <time>2026-07-12T23:56:38Z</time>
      </trkpt>
      <trkpt lat="39.90102859477245" lon="116.46647276851868">
        <ele>40.215212349779904</ele>
        <time>2026-07-12T23:56:42Z</time>
      </trkpt>
      <trkpt lat="39.90121829739661" lon="116.4663990250851">
        <ele>41.06954162288457</ele>
        <time>2026-07-12T23:56:54Z</time>
      </trkpt>
      <trkpt lat="39.901534940341556" lon="116.46633883525739">
        <ele>39.95661069639027</ele>
        <time>2026-07-12T23:57:14Z</time>
      </trkpt>
      <trkpt lat="39.901599480578035" lon="116.46636745545874">
        <ele>39.46346524916589</ele>
        <time>2026-07-12T23:57:18Z</time>
      </trkpt>
      <trkpt lat="39.90172979863407" lon="116.4664898720676">
        <ele>39.97250121459365</ele>
        <time>2026-07-12T23:57:26Z</time>
      </trkpt>
      <trkpt lat="39.90178718248406" lon="116.46652053177728">
        <ele>40.47454394865781</ele>
        <time>2026-07-12T23:57:30Z</time>
      </trkpt>
      <trkpt lat="39.901849878302436" lon="116.46651152132583">
        <ele>39.745576347224414</ele>
        <time>2026-07-12T23:57:34Z</time>
      </trkpt>
      <trkpt lat="39.90210441221407" lon="116.46652430327933">
        <ele>39.24436826817691</ele>
        <time>2026-07-12T23:57:50Z</time>
      </trkpt>
      <trkpt lat="39.90231275044974" lon="116.46643488274945">
        <ele>39.421967775560915</ele>
        <time>2026-07-12T23:58:02Z</time>
      </trkpt>
      <trkpt lat="39.90253005941045" lon="116.46642192279296">
        <ele>38.55201809387654</ele>
        <time>2026-07-12T23:58:14Z</time>
      </trkpt>
      <trkpt lat="39.9027234744207" lon="116.46635742084311">
        <ele>38.11160011496395</ele>
        <time>2026-07-12T23:58:30Z</time>
      </trkpt>
      <trkpt lat="39.90281347727169" lon="116.46637952103734">
        <ele>40.0800199508667</ele>
        <time>2026-07-12T23:58:38Z</time>
      </trkpt>
      <trkpt lat="39.902857237863074" lon="116.46641444539092">
        <ele>39.83232928160578</ele>
        <time>2026-07-12T23:58:42Z</time>
      </trkpt>
      <trkpt lat="39.90288886776046" lon="116.46646818515723">
        <ele>39.88933223951608</ele>
        <time>2026-07-12T23:58:46Z</time>
      </trkpt>
      <trkpt lat="39.902893432542925" lon="116.4665375546751">
        <ele>39.709407621994615</ele>
        <time>2026-07-12T23:58:50Z</time>
      </trkpt>
      <trkpt lat="39.90291612357988" lon="116.46659919394568">
        <ele>40.38891283143312</ele>
        <time>2026-07-12T23:58:54Z</time>
      </trkpt>
      <trkpt lat="39.902985095458774" lon="116.46693874710144">
        <ele>36.3766417587176</ele>
        <time>2026-07-12T23:59:14Z</time>
      </trkpt>
      <trkpt lat="39.90302651385936" lon="116.46701273917198">
        <ele>36.70371319074184</ele>
        <time>2026-07-12T23:59:18Z</time>
      </trkpt>
      <trkpt lat="39.90304998277139" lon="116.466958889378">
        <ele>36.83921906724572</ele>
        <time>2026-07-12T23:59:22Z</time>
      </trkpt>
      <trkpt lat="39.90302179783524" lon="116.46657098265483">
        <ele>36.85714106447995</ele>
        <time>2026-07-12T23:59:38Z</time>
      </trkpt>
      <trkpt lat="39.903010247155706" lon="116.46612293446066">
        <ele>37.72355256229639</ele>
        <time>2026-07-12T23:59:54Z</time>
      </trkpt>
      <trkpt lat="39.90300852334505" lon="116.46573392744429">
        <ele>37.93117636162788</ele>
        <time>2026-07-13T00:00:06Z</time>
      </trkpt>
      <trkpt lat="39.90298967190811" lon="116.46529523330948">
        <ele>38.05161305144429</ele>
        <time>2026-07-13T00:00:21Z</time>
      </trkpt>
      <trkpt lat="39.90299477793035" lon="116.4649366799318">
        <ele>38.04695381782949</ele>
        <time>2026-07-13T00:00:33Z</time>
      </trkpt>
      <trkpt lat="39.902981707747124" lon="116.46454261754059">
        <ele>38.04647867102176</ele>
        <time>2026-07-13T00:00:49Z</time>
      </trkpt>
      <trkpt lat="39.902953984652875" lon="116.46417686916443">
        <ele>37.49531424045563</ele>
        <time>2026-07-13T00:01:05Z</time>
      </trkpt>
      <trkpt lat="39.90296906966004" lon="116.46383647515947">
        <ele>39.576887362636626</ele>
        <time>2026-07-13T00:01:20Z</time>
      </trkpt>
      <trkpt lat="39.90292400707946" lon="116.46340864874527">
        <ele>36.83515774086118</ele>
        <time>2026-07-13T00:01:36Z</time>
      </trkpt>
      <trkpt lat="39.90289494287397" lon="116.46296287231678">
        <ele>36.832152619957924</ele>
        <time>2026-07-13T00:01:52Z</time>
      </trkpt>
      <trkpt lat="39.90288989960483" lon="116.46276704008108">
        <ele>37.67751148343086</ele>
        <time>2026-07-13T00:02:00Z</time>
      </trkpt>
      <trkpt lat="39.90286980388603" lon="116.46269883895376">
        <ele>37.585772259160876</ele>
        <time>2026-07-13T00:02:08Z</time>
      </trkpt>
      <trkpt lat="39.90286559032432" lon="116.4625298201507">
        <ele>36.46458793617785</ele>
        <time>2026-07-13T00:02:16Z</time>
      </trkpt>
      <trkpt lat="39.90281482744876" lon="116.46221626642864">
        <ele>36.489936823025346</ele>
        <time>2026-07-13T00:02:45Z</time>
      </trkpt>
      <trkpt lat="39.90278429020311" lon="116.46179967898044">
        <ele>36.257030482403934</ele>
        <time>2026-07-13T00:03:12Z</time>
      </trkpt>
      <trkpt lat="39.902743474208734" lon="116.46147845337144">
        <ele>37.1534588932991</ele>
        <time>2026-07-13T00:03:25Z</time>
      </trkpt>
      <trkpt lat="39.90274713413479" lon="116.46138131303624">
        <ele>36.47262064181268</ele>
        <time>2026-07-13T00:03:29Z</time>
      </trkpt>
      <trkpt lat="39.90269570395321" lon="116.46092695741027">
        <ele>36.720380988903344</ele>
        <time>2026-07-13T00:03:45Z</time>
      </trkpt>
      <trkpt lat="39.902684525230555" lon="116.46080942826555">
        <ele>36.92346597742289</ele>
        <time>2026-07-13T00:03:49Z</time>
      </trkpt>
      <trkpt lat="39.90260969654632" lon="116.46059700600416">
        <ele>37.474510540254414</ele>
        <time>2026-07-13T00:03:57Z</time>
      </trkpt>
      <trkpt lat="39.90259451137206" lon="116.4603449663566">
        <ele>36.401257201097906</ele>
        <time>2026-07-13T00:04:13Z</time>
      </trkpt>
      <trkpt lat="39.90262063281954" lon="116.46020458035179">
        <ele>36.043037036433816</ele>
        <time>2026-07-13T00:04:21Z</time>
      </trkpt>
      <trkpt lat="39.9026072175102" lon="116.45984040522286">
        <ele>36.77635552175343</ele>
        <time>2026-07-13T00:04:37Z</time>
      </trkpt>
      <trkpt lat="39.90258567621456" lon="116.45941828165556">
        <ele>37.28843885008246</ele>
        <time>2026-07-13T00:04:55Z</time>
      </trkpt>
      <trkpt lat="39.90257805597505" lon="116.4590599545577">
        <ele>36.58678634930402</ele>
        <time>2026-07-13T00:05:07Z</time>
      </trkpt>
      <trkpt lat="39.90253537740558" lon="116.45862283872293">
        <ele>37.588593574240804</ele>
        <time>2026-07-13T00:05:28Z</time>
      </trkpt>
      <trkpt lat="39.90255635906946" lon="116.45843673581564">
        <ele>36.67357673868537</ele>
        <time>2026-07-13T00:05:40Z</time>
      </trkpt>
      <trkpt lat="39.90252359742443" lon="116.45826930327588">
        <ele>38.47671458218247</ele>
        <time>2026-07-13T00:05:52Z</time>
      </trkpt>
      <trkpt lat="39.90252369347785" lon="116.45817314057561">
        <ele>38.79961301293224</ele>
        <time>2026-07-13T00:06:00Z</time>
      </trkpt>
      <trkpt lat="39.90249222620124" lon="116.45807925760172">
        <ele>37.84231318626553</ele>
        <time>2026-07-13T00:06:08Z</time>
      </trkpt>
      <trkpt lat="39.90245679257238" lon="116.45803039954583">
        <ele>39.23108006082475</ele>
        <time>2026-07-13T00:06:12Z</time>
      </trkpt>
      <trkpt lat="39.902469313401134" lon="116.45778631305387">
        <ele>37.403770617209375</ele>
        <time>2026-07-13T00:06:28Z</time>
      </trkpt>
      <trkpt lat="39.90245940011083" lon="116.45764120129166">
        <ele>37.76258077751845</ele>
        <time>2026-07-13T00:06:38Z</time>
      </trkpt>
      <trkpt lat="39.902483626867166" lon="116.45758925560318">
        <ele>37.34314509853721</ele>
        <time>2026-07-13T00:06:41Z</time>
      </trkpt>
      <trkpt lat="39.90247248178489" lon="116.45717551096483">
        <ele>37.540112658403814</ele>
        <time>2026-07-13T00:06:56Z</time>
      </trkpt>
      <trkpt lat="39.90246690264333" lon="116.4570655123352">
        <ele>37.53886574879289</ele>
        <time>2026-07-13T00:07:00Z</time>
      </trkpt>
      <trkpt lat="39.90239256511404" lon="116.45662232803211">
        <ele>38.28207711316645</ele>
        <time>2026-07-13T00:07:14Z</time>
      </trkpt>
      <trkpt lat="39.90221057857743" lon="116.45629224265632">
        <ele>40.14436006080359</ele>
        <time>2026-07-13T00:07:31Z</time>
      </trkpt>
      <trkpt lat="39.90210648002592" lon="116.45606152126864">
        <ele>39.69814238604158</ele>
        <time>2026-07-13T00:07:41Z</time>
      </trkpt>
      <trkpt lat="39.90204831443798" lon="116.45600266183898">
        <ele>39.181151990778744</ele>
        <time>2026-07-13T00:07:45Z</time>
      </trkpt>
      <trkpt lat="39.9017290779381" lon="116.45602799267031">
        <ele>39.199907740578055</ele>
        <time>2026-07-13T00:08:01Z</time>
      </trkpt>
      <trkpt lat="39.90155845871103" lon="116.45601166909903">
        <ele>38.92894278280437</ele>
        <time>2026-07-13T00:08:09Z</time>
      </trkpt>
      <trkpt lat="39.9015014009978" lon="116.45602790956997">
        <ele>39.12443754635751</ele>
        <time>2026-07-13T00:08:12Z</time>
      </trkpt>
      <trkpt lat="39.90127874482033" lon="116.45625071657723">
        <ele>39.46570326574147</ele>
        <time>2026-07-13T00:08:26Z</time>
      </trkpt>
      <trkpt lat="39.90105429056866" lon="116.45644129825239">
        <ele>40.61582640465349</ele>
        <time>2026-07-13T00:08:40Z</time>
      </trkpt>
      <trkpt lat="39.90093692616252" lon="116.45632992577366">
        <ele>39.59359557926655</ele>
        <time>2026-07-13T00:08:47Z</time>
      </trkpt>
      <trkpt lat="39.90096091373213" lon="116.45620075656649">
        <ele>39.77669048216194</ele>
        <time>2026-07-13T00:08:55Z</time>
      </trkpt>
      <trkpt lat="39.9009484234978" lon="116.45585252545804">
        <ele>39.918349692597985</ele>
        <time>2026-07-13T00:09:19Z</time>
      </trkpt>
      <trkpt lat="39.90060111054288" lon="116.45582792736744">
        <ele>38.464871876873076</ele>
        <time>2026-07-13T00:09:43Z</time>
      </trkpt>
      <trkpt lat="39.90032801889704" lon="116.45583902454547">
        <ele>39.42948881164193</ele>
        <time>2026-07-13T00:09:55Z</time>
      </trkpt>
      <trkpt lat="39.90006460404371" lon="116.45580921763936">
        <ele>40.965354732237756</ele>
        <time>2026-07-13T00:10:11Z</time>
      </trkpt>
      <trkpt lat="39.899984774228805" lon="116.45583057325611">
        <ele>41.539485529996455</ele>
        <time>2026-07-13T00:10:15Z</time>
      </trkpt>
      <trkpt lat="39.8996599755242" lon="116.45578426333478">
        <ele>40.95656324457377</ele>
        <time>2026-07-13T00:10:27Z</time>
      </trkpt>
      <trkpt lat="39.89957297716232" lon="116.45580782348337">
        <ele>39.94478388596326</ele>
        <time>2026-07-13T00:10:31Z</time>
      </trkpt>
      <trkpt lat="39.89958007909644" lon="116.45589212579623">
        <ele>43.42130850907415</ele>
        <time>2026-07-13T00:10:35Z</time>
      </trkpt>
      <trkpt lat="39.89971035020678" lon="116.4559479559861">
        <ele>41.800269519910216</ele>
        <time>2026-07-13T00:10:54Z</time>
      </trkpt>
      <trkpt lat="39.89979278265622" lon="116.45592968205835">
        <ele>41.28862956725061</ele>
        <time>2026-07-13T00:11:02Z</time>
      </trkpt>
      <trkpt lat="39.899854598901186" lon="116.45596860252944">
        <ele>41.66621107701212</ele>
        <time>2026-07-13T00:11:34Z</time>
      </trkpt>
      <trkpt lat="39.899864128983864" lon="116.45603012609212">
        <ele>42.12000786140561</ele>
        <time>2026-07-13T00:11:38Z</time>
      </trkpt>
      <trkpt lat="39.8999076129896" lon="116.45610223761472">
        <ele>41.14697877597064</ele>
        <time>2026-07-13T00:11:46Z</time>
      </trkpt>
      <trkpt lat="39.89993467078005" lon="116.45620501507683">
        <ele>41.973651393316686</ele>
        <time>2026-07-13T00:11:54Z</time>
      </trkpt>
      <trkpt lat="39.89991438877903" lon="116.45646042250779">
        <ele>40.935020309872925</ele>
        <time>2026-07-13T00:12:14Z</time>
      </trkpt>
      <trkpt lat="39.89992204452326" lon="116.45654931786552">
        <ele>40.45374915469438</ele>
        <time>2026-07-13T00:12:22Z</time>
      </trkpt>
      <trkpt lat="39.89989066440623" lon="116.45676192877498">
        <ele>42.46823154296726</ele>
        <time>2026-07-13T00:12:38Z</time>
      </trkpt>
      <trkpt lat="39.89990039613538" lon="116.45719028296428">
        <ele>41.47855681553483</ele>
        <time>2026-07-13T00:13:06Z</time>
      </trkpt>
      <trkpt lat="39.89988673120793" lon="116.45759334979624">
        <ele>40.59956795535982</ele>
        <time>2026-07-13T00:13:24Z</time>
      </trkpt>
      <trkpt lat="39.89987606171418" lon="116.45796156455317">
        <ele>40.47699140198529</ele>
        <time>2026-07-13T00:13:39Z</time>
      </trkpt>
      <trkpt lat="39.89986912356674" lon="116.45810551632457">
        <ele>40.2632475271821</ele>
        <time>2026-07-13T00:13:45Z</time>
      </trkpt>
      <trkpt lat="39.89980738484717" lon="116.45814243123212">
        <ele>41.19723417237401</ele>
        <time>2026-07-13T00:13:51Z</time>
      </trkpt>
      <trkpt lat="39.89980738484717" lon="116.45814243123212">
        <ele>41.19723417237401</ele>
        <time>2026-07-13T00:13:51Z</time>
      </trkpt>
      <trkpt lat="39.89963595476445" lon="116.45865990953206">
        <ele>41.733460769988596</ele>
        <time>2026-07-13T00:17:16Z</time>
      </trkpt>
      <trkpt lat="39.899628383434305" lon="116.45876456607724">
        <ele>41.641526848077774</ele>
        <time>2026-07-13T00:17:22Z</time>
      </trkpt>
      <trkpt lat="39.89968188739178" lon="116.45880233849819">
        <ele>42.03260230086744</ele>
        <time>2026-07-13T00:17:25Z</time>
      </trkpt>
      <trkpt lat="39.89970435514044" lon="116.45890046851596">
        <ele>42.05770600400865</ele>
        <time>2026-07-13T00:17:31Z</time>
      </trkpt>
      <trkpt lat="39.89966278440657" lon="116.45900077082744">
        <ele>41.87205925025046</ele>
        <time>2026-07-13T00:17:37Z</time>
      </trkpt>
      <trkpt lat="39.89962237651344" lon="116.45903349586978">
        <ele>41.189831354655325</ele>
        <time>2026-07-13T00:17:40Z</time>
      </trkpt>
      <trkpt lat="39.899687421859376" lon="116.45925645600194">
        <ele>40.938791518099606</ele>
        <time>2026-07-13T00:17:52Z</time>
      </trkpt>
      <trkpt lat="39.899688463502976" lon="116.45938538979217">
        <ele>40.73519076034427</ele>
        <time>2026-07-13T00:17:58Z</time>
      </trkpt>
      <trkpt lat="39.899592024144354" lon="116.45966057899942">
        <ele>41.03576164878905</ele>
        <time>2026-07-13T00:18:10Z</time>
      </trkpt>
      <trkpt lat="39.899609967923446" lon="116.45978024235752">
        <ele>40.85336287226528</ele>
        <time>2026-07-13T00:18:16Z</time>
      </trkpt>
      <trkpt lat="39.899699433889744" lon="116.45987088356861">
        <ele>41.55454684514552</ele>
        <time>2026-07-13T00:18:25Z</time>
      </trkpt>
      <trkpt lat="39.899546937909534" lon="116.46061763569173">
        <ele>40.847864910028875</ele>
        <time>2026-07-13T00:23:52Z</time>
      </trkpt>
      <trkpt lat="39.89954659040903" lon="116.46069520480727">
        <ele>40.805887155234814</ele>
        <time>2026-07-13T00:23:56Z</time>
      </trkpt>
      <trkpt lat="39.899521929272055" lon="116.46079101815427">
        <ele>39.9629471488297</ele>
        <time>2026-07-13T00:24:00Z</time>
      </trkpt>
      <trkpt lat="39.899482903340996" lon="116.46084701761309">
        <ele>40.77683506254107</ele>
        <time>2026-07-13T00:24:03Z</time>
      </trkpt>
      <trkpt lat="39.899428503024986" lon="116.4609957530519">
        <ele>39.864450154826045</ele>
        <time>2026-07-13T00:24:12Z</time>
      </trkpt>
      <trkpt lat="39.89943464710173" lon="116.4612563242683">
        <ele>40.500711457803845</ele>
        <time>2026-07-13T00:24:36Z</time>
      </trkpt>
      <trkpt lat="39.89942219160325" lon="116.46132739980042">
        <ele>39.91232769098133</ele>
        <time>2026-07-13T00:24:42Z</time>
      </trkpt>
      <trkpt lat="39.89934974949271" lon="116.46135264491829">
        <ele>40.014793276786804</ele>
        <time>2026-07-13T00:25:09Z</time>
      </trkpt>
      <trkpt lat="39.89927912321467" lon="116.46133271119855">
        <ele>40.625995269976556</ele>
        <time>2026-07-13T00:25:15Z</time>
      </trkpt>
      <trkpt lat="39.899002527227736" lon="116.46134038335943">
        <ele>40.76564027182758</ele>
        <time>2026-07-13T00:25:40Z</time>
      </trkpt>
      <trkpt lat="39.898757562016634" lon="116.46131910589138">
        <ele>39.96543457638472</ele>
        <time>2026-07-13T00:26:04Z</time>
      </trkpt>
      <trkpt lat="39.89844947363254" lon="116.46131936324385">
        <ele>40.06477714050561</ele>
        <time>2026-07-13T00:26:34Z</time>
      </trkpt>
      <trkpt lat="39.898156325211204" lon="116.4613166063178">
        <ele>40.99770486820489</ele>
        <time>2026-07-13T00:27:04Z</time>
      </trkpt>
      <trkpt lat="39.89802699123774" lon="116.46127881494078">
        <ele>39.61483531910926</ele>
        <time>2026-07-13T00:27:16Z</time>
      </trkpt>
      <trkpt lat="39.89795524455126" lon="116.46129616148583">
        <ele>39.73435499332845</ele>
        <time>2026-07-13T00:27:23Z</time>
      </trkpt>
    </trkseg>
  </trk>
</gpx>