<?xml version="1.0" encoding="UTF-8"?>
<gpx xmlns="http://www.topografix.com/GPX/1/1" xmlns:gpxtpx="http://www.garmin.com/xmlschemas/TrackPointExtension/v1" xmlns:xsi="http://www.w3.org/2001/XMLSchema-instance" xsi:schemaLocation="http://www.topografix.com/GPX/1/1 http://www.topografix.com/GPX/1/1/gpx.xsd" version="1.1" creator="gpx.py -- https://github.com/tkrajina/gpxpy">
  <trk>
    <name>gpx from keep</name>
    <type>Run</type>
    <trkseg>
      <trkpt lat="39.89372846078375" lon="116.46320353006047">
        <ele>40.60200309753418</ele>
        <time>2026-07-08T23:45:12Z</time>
      </trkpt>
      <trkpt lat="39.893827315308215" lon="116.46313788739172">
        <ele>38.56287959218025</ele>
        <time>2026-07-08T23:45:24Z</time>
      </trkpt>
      <trkpt lat="39.893884100421594" lon="116.46318791796894">
        <ele>40.40504277870059</ele>
        <time>2026-07-08T23:45:30Z</time>
      </trkpt>
      <trkpt lat="39.8938976457779" lon="116.46336531436057">
        <ele>40.3612195532769</ele>
        <time>2026-07-08T23:45:39Z</time>
      </trkpt>
      <trkpt lat="39.8938782364175" lon="116.46342121555504">
        <ele>40.004724226891994</ele>
        <time>2026-07-08T23:45:42Z</time>
      </trkpt>
      <trkpt lat="39.89389978410669" lon="116.46359260437279">
        <ele>39.31599261518568</ele>
        <time>2026-07-08T23:45:54Z</time>
      </trkpt>
      <trkpt lat="39.89389439520832" lon="116.46399989997505">
        <ele>38.99608183372766</ele>
        <time>2026-07-08T23:46:24Z</time>
      </trkpt>
      <trkpt lat="39.89390050340997" lon="116.46415837847721">
        <ele>39.27870597038418</ele>
        <time>2026-07-08T23:46:33Z</time>
      </trkpt>
      <trkpt lat="39.89388708500123" lon="116.46423808700771">
        <ele>38.98808832000941</ele>
        <time>2026-07-08T23:46:42Z</time>
      </trkpt>
      <trkpt lat="39.893921174543365" lon="116.4643655912916">
        <ele>39.40844041481614</ele>
        <time>2026-07-08T23:46:57Z</time>
      </trkpt>
      <trkpt lat="39.893965854573146" lon="116.46438160763337">
        <ele>40.66087612975389</ele>
        <time>2026-07-08T23:47:22Z</time>
      </trkpt>
      <trkpt lat="39.89406122185472" lon="116.46451104422482">
        <ele>40.5447522001341</ele>
        <time>2026-07-08T23:47:40Z</time>
      </trkpt>
      <trkpt lat="39.89410401732451" lon="116.4646785301456">
        <ele>39.444131075404584</ele>
        <time>2026-07-08T23:47:49Z</time>
      </trkpt>
      <trkpt lat="39.89412334809846" lon="116.46486133926884">
        <ele>39.252816058695316</ele>
        <time>2026-07-08T23:47:52Z</time>
      </trkpt>
      <trkpt lat="39.894102932375176" lon="116.46506239431682">
        <ele>39.73750582803041</ele>
        <time>2026-07-08T23:48:04Z</time>
      </trkpt>
      <trkpt lat="39.89411982936411" lon="116.46520347993648">
        <ele>39.44620721042156</ele>
        <time>2026-07-08T23:48:10Z</time>
      </trkpt>
      <trkpt lat="39.89423349120507" lon="116.46560984213716">
        <ele>39.70701457839459</ele>
        <time>2026-07-08T23:48:28Z</time>
      </trkpt>
      <trkpt lat="39.89426708732042" lon="116.4656801811577">
        <ele>39.2090598968789</ele>
        <time>2026-07-08T23:48:31Z</time>
      </trkpt>
      <trkpt lat="39.89432864511629" lon="116.46606040300159">
        <ele>39.72976390644908</ele>
        <time>2026-07-08T23:48:46Z</time>
      </trkpt>
      <trkpt lat="39.89443409195657" lon="116.46642631841962">
        <ele>38.93445008993149</ele>
        <time>2026-07-08T23:49:04Z</time>
      </trkpt>
      <trkpt lat="39.894587692336046" lon="116.46654292974806">
        <ele>38.951336501166224</ele>
        <time>2026-07-08T23:49:16Z</time>
      </trkpt>
      <trkpt lat="39.89462709607284" lon="116.46662701960263">
        <ele>38.81948568765074</ele>
        <time>2026-07-08T23:49:25Z</time>
      </trkpt>
      <trkpt lat="39.89472142332168" lon="116.46668928999605">
        <ele>39.426267048344016</ele>
        <time>2026-07-08T23:49:29Z</time>
      </trkpt>
      <trkpt lat="39.89486633696606" lon="116.46666656123426">
        <ele>39.262089223600924</ele>
        <time>2026-07-08T23:49:37Z</time>
      </trkpt>
      <trkpt lat="39.89509328276745" lon="116.46668180756747">
        <ele>38.76304056029767</ele>
        <time>2026-07-08T23:49:48Z</time>
      </trkpt>
      <trkpt lat="39.89523480617844" lon="116.46671818405491">
        <ele>38.83944290317595</ele>
        <time>2026-07-08T23:49:57Z</time>
      </trkpt>
      <trkpt lat="39.89553763687104" lon="116.46670452316064">
        <ele>39.55395703110844</ele>
        <time>2026-07-08T23:50:12Z</time>
      </trkpt>
      <trkpt lat="39.89567918105191" lon="116.46674131157727">
        <ele>38.84696996770799</ele>
        <time>2026-07-08T23:50:18Z</time>
      </trkpt>
      <trkpt lat="39.89595082476881" lon="116.46674960632362">
        <ele>38.576658349484205</ele>
        <time>2026-07-08T23:50:30Z</time>
      </trkpt>
      <trkpt lat="39.89620817022834" lon="116.46670577497144">
        <ele>38.09812036994845</ele>
        <time>2026-07-08T23:50:42Z</time>
      </trkpt>
      <trkpt lat="39.896448037247055" lon="116.46675516950096">
        <ele>38.30179657693952</ele>
        <time>2026-07-08T23:50:54Z</time>
      </trkpt>
      <trkpt lat="39.89650502693115" lon="116.46672683339283">
        <ele>39.87921999581158</ele>
        <time>2026-07-08T23:50:57Z</time>
      </trkpt>
      <trkpt lat="39.89678760606416" lon="116.46671503422222">
        <ele>39.58920830860734</ele>
        <time>2026-07-08T23:51:12Z</time>
      </trkpt>
      <trkpt lat="39.8968957069728" lon="116.46673099559229">
        <ele>39.45923551823944</ele>
        <time>2026-07-08T23:51:18Z</time>
      </trkpt>
      <trkpt lat="39.89704527432059" lon="116.46670797112249">
        <ele>41.45439806487411</ele>
        <time>2026-07-08T23:51:27Z</time>
      </trkpt>
      <trkpt lat="39.89733478943719" lon="116.46670785044445">
        <ele>41.52156399469823</ele>
        <time>2026-07-08T23:51:45Z</time>
      </trkpt>
      <trkpt lat="39.89747287691847" lon="116.46669980643274">
        <ele>40.80312425736338</ele>
        <time>2026-07-08T23:51:53Z</time>
      </trkpt>
      <trkpt lat="39.897710679984634" lon="116.46679630330107">
        <ele>40.795309654437006</ele>
        <time>2026-07-08T23:52:09Z</time>
      </trkpt>
      <trkpt lat="39.89797297508132" lon="116.46680704566182">
        <ele>41.307856812141836</ele>
        <time>2026-07-08T23:52:22Z</time>
      </trkpt>
      <trkpt lat="39.898031796514324" lon="116.46678099787383">
        <ele>40.73996931873262</ele>
        <time>2026-07-08T23:52:25Z</time>
      </trkpt>
      <trkpt lat="39.89836124845267" lon="116.46678633286437">
        <ele>40.15939636155963</ele>
        <time>2026-07-08T23:52:49Z</time>
      </trkpt>
      <trkpt lat="39.8985147407743" lon="116.46680897133733">
        <ele>40.66396015509963</ele>
        <time>2026-07-08T23:53:01Z</time>
      </trkpt>
      <trkpt lat="39.8986409823247" lon="116.46677804544817">
        <ele>40.43512851558626</ele>
        <time>2026-07-08T23:53:13Z</time>
      </trkpt>
      <trkpt lat="39.89869746158663" lon="116.46680997455024">
        <ele>39.5978485699743</ele>
        <time>2026-07-08T23:53:16Z</time>
      </trkpt>
      <trkpt lat="39.89899886115908" lon="116.46684983817525">
        <ele>39.026222283020616</ele>
        <time>2026-07-08T23:53:37Z</time>
      </trkpt>
      <trkpt lat="39.89919956684991" lon="116.46681537797939">
        <ele>38.61890615988523</ele>
        <time>2026-07-08T23:53:52Z</time>
      </trkpt>
      <trkpt lat="39.899279441973405" lon="116.46676056195433">
        <ele>38.912453070282936</ele>
        <time>2026-07-08T23:53:56Z</time>
      </trkpt>
      <trkpt lat="39.89933411905325" lon="116.46664450958636">
        <ele>39.66931846924126</ele>
        <time>2026-07-08T23:54:00Z</time>
      </trkpt>
      <trkpt lat="39.89950550712476" lon="116.4665288356499">
        <ele>38.009768354706466</ele>
        <time>2026-07-08T23:54:12Z</time>
      </trkpt>
      <trkpt lat="39.89973796025943" lon="116.46647287988665">
        <ele>38.92474114522338</ele>
        <time>2026-07-08T23:54:32Z</time>
      </trkpt>
      <trkpt lat="39.899671179741816" lon="116.46656586801184">
        <ele>40.50477409362793</ele>
        <time>2026-07-08T23:54:36Z</time>
      </trkpt>
      <trkpt lat="39.899850326536324" lon="116.46646115446187">
        <ele>38.70196356251836</ele>
        <time>2026-07-08T23:54:39Z</time>
      </trkpt>
      <trkpt lat="39.89987816922491" lon="116.46665868629515">
        <ele>38.922468684613705</ele>
        <time>2026-07-08T23:54:42Z</time>
      </trkpt>
      <trkpt lat="39.89991399202907" lon="116.46671830418185">
        <ele>38.41320883948356</ele>
        <time>2026-07-08T23:54:45Z</time>
      </trkpt>
      <trkpt lat="39.89998013638723" lon="116.46677002458854">
        <ele>38.96792362816632</ele>
        <time>2026-07-08T23:54:48Z</time>
      </trkpt>
      <trkpt lat="39.9001636243516" lon="116.46678636994426">
        <ele>39.18628079164773</ele>
        <time>2026-07-08T23:54:57Z</time>
      </trkpt>
      <trkpt lat="39.9003424559494" lon="116.46675679823996">
        <ele>40.915624218061566</ele>
        <time>2026-07-08T23:55:09Z</time>
      </trkpt>
      <trkpt lat="39.90041480100327" lon="116.46676187147277">
        <ele>41.33592755254358</ele>
        <time>2026-07-08T23:55:12Z</time>
      </trkpt>
      <trkpt lat="39.90046853643632" lon="116.46679040838889">
        <ele>40.27201258111745</ele>
        <time>2026-07-08T23:55:15Z</time>
      </trkpt>
      <trkpt lat="39.90059897957754" lon="116.46674515426932">
        <ele>40.300065740942955</ele>
        <time>2026-07-08T23:55:21Z</time>
      </trkpt>
      <trkpt lat="39.900637557235584" lon="116.46669515874143">
        <ele>40.09622844401747</ele>
        <time>2026-07-08T23:55:24Z</time>
      </trkpt>
      <trkpt lat="39.900690203872855" lon="116.46666728188148">
        <ele>40.79424495249987</ele>
        <time>2026-07-08T23:55:27Z</time>
      </trkpt>
      <trkpt lat="39.900728379344486" lon="116.46660083662078">
        <ele>40.623114885762334</ele>
        <time>2026-07-08T23:55:30Z</time>
      </trkpt>
      <trkpt lat="39.90084602611583" lon="116.46652931280065">
        <ele>40.799806769005954</ele>
        <time>2026-07-08T23:55:36Z</time>
      </trkpt>
      <trkpt lat="39.9009149486957" lon="116.46652010039372">
        <ele>41.00138859730214</ele>
        <time>2026-07-08T23:55:39Z</time>
      </trkpt>
      <trkpt lat="39.900955167285055" lon="116.46647296252605">
        <ele>41.08567642048001</ele>
        <time>2026-07-08T23:55:42Z</time>
      </trkpt>
      <trkpt lat="39.90109646222534" lon="116.46646719936922">
        <ele>41.287099783308804</ele>
        <time>2026-07-08T23:55:49Z</time>
      </trkpt>
      <trkpt lat="39.90124444161588" lon="116.46638589712767">
        <ele>41.47133538406342</ele>
        <time>2026-07-08T23:55:57Z</time>
      </trkpt>
      <trkpt lat="39.90152916163191" lon="116.46635015425736">
        <ele>41.32493023015559</ele>
        <time>2026-07-08T23:56:13Z</time>
      </trkpt>
      <trkpt lat="39.90158886661012" lon="116.4663721190591">
        <ele>40.23571077268571</ele>
        <time>2026-07-08T23:56:17Z</time>
      </trkpt>
      <trkpt lat="39.90164590422593" lon="116.4664362752542">
        <ele>41.07433420047164</ele>
        <time>2026-07-08T23:56:21Z</time>
      </trkpt>
      <trkpt lat="39.90172006185672" lon="116.46647793919337">
        <ele>41.05152379255742</ele>
        <time>2026-07-08T23:56:25Z</time>
      </trkpt>
      <trkpt lat="39.90178096671959" lon="116.46655498684694">
        <ele>41.611226381734014</ele>
        <time>2026-07-08T23:56:29Z</time>
      </trkpt>
      <trkpt lat="39.90196726344867" lon="116.46652556795041">
        <ele>40.1919437116012</ele>
        <time>2026-07-08T23:56:41Z</time>
      </trkpt>
      <trkpt lat="39.90214048722721" lon="116.46652010762718">
        <ele>39.59911975543946</ele>
        <time>2026-07-08T23:56:49Z</time>
      </trkpt>
      <trkpt lat="39.902212226311626" lon="116.46658459598848">
        <ele>39.898615195415914</ele>
        <time>2026-07-08T23:56:53Z</time>
      </trkpt>
      <trkpt lat="39.90215508558225" lon="116.46682817322815">
        <ele>39.38900302257389</ele>
        <time>2026-07-08T23:57:01Z</time>
      </trkpt>
      <trkpt lat="39.9022703465538" lon="116.46696886489536">
        <ele>39.162300747819245</ele>
        <time>2026-07-08T23:57:13Z</time>
      </trkpt>
      <trkpt lat="39.90231308449639" lon="116.46699693890098">
        <ele>39.253294630907476</ele>
        <time>2026-07-08T23:57:17Z</time>
      </trkpt>
      <trkpt lat="39.90242631366635" lon="116.46699323754974">
        <ele>38.98955235444009</ele>
        <time>2026-07-08T23:57:21Z</time>
      </trkpt>
      <trkpt lat="39.902466922479" lon="116.46707905133742">
        <ele>39.15283272136003</ele>
        <time>2026-07-08T23:57:25Z</time>
      </trkpt>
      <trkpt lat="39.902484439039995" lon="116.46716169299185">
        <ele>39.448800606653094</ele>
        <time>2026-07-08T23:57:28Z</time>
      </trkpt>
      <trkpt lat="39.90247530720454" lon="116.46724347871105">
        <ele>39.492736236192286</ele>
        <time>2026-07-08T23:57:31Z</time>
      </trkpt>
      <trkpt lat="39.90251351234293" lon="116.46732672301924">
        <ele>38.702272427268326</ele>
        <time>2026-07-08T23:57:35Z</time>
      </trkpt>
      <trkpt lat="39.90251199041681" lon="116.46740522937445">
        <ele>39.574990924447775</ele>
        <time>2026-07-08T23:57:38Z</time>
      </trkpt>
      <trkpt lat="39.90243105527484" lon="116.46768628697224">
        <ele>39.27342155110091</ele>
        <time>2026-07-08T23:57:51Z</time>
      </trkpt>
      <trkpt lat="39.90243173483235" lon="116.46779269763606">
        <ele>38.96689227130264</ele>
        <time>2026-07-08T23:57:55Z</time>
      </trkpt>
      <trkpt lat="39.902495487015855" lon="116.46797462819191">
        <ele>38.718961109407246</ele>
        <time>2026-07-08T23:58:03Z</time>
      </trkpt>
      <trkpt lat="39.90247807718677" lon="116.46808016876462">
        <ele>38.868416311219335</ele>
        <time>2026-07-08T23:58:07Z</time>
      </trkpt>
      <trkpt lat="39.90247898808135" lon="116.46818653909244">
        <ele>39.9152361638844</ele>
        <time>2026-07-08T23:58:11Z</time>
      </trkpt>
      <trkpt lat="39.90253427814979" lon="116.4682603961788">
        <ele>39.51688329037279</ele>
        <time>2026-07-08T23:58:15Z</time>
      </trkpt>
      <trkpt lat="39.902679854028094" lon="116.46826701316891">
        <ele>38.77383779734373</ele>
        <time>2026-07-08T23:58:23Z</time>
      </trkpt>
      <trkpt lat="39.90285633211889" lon="116.46823110657778">
        <ele>39.823003879748285</ele>
        <time>2026-07-08T23:58:31Z</time>
      </trkpt>
      <trkpt lat="39.90292435651722" lon="116.46817794234015">
        <ele>39.617008990608156</ele>
        <time>2026-07-08T23:58:35Z</time>
      </trkpt>
      <trkpt lat="39.902942666986775" lon="116.46808375731476">
        <ele>39.54540911037475</ele>
        <time>2026-07-08T23:58:39Z</time>
      </trkpt>
      <trkpt lat="39.90292392462075" lon="116.46798438204348">
        <ele>39.12627223227173</ele>
        <time>2026-07-08T23:58:43Z</time>
      </trkpt>
      <trkpt lat="39.90293156566953" lon="116.46788145258841">
        <ele>39.57636501919478</ele>
        <time>2026-07-08T23:58:47Z</time>
      </trkpt>
      <trkpt lat="39.902900364023964" lon="116.46779865676805">
        <ele>39.22030377667397</ele>
        <time>2026-07-08T23:58:51Z</time>
      </trkpt>
      <trkpt lat="39.90291046468622" lon="116.46767218248988">
        <ele>39.4606350902468</ele>
        <time>2026-07-08T23:58:55Z</time>
      </trkpt>
      <trkpt lat="39.902810992069746" lon="116.46736975563499">
        <ele>38.960284071043134</ele>
        <time>2026-07-08T23:59:07Z</time>
      </trkpt>
      <trkpt lat="39.90284411777141" lon="116.46728095239007">
        <ele>38.48028831463307</ele>
        <time>2026-07-08T23:59:11Z</time>
      </trkpt>
      <trkpt lat="39.902859098571184" lon="116.46717398610261">
        <ele>38.178491331636906</ele>
        <time>2026-07-08T23:59:15Z</time>
      </trkpt>
      <trkpt lat="39.90284936633051" lon="116.46698905657887">
        <ele>38.74243344552815</ele>
        <time>2026-07-08T23:59:23Z</time>
      </trkpt>
      <trkpt lat="39.902809673475716" lon="116.46680844996239">
        <ele>38.69165234826505</ele>
        <time>2026-07-08T23:59:31Z</time>
      </trkpt>
      <trkpt lat="39.90270011002083" lon="116.46663549102647">
        <ele>38.78251101821661</ele>
        <time>2026-07-08T23:59:39Z</time>
      </trkpt>
      <trkpt lat="39.9025186737163" lon="116.46665363603435">
        <ele>38.85959250945598</ele>
        <time>2026-07-08T23:59:47Z</time>
      </trkpt>
      <trkpt lat="39.902428680563496" lon="116.46669425221891">
        <ele>38.7111322209239</ele>
        <time>2026-07-08T23:59:51Z</time>
      </trkpt>
      <trkpt lat="39.902355488695605" lon="116.4667629500037">
        <ele>38.96144505403936</ele>
        <time>2026-07-08T23:59:55Z</time>
      </trkpt>
      <trkpt lat="39.902354626079195" lon="116.46683012184675">
        <ele>39.0288873212412</ele>
        <time>2026-07-08T23:59:59Z</time>
      </trkpt>
      <trkpt lat="39.90241936892567" lon="116.46689273193846">
        <ele>39.13011117745191</ele>
        <time>2026-07-09T00:00:07Z</time>
      </trkpt>
      <trkpt lat="39.90243520901209" lon="116.46705853132364">
        <ele>37.849768604151905</ele>
        <time>2026-07-09T00:00:17Z</time>
      </trkpt>
      <trkpt lat="39.902474088392154" lon="116.46724717064806">
        <ele>38.482508758082986</ele>
        <time>2026-07-09T00:00:29Z</time>
      </trkpt>
      <trkpt lat="39.90245973694519" lon="116.46734468776208">
        <ele>38.69321587961167</ele>
        <time>2026-07-09T00:00:35Z</time>
      </trkpt>
      <trkpt lat="39.902496147530925" lon="116.46750827421589">
        <ele>39.8933746535331</ele>
        <time>2026-07-09T00:00:44Z</time>
      </trkpt>
      <trkpt lat="39.902424827467904" lon="116.46767786113418">
        <ele>39.3014219859615</ele>
        <time>2026-07-09T00:00:56Z</time>
      </trkpt>
      <trkpt lat="39.902475063638335" lon="116.46785781893455">
        <ele>39.73310637380928</ele>
        <time>2026-07-09T00:01:08Z</time>
      </trkpt>
      <trkpt lat="39.90246178261306" lon="116.46805654769557">
        <ele>40.08837314415723</ele>
        <time>2026-07-09T00:01:16Z</time>
      </trkpt>
      <trkpt lat="39.902561337525796" lon="116.46823154860182">
        <ele>40.049243573099375</ele>
        <time>2026-07-09T00:01:23Z</time>
      </trkpt>
      <trkpt lat="39.90267004457796" lon="116.46826672336451">
        <ele>40.32536368910223</ele>
        <time>2026-07-09T00:01:31Z</time>
      </trkpt>
      <trkpt lat="39.902820294770315" lon="116.46825038661996">
        <ele>39.68658339232206</ele>
        <time>2026-07-09T00:01:39Z</time>
      </trkpt>
      <trkpt lat="39.902902044832906" lon="116.46821478716862">
        <ele>39.22912166174501</ele>
        <time>2026-07-09T00:01:43Z</time>
      </trkpt>
      <trkpt lat="39.902943925544086" lon="116.4681134873222">
        <ele>39.41771373990923</ele>
        <time>2026-07-09T00:01:47Z</time>
      </trkpt>
      <trkpt lat="39.90289384128726" lon="116.46768839324463">
        <ele>39.04612071439624</ele>
        <time>2026-07-09T00:02:03Z</time>
      </trkpt>
      <trkpt lat="39.90278731847145" lon="116.46740662967149">
        <ele>38.71643169410527</ele>
        <time>2026-07-09T00:02:15Z</time>
      </trkpt>
      <trkpt lat="39.9028449429115" lon="116.46725250486737">
        <ele>38.02874120045453</ele>
        <time>2026-07-09T00:02:21Z</time>
      </trkpt>
      <trkpt lat="39.902825125145064" lon="116.46688147306271">
        <ele>38.00433664675802</ele>
        <time>2026-07-09T00:02:36Z</time>
      </trkpt>
      <trkpt lat="39.902808782419285" lon="116.46680451668522">
        <ele>37.93366547115147</ele>
        <time>2026-07-09T00:02:39Z</time>
      </trkpt>
      <trkpt lat="39.90272238958911" lon="116.46668251092437">
        <ele>38.01157729048282</ele>
        <time>2026-07-09T00:02:45Z</time>
      </trkpt>
      <trkpt lat="39.902612418091515" lon="116.46661431472332">
        <ele>38.20315426494926</ele>
        <time>2026-07-09T00:02:51Z</time>
      </trkpt>
      <trkpt lat="39.90254149616874" lon="116.46660543931367">
        <ele>38.66613235510886</ele>
        <time>2026-07-09T00:02:54Z</time>
      </trkpt>
      <trkpt lat="39.902380816769536" lon="116.46667058920332">
        <ele>37.15518045425415</ele>
        <time>2026-07-09T00:03:03Z</time>
      </trkpt>
      <trkpt lat="39.90235396882022" lon="116.46673668500496">
        <ele>38.90990086365491</ele>
        <time>2026-07-09T00:03:06Z</time>
      </trkpt>
      <trkpt lat="39.90235100680153" lon="116.46681059614488">
        <ele>38.89324185065925</ele>
        <time>2026-07-09T00:03:09Z</time>
      </trkpt>
      <trkpt lat="39.90240390630451" lon="116.4669345645015">
        <ele>38.82195015903562</ele>
        <time>2026-07-09T00:03:15Z</time>
      </trkpt>
      <trkpt lat="39.902437538187925" lon="116.4671490638705">
        <ele>38.336895815096796</ele>
        <time>2026-07-09T00:03:24Z</time>
      </trkpt>
      <trkpt lat="39.90249556580593" lon="116.46727717519519">
        <ele>38.612801402807236</ele>
        <time>2026-07-09T00:03:30Z</time>
      </trkpt>
      <trkpt lat="39.9024926337107" lon="116.46740407028834">
        <ele>39.05145589634776</ele>
        <time>2026-07-09T00:03:36Z</time>
      </trkpt>
      <trkpt lat="39.90247210079576" lon="116.46746117967997">
        <ele>38.80562092643231</ele>
        <time>2026-07-09T00:03:39Z</time>
      </trkpt>
      <trkpt lat="39.902473330856736" lon="116.46754207739902">
        <ele>39.02823725435883</ele>
        <time>2026-07-09T00:03:42Z</time>
      </trkpt>
      <trkpt lat="39.90243550980344" lon="116.46774127395607">
        <ele>36.64949113223702</ele>
        <time>2026-07-09T00:03:51Z</time>
      </trkpt>
      <trkpt lat="39.902468374693356" lon="116.46788736890645">
        <ele>38.151620079763234</ele>
        <time>2026-07-09T00:03:57Z</time>
      </trkpt>
      <trkpt lat="39.9025080201969" lon="116.46794694049007">
        <ele>38.799882614053786</ele>
        <time>2026-07-09T00:04:00Z</time>
      </trkpt>
      <trkpt lat="39.902527422469916" lon="116.46819625786013">
        <ele>39.14986226987094</ele>
        <time>2026-07-09T00:04:10Z</time>
      </trkpt>
      <trkpt lat="39.90255500686623" lon="116.46825299973302">
        <ele>38.35580940172076</ele>
        <time>2026-07-09T00:04:13Z</time>
      </trkpt>
      <trkpt lat="39.90284048842662" lon="116.46823420261467">
        <ele>39.69349662400782</ele>
        <time>2026-07-09T00:04:37Z</time>
      </trkpt>
      <trkpt lat="39.902910277404786" lon="116.468199862152">
        <ele>38.71718056872487</ele>
        <time>2026-07-09T00:04:43Z</time>
      </trkpt>
      <trkpt lat="39.902928743464116" lon="116.4681462651242">
        <ele>38.54176583979279</ele>
        <time>2026-07-09T00:04:46Z</time>
      </trkpt>
      <trkpt lat="39.90291604808598" lon="116.46794197234141">
        <ele>38.54219354968518</ele>
        <time>2026-07-09T00:04:55Z</time>
      </trkpt>
      <trkpt lat="39.902924345592034" lon="116.46785921212532">
        <ele>38.163856353610754</ele>
        <time>2026-07-09T00:04:58Z</time>
      </trkpt>
      <trkpt lat="39.902899622003986" lon="116.46764376623143">
        <ele>38.917713589034975</ele>
        <time>2026-07-09T00:05:07Z</time>
      </trkpt>
      <trkpt lat="39.90281531708296" lon="116.46745382721392">
        <ele>38.99802363291383</ele>
        <time>2026-07-09T00:05:16Z</time>
      </trkpt>
      <trkpt lat="39.902807394442284" lon="116.46738913270333">
        <ele>39.08377511706203</ele>
        <time>2026-07-09T00:05:19Z</time>
      </trkpt>
      <trkpt lat="39.90283413363846" lon="116.46732781896505">
        <ele>38.753898900933564</ele>
        <time>2026-07-09T00:05:22Z</time>
      </trkpt>
      <trkpt lat="39.902844833869224" lon="116.46718324104931">
        <ele>38.97395484521985</ele>
        <time>2026-07-09T00:05:28Z</time>
      </trkpt>
      <trkpt lat="39.902796494989964" lon="116.46685267660318">
        <ele>38.07495139911771</ele>
        <time>2026-07-09T00:05:43Z</time>
      </trkpt>
      <trkpt lat="39.90279998561466" lon="116.46679048397678">
        <ele>38.15766154229641</ele>
        <time>2026-07-09T00:05:46Z</time>
      </trkpt>
      <trkpt lat="39.902720203105424" lon="116.46668150991678">
        <ele>39.000652647577226</ele>
        <time>2026-07-09T00:05:52Z</time>
      </trkpt>
      <trkpt lat="39.90260100220016" lon="116.4666297562136">
        <ele>38.96943689882755</ele>
        <time>2026-07-09T00:05:58Z</time>
      </trkpt>
      <trkpt lat="39.90244556037834" lon="116.46664234719832">
        <ele>38.57183375861496</ele>
        <time>2026-07-09T00:06:07Z</time>
      </trkpt>
      <trkpt lat="39.902391683401355" lon="116.46667553984005">
        <ele>38.286301258951426</ele>
        <time>2026-07-09T00:06:10Z</time>
      </trkpt>
      <trkpt lat="39.90237964097154" lon="116.4668460781284">
        <ele>39.094538449309766</ele>
        <time>2026-07-09T00:06:17Z</time>
      </trkpt>
      <trkpt lat="39.90241026409446" lon="116.46692256005937">
        <ele>38.47439679969102</ele>
        <time>2026-07-09T00:06:21Z</time>
      </trkpt>
      <trkpt lat="39.90239895500198" lon="116.46702164171327">
        <ele>38.53248944785446</ele>
        <time>2026-07-09T00:06:25Z</time>
      </trkpt>
      <trkpt lat="39.902439033466834" lon="116.46719503635663">
        <ele>38.916997448541224</ele>
        <time>2026-07-09T00:06:33Z</time>
      </trkpt>
      <trkpt lat="39.90242753239448" lon="116.46727937768334">
        <ele>39.46811050083488</ele>
        <time>2026-07-09T00:06:37Z</time>
      </trkpt>
      <trkpt lat="39.90244415767683" lon="116.467339466439">
        <ele>39.54796801041812</ele>
        <time>2026-07-09T00:06:41Z</time>
      </trkpt>
      <trkpt lat="39.90240943434916" lon="116.46745185824611">
        <ele>39.436054510995746</ele>
        <time>2026-07-09T00:06:47Z</time>
      </trkpt>
      <trkpt lat="39.90241732816147" lon="116.4675210211094">
        <ele>39.54343610908836</ele>
        <time>2026-07-09T00:06:50Z</time>
      </trkpt>
      <trkpt lat="39.90238627379015" lon="116.46768757546889">
        <ele>39.69081168062985</ele>
        <time>2026-07-09T00:06:56Z</time>
      </trkpt>
      <trkpt lat="39.90240646968017" lon="116.46776543933824">
        <ele>39.98679728526622</ele>
        <time>2026-07-09T00:06:59Z</time>
      </trkpt>
      <trkpt lat="39.902399918689895" lon="116.46782988991873">
        <ele>39.742902928963304</ele>
        <time>2026-07-09T00:07:02Z</time>
      </trkpt>
      <trkpt lat="39.90247736252598" lon="116.4679414982672">
        <ele>39.67466377839446</ele>
        <time>2026-07-09T00:07:08Z</time>
      </trkpt>
      <trkpt lat="39.90250760017282" lon="116.4681572737326">
        <ele>39.87119495496154</ele>
        <time>2026-07-09T00:07:17Z</time>
      </trkpt>
      <trkpt lat="39.90253033842566" lon="116.46822503643826">
        <ele>39.31557145901024</ele>
        <time>2026-07-09T00:07:20Z</time>
      </trkpt>
      <trkpt lat="39.902587362497556" lon="116.46825193592149">
        <ele>39.3450284646824</ele>
        <time>2026-07-09T00:07:26Z</time>
      </trkpt>
      <trkpt lat="39.902852243846006" lon="116.46823996461218">
        <ele>39.49527744203806</ele>
        <time>2026-07-09T00:07:41Z</time>
      </trkpt>
      <trkpt lat="39.90293676401337" lon="116.46816387320621">
        <ele>39.18599886260927</ele>
        <time>2026-07-09T00:07:47Z</time>
      </trkpt>
      <trkpt lat="39.902937827901674" lon="116.46809859287934">
        <ele>39.028793384321034</ele>
        <time>2026-07-09T00:07:50Z</time>
      </trkpt>
      <trkpt lat="39.90291042158522" lon="116.46802144626402">
        <ele>39.12062911596149</ele>
        <time>2026-07-09T00:07:53Z</time>
      </trkpt>
      <trkpt lat="39.9029174702" lon="116.4678885188197">
        <ele>38.388306927867234</ele>
        <time>2026-07-09T00:07:59Z</time>
      </trkpt>
      <trkpt lat="39.902905013410276" lon="116.46766204689426">
        <ele>36.87619687616825</ele>
        <time>2026-07-09T00:08:08Z</time>
      </trkpt>
      <trkpt lat="39.9028834547878" lon="116.46760305411465">
        <ele>38.81449371390045</ele>
        <time>2026-07-09T00:08:11Z</time>
      </trkpt>
      <trkpt lat="39.9028160650526" lon="116.46750139562991">
        <ele>39.32922544050962</ele>
        <time>2026-07-09T00:08:17Z</time>
      </trkpt>
      <trkpt lat="39.90280301097284" lon="116.46743611510233">
        <ele>38.813376230187714</ele>
        <time>2026-07-09T00:08:20Z</time>
      </trkpt>
      <trkpt lat="39.90280877334029" lon="116.46734382920481">
        <ele>38.29549776110798</ele>
        <time>2026-07-09T00:08:24Z</time>
      </trkpt>
      <trkpt lat="39.902846779768595" lon="116.46725786342172">
        <ele>39.236602421849966</ele>
        <time>2026-07-09T00:08:28Z</time>
      </trkpt>
      <trkpt lat="39.90284212922529" lon="116.46697758171793">
        <ele>39.26431429758668</ele>
        <time>2026-07-09T00:08:40Z</time>
      </trkpt>
      <trkpt lat="39.902814582759376" lon="116.46690032785393">
        <ele>39.41749358549714</ele>
        <time>2026-07-09T00:08:44Z</time>
      </trkpt>
      <trkpt lat="39.90280421788185" lon="116.46680962220039">
        <ele>39.357494469732046</ele>
        <time>2026-07-09T00:08:48Z</time>
      </trkpt>
      <trkpt lat="39.902711825411785" lon="116.46668886666451">
        <ele>39.289738363586366</ele>
        <time>2026-07-09T00:08:56Z</time>
      </trkpt>
      <trkpt lat="39.90257044548809" lon="116.46662522007445">
        <ele>39.686342457309365</ele>
        <time>2026-07-09T00:09:04Z</time>
      </trkpt>
      <trkpt lat="39.9024180540988" lon="116.46664558982732">
        <ele>38.96434993389994</ele>
        <time>2026-07-09T00:09:12Z</time>
      </trkpt>
      <trkpt lat="39.90237801903621" lon="116.4666878003259">
        <ele>38.523015080951154</ele>
        <time>2026-07-09T00:09:15Z</time>
      </trkpt>
      <trkpt lat="39.90235511182669" lon="116.46675205948434">
        <ele>37.75586671568453</ele>
        <time>2026-07-09T00:09:18Z</time>
      </trkpt>
      <trkpt lat="39.9023690487255" lon="116.46683214791386">
        <ele>38.951891569420695</ele>
        <time>2026-07-09T00:09:21Z</time>
      </trkpt>
      <trkpt lat="39.902424623604055" lon="116.46695425463221">
        <ele>39.380294006317854</ele>
        <time>2026-07-09T00:09:27Z</time>
      </trkpt>
      <trkpt lat="39.90244636111929" lon="116.46715217455066">
        <ele>38.64909901842475</ele>
        <time>2026-07-09T00:09:36Z</time>
      </trkpt>
      <trkpt lat="39.90249230134114" lon="116.46733101201686">
        <ele>38.364010164514184</ele>
        <time>2026-07-09T00:09:45Z</time>
      </trkpt>
      <trkpt lat="39.90245729605938" lon="116.4674614972629">
        <ele>38.97813626751304</ele>
        <time>2026-07-09T00:09:51Z</time>
      </trkpt>
      <trkpt lat="39.90247345157113" lon="116.46759549170925">
        <ele>39.723350608721375</ele>
        <time>2026-07-09T00:09:57Z</time>
      </trkpt>
      <trkpt lat="39.9024366700914" lon="116.46779433441547">
        <ele>40.030714616179466</ele>
        <time>2026-07-09T00:10:06Z</time>
      </trkpt>
      <trkpt lat="39.90248364664884" lon="116.46791832301736">
        <ele>39.02076140418649</ele>
        <time>2026-07-09T00:10:12Z</time>
      </trkpt>
      <trkpt lat="39.902516106795865" lon="116.46817403944779">
        <ele>38.53918878082186</ele>
        <time>2026-07-09T00:10:22Z</time>
      </trkpt>
      <trkpt lat="39.90254819575299" lon="116.4682435352795">
        <ele>38.98017940390855</ele>
        <time>2026-07-09T00:10:25Z</time>
      </trkpt>
      <trkpt lat="39.902872219594975" lon="116.46822348399826">
        <ele>39.98966221977025</ele>
        <time>2026-07-09T00:10:49Z</time>
      </trkpt>
      <trkpt lat="39.90293152566317" lon="116.4681666577325">
        <ele>39.0704312864691</ele>
        <time>2026-07-09T00:10:53Z</time>
      </trkpt>
      <trkpt lat="39.90291712864265" lon="116.46790308780835">
        <ele>37.689454895444214</ele>
        <time>2026-07-09T00:11:05Z</time>
      </trkpt>
      <trkpt lat="39.90289471239472" lon="116.46764926864628">
        <ele>38.242507165297866</ele>
        <time>2026-07-09T00:11:17Z</time>
      </trkpt>
      <trkpt lat="39.902807775749245" lon="116.46749687977723">
        <ele>38.839191623963416</ele>
        <time>2026-07-09T00:11:25Z</time>
      </trkpt>
      <trkpt lat="39.90280099783364" lon="116.46740913421483">
        <ele>37.83581029996276</ele>
        <time>2026-07-09T00:11:29Z</time>
      </trkpt>
      <trkpt lat="39.90284097920267" lon="116.46723945498674">
        <ele>37.667624678462744</ele>
        <time>2026-07-09T00:11:37Z</time>
      </trkpt>
      <trkpt lat="39.902829314235845" lon="116.46694800555652">
        <ele>38.683815486729145</ele>
        <time>2026-07-09T00:11:50Z</time>
      </trkpt>
      <trkpt lat="39.902809516359206" lon="116.46682987588856">
        <ele>39.15535575803369</ele>
        <time>2026-07-09T00:11:56Z</time>
      </trkpt>
      <trkpt lat="39.90265223702019" lon="116.46664931716406">
        <ele>40.81431873142719</ele>
        <time>2026-07-09T00:12:08Z</time>
      </trkpt>
      <trkpt lat="39.902542241159836" lon="116.46661880969337">
        <ele>40.920767687261105</ele>
        <time>2026-07-09T00:12:14Z</time>
      </trkpt>
      <trkpt lat="39.90248882285483" lon="116.46662166173414">
        <ele>40.43451401218772</ele>
        <time>2026-07-09T00:12:17Z</time>
      </trkpt>
      <trkpt lat="39.90238682859073" lon="116.4666866983822">
        <ele>39.569684064015746</ele>
        <time>2026-07-09T00:12:23Z</time>
      </trkpt>
      <trkpt lat="39.90234955862508" lon="116.46674781974234">
        <ele>39.521566920913756</ele>
        <time>2026-07-09T00:12:26Z</time>
      </trkpt>
      <trkpt lat="39.90240332990232" lon="116.46696501988836">
        <ele>40.162164823152125</ele>
        <time>2026-07-09T00:12:36Z</time>
      </trkpt>
      <trkpt lat="39.90239920398699" lon="116.46690463889877">
        <ele>39.67162379156798</ele>
        <time>2026-07-09T00:12:42Z</time>
      </trkpt>
      <trkpt lat="39.90235902490505" lon="116.46675130072853">
        <ele>40.23594055790454</ele>
        <time>2026-07-09T00:12:48Z</time>
      </trkpt>
      <trkpt lat="39.90237880516556" lon="116.46667741689909">
        <ele>39.6443523960188</ele>
        <time>2026-07-09T00:12:51Z</time>
      </trkpt>
      <trkpt lat="39.90242690008606" lon="116.466585117744">
        <ele>39.71919316239655</ele>
        <time>2026-07-09T00:12:54Z</time>
      </trkpt>
      <trkpt lat="39.90249884372423" lon="116.46659522231633">
        <ele>38.872545724734664</ele>
        <time>2026-07-09T00:12:57Z</time>
      </trkpt>
      <trkpt lat="39.902558637510985" lon="116.4666285995126">
        <ele>38.36431307345629</ele>
        <time>2026-07-09T00:13:00Z</time>
      </trkpt>
      <trkpt lat="39.90261991087144" lon="116.46661840510487">
        <ele>37.60023313667625</ele>
        <time>2026-07-09T00:13:03Z</time>
      </trkpt>
      <trkpt lat="39.90267732033084" lon="116.46664709147244">
        <ele>37.69727979134768</ele>
        <time>2026-07-09T00:13:06Z</time>
      </trkpt>
      <trkpt lat="39.902813238649465" lon="116.46678595725568">
        <ele>38.154958431608975</ele>
        <time>2026-07-09T00:13:15Z</time>
      </trkpt>
      <trkpt lat="39.90285749974724" lon="116.4670619356256">
        <ele>39.02208853792399</ele>
        <time>2026-07-09T00:13:27Z</time>
      </trkpt>
      <trkpt lat="39.90283928490501" lon="116.46732696744134">
        <ele>39.08550112321973</ele>
        <time>2026-07-09T00:13:39Z</time>
      </trkpt>
      <trkpt lat="39.90280855681024" lon="116.4674446191516">
        <ele>38.838457566685975</ele>
        <time>2026-07-09T00:13:45Z</time>
      </trkpt>
      <trkpt lat="39.90286757434686" lon="116.46760907012698">
        <ele>39.08035591058433</ele>
        <time>2026-07-09T00:13:54Z</time>
      </trkpt>
      <trkpt lat="39.90290118428184" lon="116.46765747228993">
        <ele>38.94127750676125</ele>
        <time>2026-07-09T00:13:57Z</time>
      </trkpt>
      <trkpt lat="39.90291713510932" lon="116.46772733485761">
        <ele>39.40159920696169</ele>
        <time>2026-07-09T00:14:00Z</time>
      </trkpt>
      <trkpt lat="39.902904075233266" lon="116.4680017831956">
        <ele>38.47400097735226</ele>
        <time>2026-07-09T00:14:12Z</time>
      </trkpt>
      <trkpt lat="39.90293118176904" lon="116.46814786081057">
        <ele>38.27181890793145</ele>
        <time>2026-07-09T00:14:18Z</time>
      </trkpt>
      <trkpt lat="39.9029117181721" lon="116.46821015055855">
        <ele>38.44710227102041</ele>
        <time>2026-07-09T00:14:21Z</time>
      </trkpt>
      <trkpt lat="39.90285540044459" lon="116.46826877303803">
        <ele>39.494943489320576</ele>
        <time>2026-07-09T00:14:24Z</time>
      </trkpt>
      <trkpt lat="39.90258262092845" lon="116.46825943678509">
        <ele>40.17379228770733</ele>
        <time>2026-07-09T00:14:40Z</time>
      </trkpt>
      <trkpt lat="39.9025388140755" lon="116.4682451768227">
        <ele>40.12849377002567</ele>
        <time>2026-07-09T00:14:43Z</time>
      </trkpt>
      <trkpt lat="39.902506472686454" lon="116.46817567544036">
        <ele>38.96757781133056</ele>
        <time>2026-07-09T00:14:46Z</time>
      </trkpt>
      <trkpt lat="39.902499561644554" lon="116.46795842980202">
        <ele>37.72063585650176</ele>
        <time>2026-07-09T00:14:55Z</time>
      </trkpt>
      <trkpt lat="39.9024179156327" lon="116.46775119952892">
        <ele>39.86931214295328</ele>
        <time>2026-07-09T00:15:04Z</time>
      </trkpt>
      <trkpt lat="39.90241078113705" lon="116.4675946625936">
        <ele>40.15926223434508</ele>
        <time>2026-07-09T00:15:10Z</time>
      </trkpt>
      <trkpt lat="39.90244986002273" lon="116.46753311555058">
        <ele>40.18988297134638</ele>
        <time>2026-07-09T00:15:13Z</time>
      </trkpt>
      <trkpt lat="39.90241485864168" lon="116.46746606977882">
        <ele>40.84418551810086</ele>
        <time>2026-07-09T00:15:16Z</time>
      </trkpt>
      <trkpt lat="39.902426540058684" lon="116.46739540358861">
        <ele>41.012152715586126</ele>
        <time>2026-07-09T00:15:19Z</time>
      </trkpt>
      <trkpt lat="39.90246300985269" lon="116.46730912807314">
        <ele>40.50024812668562</ele>
        <time>2026-07-09T00:15:22Z</time>
      </trkpt>
      <trkpt lat="39.902438386423164" lon="116.46718173407923">
        <ele>39.025750963017344</ele>
        <time>2026-07-09T00:15:28Z</time>
      </trkpt>
      <trkpt lat="39.902410238719305" lon="116.46713246675066">
        <ele>38.96894014067948</ele>
        <time>2026-07-09T00:15:31Z</time>
      </trkpt>
      <trkpt lat="39.90239745233501" lon="116.4670644018862">
        <ele>39.41319982986897</ele>
        <time>2026-07-09T00:15:34Z</time>
      </trkpt>
      <trkpt lat="39.902409128719526" lon="116.46692918214987">
        <ele>39.75599269941449</ele>
        <time>2026-07-09T00:15:40Z</time>
      </trkpt>
      <trkpt lat="39.90236643728732" lon="116.46675878586188">
        <ele>40.48056335002184</ele>
        <time>2026-07-09T00:15:49Z</time>
      </trkpt>
      <trkpt lat="39.90236930433688" lon="116.46670002715054">
        <ele>41.07267120666802</ele>
        <time>2026-07-09T00:15:52Z</time>
      </trkpt>
      <trkpt lat="39.90239763498275" lon="116.4666387412336">
        <ele>40.656138479709625</ele>
        <time>2026-07-09T00:15:55Z</time>
      </trkpt>
      <trkpt lat="39.902440596191866" lon="116.46660025193593">
        <ele>40.075376440770924</ele>
        <time>2026-07-09T00:15:58Z</time>
      </trkpt>
      <trkpt lat="39.90255656945729" lon="116.46659065512613">
        <ele>40.33738074917346</ele>
        <time>2026-07-09T00:16:04Z</time>
      </trkpt>
      <trkpt lat="39.902703307599445" lon="116.46666255872738">
        <ele>39.34374473337084</ele>
        <time>2026-07-09T00:16:13Z</time>
      </trkpt>
      <trkpt lat="39.90278588298837" lon="116.46675801601222">
        <ele>37.70252448879182</ele>
        <time>2026-07-09T00:16:19Z</time>
      </trkpt>
      <trkpt lat="39.902860435527074" lon="116.46709481152665">
        <ele>38.67199171427637</ele>
        <time>2026-07-09T00:16:34Z</time>
      </trkpt>
      <trkpt lat="39.90284958126479" lon="116.46725990834436">
        <ele>39.64888381678611</ele>
        <time>2026-07-09T00:16:40Z</time>
      </trkpt>
      <trkpt lat="39.902809578327336" lon="116.46738702509754">
        <ele>38.20312288403511</ele>
        <time>2026-07-09T00:16:47Z</time>
      </trkpt>
      <trkpt lat="39.9028485760098" lon="116.46757207983036">
        <ele>38.682937145233154</ele>
        <time>2026-07-09T00:16:58Z</time>
      </trkpt>
      <trkpt lat="39.90291224129062" lon="116.467686399132">
        <ele>39.15873393602669</ele>
        <time>2026-07-09T00:17:04Z</time>
      </trkpt>
      <trkpt lat="39.90292320221758" lon="116.46805087441994">
        <ele>38.59128102008253</ele>
        <time>2026-07-09T00:17:19Z</time>
      </trkpt>
      <trkpt lat="39.90294169702783" lon="116.46818189960953">
        <ele>37.933409846387804</ele>
        <time>2026-07-09T00:17:25Z</time>
      </trkpt>
      <trkpt lat="39.90285188719387" lon="116.46825809546058">
        <ele>38.585879143327475</ele>
        <time>2026-07-09T00:17:31Z</time>
      </trkpt>
      <trkpt lat="39.9025789274439" lon="116.4682611833755">
        <ele>40.603450087830424</ele>
        <time>2026-07-09T00:17:46Z</time>
      </trkpt>
      <trkpt lat="39.90252552202568" lon="116.46824121105342">
        <ele>39.765525492839515</ele>
        <time>2026-07-09T00:17:49Z</time>
      </trkpt>
      <trkpt lat="39.90247904153013" lon="116.46799663236031">
        <ele>40.66995734348893</ele>
        <time>2026-07-09T00:17:58Z</time>
      </trkpt>
      <trkpt lat="39.902479240519874" lon="116.46793623534057">
        <ele>40.18715341668576</ele>
        <time>2026-07-09T00:18:01Z</time>
      </trkpt>
      <trkpt lat="39.90241878100568" lon="116.46771799619437">
        <ele>39.27907499205321</ele>
        <time>2026-07-09T00:18:10Z</time>
      </trkpt>
      <trkpt lat="39.90242676071922" lon="116.4676390585523">
        <ele>40.24234061408788</ele>
        <time>2026-07-09T00:18:13Z</time>
      </trkpt>
      <trkpt lat="39.90251270860502" lon="116.4673482775713">
        <ele>38.20469892863184</ele>
        <time>2026-07-09T00:18:25Z</time>
      </trkpt>
      <trkpt lat="39.90251006180889" lon="116.46728540576035">
        <ele>38.849017187952995</ele>
        <time>2026-07-09T00:18:28Z</time>
      </trkpt>
      <trkpt lat="39.90242462069956" lon="116.46715180627672">
        <ele>39.41061540413648</ele>
        <time>2026-07-09T00:18:34Z</time>
      </trkpt>
      <trkpt lat="39.90239952923696" lon="116.46702805531987">
        <ele>38.95689233392477</ele>
        <time>2026-07-09T00:18:40Z</time>
      </trkpt>
      <trkpt lat="39.902408003248404" lon="116.46695551272887">
        <ele>39.42018645722419</ele>
        <time>2026-07-09T00:18:43Z</time>
      </trkpt>
      <trkpt lat="39.90236177601856" lon="116.4667411854671">
        <ele>40.300525235943496</ele>
        <time>2026-07-09T00:18:53Z</time>
      </trkpt>
      <trkpt lat="39.90238073096632" lon="116.46666089595045">
        <ele>39.750204872339964</ele>
        <time>2026-07-09T00:18:56Z</time>
      </trkpt>
      <trkpt lat="39.90247113491235" lon="116.46659912514924">
        <ele>40.3470364799723</ele>
        <time>2026-07-09T00:19:02Z</time>
      </trkpt>
      <trkpt lat="39.90264980368901" lon="116.46662983258766">
        <ele>39.812254530377686</ele>
        <time>2026-07-09T00:19:11Z</time>
      </trkpt>
      <trkpt lat="39.9028284448439" lon="116.46682846397721">
        <ele>38.824378619901836</ele>
        <time>2026-07-09T00:19:23Z</time>
      </trkpt>
      <trkpt lat="39.902838172467646" lon="116.46697178386233">
        <ele>37.386092067696154</ele>
        <time>2026-07-09T00:19:29Z</time>
      </trkpt>
      <trkpt lat="39.902867181981954" lon="116.46703329991891">
        <ele>38.05310676060617</ele>
        <time>2026-07-09T00:19:32Z</time>
      </trkpt>
      <trkpt lat="39.90282839438448" lon="116.46732964838773">
        <ele>39.15488629043102</ele>
        <time>2026-07-09T00:19:44Z</time>
      </trkpt>
      <trkpt lat="39.90280069067244" lon="116.46745669079715">
        <ele>38.91880404483527</ele>
        <time>2026-07-09T00:19:50Z</time>
      </trkpt>
      <trkpt lat="39.90289552659559" lon="116.46765264836795">
        <ele>38.80393012147397</ele>
        <time>2026-07-09T00:19:59Z</time>
      </trkpt>
      <trkpt lat="39.90290457569962" lon="116.46800401072707">
        <ele>39.53051554877311</ele>
        <time>2026-07-09T00:20:14Z</time>
      </trkpt>
      <trkpt lat="39.902931631893054" lon="116.46814602886691">
        <ele>39.20522947516292</ele>
        <time>2026-07-09T00:20:20Z</time>
      </trkpt>
      <trkpt lat="39.9029176829665" lon="116.46820552162379">
        <ele>38.770893938839436</ele>
        <time>2026-07-09T00:20:23Z</time>
      </trkpt>
      <trkpt lat="39.902858018274515" lon="116.46826220998189">
        <ele>40.04462664946914</ele>
        <time>2026-07-09T00:20:26Z</time>
      </trkpt>
      <trkpt lat="39.90258595515357" lon="116.46826642335871">
        <ele>39.565097289159894</ele>
        <time>2026-07-09T00:20:41Z</time>
      </trkpt>
      <trkpt lat="39.90253632152275" lon="116.46825249379118">
        <ele>39.19156073126942</ele>
        <time>2026-07-09T00:20:44Z</time>
      </trkpt>
      <trkpt lat="39.90250424715863" lon="116.46818830600121">
        <ele>38.30100326240063</ele>
        <time>2026-07-09T00:20:47Z</time>
      </trkpt>
      <trkpt lat="39.902491272434276" lon="116.46796702309912">
        <ele>38.510779776610434</ele>
        <time>2026-07-09T00:20:57Z</time>
      </trkpt>
      <trkpt lat="39.90242409584742" lon="116.46777183198023">
        <ele>39.5638552159071</ele>
        <time>2026-07-09T00:21:06Z</time>
      </trkpt>
      <trkpt lat="39.90242318725283" lon="116.46768781423265">
        <ele>40.38325173035264</ele>
        <time>2026-07-09T00:21:09Z</time>
      </trkpt>
      <trkpt lat="39.90245971600607" lon="116.46758224492429">
        <ele>40.91830274742097</ele>
        <time>2026-07-09T00:21:13Z</time>
      </trkpt>
      <trkpt lat="39.9024492193668" lon="116.46743228765024">
        <ele>38.655977479182184</ele>
        <time>2026-07-09T00:21:20Z</time>
      </trkpt>
      <trkpt lat="39.90247325502883" lon="116.46730685589269">
        <ele>40.119340057484806</ele>
        <time>2026-07-09T00:21:26Z</time>
      </trkpt>
      <trkpt lat="39.90247115658199" lon="116.46723004467806">
        <ele>40.77286088652909</ele>
        <time>2026-07-09T00:21:29Z</time>
      </trkpt>
      <trkpt lat="39.902429269754464" lon="116.46709678954615">
        <ele>39.53487599827349</ele>
        <time>2026-07-09T00:21:35Z</time>
      </trkpt>
      <trkpt lat="39.902390022650344" lon="116.4668322492846">
        <ele>39.753271386027336</ele>
        <time>2026-07-09T00:21:47Z</time>
      </trkpt>
      <trkpt lat="39.902369256722096" lon="116.46677011611122">
        <ele>39.30292367376387</ele>
        <time>2026-07-09T00:21:50Z</time>
      </trkpt>
      <trkpt lat="39.90237059570371" lon="116.46669883044437">
        <ele>38.49272905662656</ele>
        <time>2026-07-09T00:21:53Z</time>
      </trkpt>
      <trkpt lat="39.90244161892055" lon="116.46660671361651">
        <ele>38.31440079305321</ele>
        <time>2026-07-09T00:21:59Z</time>
      </trkpt>
      <trkpt lat="39.90260286001579" lon="116.46660787192826">
        <ele>38.44600261002779</ele>
        <time>2026-07-09T00:22:08Z</time>
      </trkpt>
      <trkpt lat="39.90274454422623" lon="116.46671826334271">
        <ele>37.370769440196455</ele>
        <time>2026-07-09T00:22:17Z</time>
      </trkpt>
      <trkpt lat="39.90281897365523" lon="116.46681893439512">
        <ele>38.21970076765865</ele>
        <time>2026-07-09T00:22:23Z</time>
      </trkpt>
      <trkpt lat="39.90283321606046" lon="116.46690849595848">
        <ele>37.941673633642495</ele>
        <time>2026-07-09T00:22:26Z</time>
      </trkpt>
      <trkpt lat="39.90286972087512" lon="116.466994510546">
        <ele>38.29737698659301</ele>
        <time>2026-07-09T00:22:29Z</time>
      </trkpt>
      <trkpt lat="39.90284277767364" lon="116.4673537364819">
        <ele>39.87747745309025</ele>
        <time>2026-07-09T00:22:44Z</time>
      </trkpt>
      <trkpt lat="39.90281451016587" lon="116.46740862401835">
        <ele>39.59534812904894</ele>
        <time>2026-07-09T00:22:47Z</time>
      </trkpt>
      <trkpt lat="39.902815630906424" lon="116.46747881417943">
        <ele>38.995077724568546</ele>
        <time>2026-07-09T00:22:50Z</time>
      </trkpt>
      <trkpt lat="39.902857660010625" lon="116.4675911681892">
        <ele>38.567516022361815</ele>
        <time>2026-07-09T00:22:56Z</time>
      </trkpt>
      <trkpt lat="39.90289323422302" lon="116.46763716721412">
        <ele>39.323585560545325</ele>
        <time>2026-07-09T00:22:59Z</time>
      </trkpt>
      <trkpt lat="39.90292202412745" lon="116.46771206021761">
        <ele>39.86806253064424</ele>
        <time>2026-07-09T00:23:02Z</time>
      </trkpt>
      <trkpt lat="39.902929317391944" lon="116.46808801126394">
        <ele>39.52801377419382</ele>
        <time>2026-07-09T00:23:18Z</time>
      </trkpt>
      <trkpt lat="39.90293868166468" lon="116.4681813873143">
        <ele>39.544305386953056</ele>
        <time>2026-07-09T00:23:22Z</time>
      </trkpt>
      <trkpt lat="39.902880209412146" lon="116.46824803185376">
        <ele>39.15243787690997</ele>
        <time>2026-07-09T00:23:26Z</time>
      </trkpt>
      <trkpt lat="39.90262514478404" lon="116.46826573109972">
        <ele>39.52725276816636</ele>
        <time>2026-07-09T00:23:42Z</time>
      </trkpt>
      <trkpt lat="39.90254920440257" lon="116.46824089964683">
        <ele>39.755201518535614</ele>
        <time>2026-07-09T00:23:50Z</time>
      </trkpt>
      <trkpt lat="39.90249385285394" lon="116.46792806284705">
        <ele>38.16228150296956</ele>
        <time>2026-07-09T00:24:09Z</time>
      </trkpt>
      <trkpt lat="39.9024114482695" lon="116.46779242929269">
        <ele>39.05928993038833</ele>
        <time>2026-07-09T00:24:18Z</time>
      </trkpt>
      <trkpt lat="39.902429443815976" lon="116.46762613758519">
        <ele>39.68797464761883</ele>
        <time>2026-07-09T00:24:27Z</time>
      </trkpt>
      <trkpt lat="39.90245725834387" lon="116.46753434342152">
        <ele>39.836000960320234</ele>
        <time>2026-07-09T00:24:33Z</time>
      </trkpt>
      <trkpt lat="39.90244195465935" lon="116.46747505858116">
        <ele>39.493821455165744</ele>
        <time>2026-07-09T00:24:36Z</time>
      </trkpt>
      <trkpt lat="39.902478493583736" lon="116.4673194887999">
        <ele>39.83155760355294</ele>
        <time>2026-07-09T00:24:48Z</time>
      </trkpt>
      <trkpt lat="39.90241260649973" lon="116.46716292954598">
        <ele>38.55085212178528</ele>
        <time>2026-07-09T00:24:54Z</time>
      </trkpt>
      <trkpt lat="39.90241407408134" lon="116.46687283253407">
        <ele>38.12482830602676</ele>
        <time>2026-07-09T00:25:06Z</time>
      </trkpt>
      <trkpt lat="39.902374644536145" lon="116.46680113603274">
        <ele>39.276345047168434</ele>
        <time>2026-07-09T00:25:09Z</time>
      </trkpt>
      <trkpt lat="39.902349556338685" lon="116.46666666940122">
        <ele>39.23824074584991</ele>
        <time>2026-07-09T00:25:13Z</time>
      </trkpt>
      <trkpt lat="39.90239895812434" lon="116.46661219300256">
        <ele>38.480748993344605</ele>
        <time>2026-07-09T00:25:17Z</time>
      </trkpt>
      <trkpt lat="39.90255347362958" lon="116.4665864884574">
        <ele>39.662979101762176</ele>
        <time>2026-07-09T00:25:25Z</time>
      </trkpt>
      <trkpt lat="39.90263863061753" lon="116.46662496908533">
        <ele>39.95673973765224</ele>
        <time>2026-07-09T00:25:29Z</time>
      </trkpt>
      <trkpt lat="39.90282993752838" lon="116.4668181050754">
        <ele>37.56004201900214</ele>
        <time>2026-07-09T00:25:41Z</time>
      </trkpt>
      <trkpt lat="39.902827422625315" lon="116.46692904353768">
        <ele>38.472498196177185</ele>
        <time>2026-07-09T00:25:45Z</time>
      </trkpt>
      <trkpt lat="39.90285335587708" lon="116.46701330321183">
        <ele>38.15673091914505</ele>
        <time>2026-07-09T00:25:49Z</time>
      </trkpt>
      <trkpt lat="39.90284671538502" lon="116.4673219893749">
        <ele>38.69620675500482</ele>
        <time>2026-07-09T00:26:01Z</time>
      </trkpt>
      <trkpt lat="39.9028156176447" lon="116.46740665963942">
        <ele>39.00257276836783</ele>
        <time>2026-07-09T00:26:05Z</time>
      </trkpt>
      <trkpt lat="39.902820170113465" lon="116.46750254407854">
        <ele>38.809633183293045</ele>
        <time>2026-07-09T00:26:09Z</time>
      </trkpt>
      <trkpt lat="39.90291104360731" lon="116.46766067906307">
        <ele>37.73601901438087</ele>
        <time>2026-07-09T00:26:17Z</time>
      </trkpt>
      <trkpt lat="39.90292764602324" lon="116.46805026309221">
        <ele>39.508480386808515</ele>
        <time>2026-07-09T00:26:33Z</time>
      </trkpt>
      <trkpt lat="39.9029397347469" lon="116.46814982289192">
        <ele>39.882251581177115</ele>
        <time>2026-07-09T00:26:37Z</time>
      </trkpt>
      <trkpt lat="39.90289425861655" lon="116.46823857159615">
        <ele>39.44768224935979</ele>
        <time>2026-07-09T00:26:41Z</time>
      </trkpt>
      <trkpt lat="39.90281032300031" lon="116.46826974385769">
        <ele>40.10226201172918</ele>
        <time>2026-07-09T00:26:45Z</time>
      </trkpt>
      <trkpt lat="39.90258192428248" lon="116.46826648385554">
        <ele>39.300688370130956</ele>
        <time>2026-07-09T00:26:57Z</time>
      </trkpt>
      <trkpt lat="39.902513726596915" lon="116.46824384470366">
        <ele>38.816822214983404</ele>
        <time>2026-07-09T00:27:01Z</time>
      </trkpt>
      <trkpt lat="39.90249947841384" lon="116.46813136062829">
        <ele>38.36009185016155</ele>
        <time>2026-07-09T00:27:05Z</time>
      </trkpt>
      <trkpt lat="39.90250646106825" lon="116.46802519048634">
        <ele>40.266951707191765</ele>
        <time>2026-07-09T00:27:09Z</time>
      </trkpt>
      <trkpt lat="39.90247469647445" lon="116.46796619975612">
        <ele>39.663929883390665</ele>
        <time>2026-07-09T00:27:13Z</time>
      </trkpt>
      <trkpt lat="39.90247374906722" lon="116.46787941057185">
        <ele>39.14110753592104</ele>
        <time>2026-07-09T00:27:16Z</time>
      </trkpt>
      <trkpt lat="39.902438173084896" lon="116.46779208905588">
        <ele>37.809060166589916</ele>
        <time>2026-07-09T00:27:20Z</time>
      </trkpt>
      <trkpt lat="39.90242621457783" lon="116.46771315475162">
        <ele>38.094411462545395</ele>
        <time>2026-07-09T00:27:24Z</time>
      </trkpt>
      <trkpt lat="39.90247560413533" lon="116.46762716524205">
        <ele>38.84803627803922</ele>
        <time>2026-07-09T00:27:28Z</time>
      </trkpt>
      <trkpt lat="39.90244302602319" lon="116.46743217172127">
        <ele>40.891565763391554</ele>
        <time>2026-07-09T00:27:36Z</time>
      </trkpt>
      <trkpt lat="39.902455060599785" lon="116.4672909463402">
        <ele>40.22719042841345</ele>
        <time>2026-07-09T00:27:40Z</time>
      </trkpt>
      <trkpt lat="39.902389970857705" lon="116.46704394908254">
        <ele>39.9615261266008</ele>
        <time>2026-07-09T00:27:52Z</time>
      </trkpt>
      <trkpt lat="39.902399715859495" lon="116.466932191794">
        <ele>39.094038881361485</ele>
        <time>2026-07-09T00:27:56Z</time>
      </trkpt>
      <trkpt lat="39.90230797529783" lon="116.46698449797523">
        <ele>37.07101324759424</ele>
        <time>2026-07-09T00:28:00Z</time>
      </trkpt>
      <trkpt lat="39.902372768512286" lon="116.46699122812426">
        <ele>37.24196625221521</ele>
        <time>2026-07-09T00:28:04Z</time>
      </trkpt>
      <trkpt lat="39.90221232936096" lon="116.46684188032603">
        <ele>39.166551229543984</ele>
        <time>2026-07-09T00:28:12Z</time>
      </trkpt>
      <trkpt lat="39.90215847907927" lon="116.46656192738926">
        <ele>40.59374968800694</ele>
        <time>2026-07-09T00:28:24Z</time>
      </trkpt>
      <trkpt lat="39.90185346045016" lon="116.46656451890803">
        <ele>39.094571803696454</ele>
        <time>2026-07-09T00:28:39Z</time>
      </trkpt>
      <trkpt lat="39.90171001265942" lon="116.46655160371103">
        <ele>39.770730290561914</ele>
        <time>2026-07-09T00:28:47Z</time>
      </trkpt>
      <trkpt lat="39.90168712186185" lon="116.46649203066569">
        <ele>39.841700406745076</ele>
        <time>2026-07-09T00:28:51Z</time>
      </trkpt>
      <trkpt lat="39.90160657051485" lon="116.46638204062761">
        <ele>41.0730590634048</ele>
        <time>2026-07-09T00:28:59Z</time>
      </trkpt>
      <trkpt lat="39.90153630417892" lon="116.46634702744878">
        <ele>41.142353129573166</ele>
        <time>2026-07-09T00:29:03Z</time>
      </trkpt>
      <trkpt lat="39.901384730626624" lon="116.46640012296231">
        <ele>40.725563175976276</ele>
        <time>2026-07-09T00:29:11Z</time>
      </trkpt>
      <trkpt lat="39.901094253722555" lon="116.46642162823335">
        <ele>40.68475095368922</ele>
        <time>2026-07-09T00:29:26Z</time>
      </trkpt>
      <trkpt lat="39.90103467096957" lon="116.4664195382504">
        <ele>41.073155239224434</ele>
        <time>2026-07-09T00:29:29Z</time>
      </trkpt>
      <trkpt lat="39.900983758318304" lon="116.46648182942965">
        <ele>39.99012718349695</ele>
        <time>2026-07-09T00:29:32Z</time>
      </trkpt>
      <trkpt lat="39.90085918385674" lon="116.46646678665938">
        <ele>40.332287904806435</ele>
        <time>2026-07-09T00:29:38Z</time>
      </trkpt>
      <trkpt lat="39.900675495272246" lon="116.46661946115611">
        <ele>37.86779160425067</ele>
        <time>2026-07-09T00:29:50Z</time>
      </trkpt>
      <trkpt lat="39.9005734695491" lon="116.46675649876941">
        <ele>41.634655001573265</ele>
        <time>2026-07-09T00:29:56Z</time>
      </trkpt>
      <trkpt lat="39.90051707565585" lon="116.46674665883523">
        <ele>40.921738877892494</ele>
        <time>2026-07-09T00:29:59Z</time>
      </trkpt>
      <trkpt lat="39.9004079302783" lon="116.46677466053225">
        <ele>39.69241339061409</ele>
        <time>2026-07-09T00:30:05Z</time>
      </trkpt>
      <trkpt lat="39.900278665991735" lon="116.46673557461305">
        <ele>39.78696736507118</ele>
        <time>2026-07-09T00:30:17Z</time>
      </trkpt>
      <trkpt lat="39.90022929269455" lon="116.46674128369222">
        <ele>39.9056362034753</ele>
        <time>2026-07-09T00:30:21Z</time>
      </trkpt>
      <trkpt lat="39.90009335418498" lon="116.4667283444184">
        <ele>38.92733615729958</ele>
        <time>2026-07-09T00:30:57Z</time>
      </trkpt>
    </trkseg>
  </trk>
</gpx>