<?xml version="1.0" encoding="UTF-8"?>
<gpx xmlns="http://www.topografix.com/GPX/1/1" xmlns:gpxtpx="http://www.garmin.com/xmlschemas/TrackPointExtension/v1" xmlns:xsi="http://www.w3.org/2001/XMLSchema-instance" xsi:schemaLocation="http://www.topografix.com/GPX/1/1 http://www.topografix.com/GPX/1/1/gpx.xsd" version="1.1" creator="gpx.py -- https://github.com/tkrajina/gpxpy">
  <trk>
    <name>gpx from keep</name>
    <type>Run</type>
    <trkseg>
      <trkpt lat="39.89371680901785" lon="116.4641719701174">
        <ele>40.21228405088186</ele>
        <time>2026-07-14T23:44:59Z</time>
      </trkpt>
      <trkpt lat="39.89377038774238" lon="116.46414232337699">
        <ele>40.05203514639288</ele>
        <time>2026-07-14T23:45:05Z</time>
      </trkpt>
      <trkpt lat="39.89378140024103" lon="116.4639922429951">
        <ele>39.898386135697365</ele>
        <time>2026-07-14T23:45:17Z</time>
      </trkpt>
      <trkpt lat="39.893757620856285" lon="116.46390597391915">
        <ele>39.836448206566274</ele>
        <time>2026-07-14T23:45:23Z</time>
      </trkpt>
      <trkpt lat="39.893752573767614" lon="116.4638116404711">
        <ele>39.82513454090804</ele>
        <time>2026-07-14T23:45:29Z</time>
      </trkpt>
      <trkpt lat="39.893823343901175" lon="116.4636354651323">
        <ele>39.695777085609734</ele>
        <time>2026-07-14T23:45:41Z</time>
      </trkpt>
      <trkpt lat="39.893807123750925" lon="116.46353784533841">
        <ele>40.03112596832216</ele>
        <time>2026-07-14T23:45:47Z</time>
      </trkpt>
      <trkpt lat="39.893808629601594" lon="116.46337358547163">
        <ele>38.75924399960786</ele>
        <time>2026-07-14T23:45:59Z</time>
      </trkpt>
      <trkpt lat="39.8937454762532" lon="116.46322558070025">
        <ele>39.01134867966175</ele>
        <time>2026-07-14T23:46:11Z</time>
      </trkpt>
      <trkpt lat="39.89377335807735" lon="116.46313484907205">
        <ele>39.84662181511521</ele>
        <time>2026-07-14T23:46:17Z</time>
      </trkpt>
      <trkpt lat="39.893850083695476" lon="116.46312171955589">
        <ele>40.192339030094445</ele>
        <time>2026-07-14T23:46:24Z</time>
      </trkpt>
      <trkpt lat="39.89388778439027" lon="116.4631669370777">
        <ele>40.71924553066492</ele>
        <time>2026-07-14T23:46:30Z</time>
      </trkpt>
      <trkpt lat="39.89390775444672" lon="116.46323470343418">
        <ele>39.382808078080416</ele>
        <time>2026-07-14T23:46:33Z</time>
      </trkpt>
      <trkpt lat="39.8938992641272" lon="116.46362904316022">
        <ele>38.98780827689916</ele>
        <time>2026-07-14T23:46:48Z</time>
      </trkpt>
      <trkpt lat="39.893896435205754" lon="116.46380203507184">
        <ele>39.76321689784527</ele>
        <time>2026-07-14T23:46:54Z</time>
      </trkpt>
      <trkpt lat="39.89392504064197" lon="116.46420218717317">
        <ele>39.21628688741475</ele>
        <time>2026-07-14T23:47:09Z</time>
      </trkpt>
      <trkpt lat="39.893995689541605" lon="116.46455195068727">
        <ele>39.26131487824023</ele>
        <time>2026-07-14T23:47:24Z</time>
      </trkpt>
      <trkpt lat="39.89408145769841" lon="116.46490445881015">
        <ele>39.86407258734107</ele>
        <time>2026-07-14T23:47:39Z</time>
      </trkpt>
      <trkpt lat="39.89413509445479" lon="116.46518154435778">
        <ele>38.28599000815302</ele>
        <time>2026-07-14T23:47:51Z</time>
      </trkpt>
      <trkpt lat="39.89416187585034" lon="116.4652512970955">
        <ele>38.340650813654065</ele>
        <time>2026-07-14T23:47:54Z</time>
      </trkpt>
      <trkpt lat="39.89422763144509" lon="116.46556810037045">
        <ele>39.157437302172184</ele>
        <time>2026-07-14T23:48:06Z</time>
      </trkpt>
      <trkpt lat="39.89433620131226" lon="116.4659172008877">
        <ele>37.8938530003652</ele>
        <time>2026-07-14T23:48:21Z</time>
      </trkpt>
      <trkpt lat="39.89438622709502" lon="116.46623891618911">
        <ele>38.44149927422404</ele>
        <time>2026-07-14T23:48:34Z</time>
      </trkpt>
      <trkpt lat="39.8944198179905" lon="116.46633869492044">
        <ele>38.949441868811846</ele>
        <time>2026-07-14T23:48:38Z</time>
      </trkpt>
      <trkpt lat="39.89446607188899" lon="116.46640682809448">
        <ele>39.25830464158207</ele>
        <time>2026-07-14T23:48:42Z</time>
      </trkpt>
      <trkpt lat="39.89468452870708" lon="116.46652302395118">
        <ele>38.639377425424755</ele>
        <time>2026-07-14T23:49:02Z</time>
      </trkpt>
      <trkpt lat="39.89468263270783" lon="116.4666298306582">
        <ele>39.38522779941559</ele>
        <time>2026-07-14T23:49:10Z</time>
      </trkpt>
      <trkpt lat="39.89474210200719" lon="116.46667958761391">
        <ele>38.945844233967364</ele>
        <time>2026-07-14T23:49:13Z</time>
      </trkpt>
      <trkpt lat="39.89479698145018" lon="116.46664548609274">
        <ele>39.373162378557026</ele>
        <time>2026-07-14T23:49:16Z</time>
      </trkpt>
      <trkpt lat="39.89497350217632" lon="116.46664090674331">
        <ele>39.23954176623374</ele>
        <time>2026-07-14T23:49:25Z</time>
      </trkpt>
      <trkpt lat="39.89524858201892" lon="116.46668430440869">
        <ele>39.1916439095512</ele>
        <time>2026-07-14T23:49:37Z</time>
      </trkpt>
      <trkpt lat="39.89551242702397" lon="116.46667147736713">
        <ele>39.81686873547733</ele>
        <time>2026-07-14T23:49:49Z</time>
      </trkpt>
      <trkpt lat="39.89584560283126" lon="116.46671885987935">
        <ele>39.41115820221603</ele>
        <time>2026-07-14T23:50:04Z</time>
      </trkpt>
      <trkpt lat="39.89613181881637" lon="116.46676099548935">
        <ele>38.890594000928104</ele>
        <time>2026-07-14T23:50:19Z</time>
      </trkpt>
      <trkpt lat="39.89640643765849" lon="116.46677125786198">
        <ele>39.803975535556674</ele>
        <time>2026-07-14T23:50:34Z</time>
      </trkpt>
      <trkpt lat="39.89674295302437" lon="116.46675984835433">
        <ele>39.83999532274902</ele>
        <time>2026-07-14T23:50:50Z</time>
      </trkpt>
      <trkpt lat="39.89708861790009" lon="116.46677317641887">
        <ele>40.78251918312162</ele>
        <time>2026-07-14T23:51:06Z</time>
      </trkpt>
      <trkpt lat="39.89742291944105" lon="116.46677906799144">
        <ele>40.586729649454355</ele>
        <time>2026-07-14T23:51:22Z</time>
      </trkpt>
      <trkpt lat="39.89765338543532" lon="116.46679137260678">
        <ele>40.357463230378926</ele>
        <time>2026-07-14T23:51:34Z</time>
      </trkpt>
      <trkpt lat="39.89787457603074" lon="116.4667663781594">
        <ele>40.63727623783052</ele>
        <time>2026-07-14T23:51:53Z</time>
      </trkpt>
      <trkpt lat="39.898133910706534" lon="116.46679159398936">
        <ele>40.70968679059297</ele>
        <time>2026-07-14T23:52:15Z</time>
      </trkpt>
      <trkpt lat="39.89844510570987" lon="116.46679126945014">
        <ele>41.45612161234021</ele>
        <time>2026-07-14T23:52:33Z</time>
      </trkpt>
      <trkpt lat="39.898732835368065" lon="116.46680643842441">
        <ele>40.60853303503245</ele>
        <time>2026-07-14T23:52:46Z</time>
      </trkpt>
      <trkpt lat="39.899075022707294" lon="116.46680740307357">
        <ele>39.16915325913578</ele>
        <time>2026-07-14T23:53:02Z</time>
      </trkpt>
      <trkpt lat="39.89922564834016" lon="116.46680715551766">
        <ele>40.38066688925028</ele>
        <time>2026-07-14T23:53:10Z</time>
      </trkpt>
      <trkpt lat="39.89932582380829" lon="116.46678212446443">
        <ele>39.34501201007515</ele>
        <time>2026-07-14T23:53:26Z</time>
      </trkpt>
      <trkpt lat="39.89935454183027" lon="116.46667574428211">
        <ele>39.959003002382815</ele>
        <time>2026-07-14T23:53:30Z</time>
      </trkpt>
      <trkpt lat="39.899410297559434" lon="116.466592702284">
        <ele>39.46904749982059</ele>
        <time>2026-07-14T23:53:34Z</time>
      </trkpt>
      <trkpt lat="39.89970943937913" lon="116.46644165956694">
        <ele>38.967032074928284</ele>
        <time>2026-07-14T23:53:58Z</time>
      </trkpt>
      <trkpt lat="39.89975233792665" lon="116.46646689552773">
        <ele>39.245773387141526</ele>
        <time>2026-07-14T23:54:02Z</time>
      </trkpt>
      <trkpt lat="39.89989628751434" lon="116.46673881873986">
        <ele>38.25378009676933</ele>
        <time>2026-07-14T23:54:10Z</time>
      </trkpt>
      <trkpt lat="39.90021377429125" lon="116.46674088246453">
        <ele>41.46163732279092</ele>
        <time>2026-07-14T23:54:22Z</time>
      </trkpt>
      <trkpt lat="39.900484663172485" lon="116.46675852776156">
        <ele>41.30295037198812</ele>
        <time>2026-07-14T23:54:34Z</time>
      </trkpt>
      <trkpt lat="39.900572993261285" lon="116.46675981971578">
        <ele>40.96010858938098</ele>
        <time>2026-07-14T23:54:38Z</time>
      </trkpt>
      <trkpt lat="39.90065138605649" lon="116.46672100671071">
        <ele>39.7081359680742</ele>
        <time>2026-07-14T23:54:42Z</time>
      </trkpt>
      <trkpt lat="39.90085188596757" lon="116.4665030856415">
        <ele>39.88751576561481</ele>
        <time>2026-07-14T23:54:54Z</time>
      </trkpt>
      <trkpt lat="39.90092406115701" lon="116.46646305638016">
        <ele>40.35915235616267</ele>
        <time>2026-07-14T23:54:58Z</time>
      </trkpt>
      <trkpt lat="39.90124030047626" lon="116.4663827667797">
        <ele>40.423202249221504</ele>
        <time>2026-07-14T23:55:14Z</time>
      </trkpt>
      <trkpt lat="39.90140703175612" lon="116.46635276755238">
        <ele>40.490327822975814</ele>
        <time>2026-07-14T23:55:22Z</time>
      </trkpt>
      <trkpt lat="39.90148331500097" lon="116.46632021070705">
        <ele>40.74752852972597</ele>
        <time>2026-07-14T23:55:26Z</time>
      </trkpt>
      <trkpt lat="39.901561311274364" lon="116.46632206903001">
        <ele>40.337236179970205</ele>
        <time>2026-07-14T23:55:30Z</time>
      </trkpt>
      <trkpt lat="39.90163120155549" lon="116.46639984342917">
        <ele>39.3637472987175</ele>
        <time>2026-07-14T23:55:34Z</time>
      </trkpt>
      <trkpt lat="39.90178768057406" lon="116.46648195009169">
        <ele>39.74901018384844</ele>
        <time>2026-07-14T23:55:42Z</time>
      </trkpt>
      <trkpt lat="39.90210415377648" lon="116.46646645958023">
        <ele>39.598846402950585</ele>
        <time>2026-07-14T23:55:58Z</time>
      </trkpt>
      <trkpt lat="39.90242801325505" lon="116.46643758604988">
        <ele>39.960196112282574</ele>
        <time>2026-07-14T23:56:14Z</time>
      </trkpt>
      <trkpt lat="39.902639703522674" lon="116.46639893562141">
        <ele>38.5255201626569</ele>
        <time>2026-07-14T23:56:26Z</time>
      </trkpt>
      <trkpt lat="39.9027136519977" lon="116.46635473562387">
        <ele>40.645783259533346</ele>
        <time>2026-07-14T23:56:30Z</time>
      </trkpt>
      <trkpt lat="39.90285400087606" lon="116.46641759908528">
        <ele>39.626067673787475</ele>
        <time>2026-07-14T23:56:38Z</time>
      </trkpt>
      <trkpt lat="39.90289245867799" lon="116.4665021167119">
        <ele>39.04975263122469</ele>
        <time>2026-07-14T23:56:42Z</time>
      </trkpt>
      <trkpt lat="39.902907361964694" lon="116.46660751552302">
        <ele>38.98311368469149</ele>
        <time>2026-07-14T23:56:46Z</time>
      </trkpt>
      <trkpt lat="39.9029412351421" lon="116.46668871092494">
        <ele>37.83438026998192</ele>
        <time>2026-07-14T23:56:50Z</time>
      </trkpt>
      <trkpt lat="39.90293274575853" lon="116.46675347666564">
        <ele>36.611783674918115</ele>
        <time>2026-07-14T23:56:53Z</time>
      </trkpt>
      <trkpt lat="39.90303642169101" lon="116.46715258835013">
        <ele>36.211260193027556</ele>
        <time>2026-07-14T23:57:09Z</time>
      </trkpt>
      <trkpt lat="39.90304119444064" lon="116.4675525555125">
        <ele>37.050494532100856</ele>
        <time>2026-07-14T23:57:21Z</time>
      </trkpt>
      <trkpt lat="39.90305494867775" lon="116.46781277852641">
        <ele>37.64716964028776</ele>
        <time>2026-07-14T23:57:29Z</time>
      </trkpt>
      <trkpt lat="39.90304169713868" lon="116.46793703689713">
        <ele>37.79372469242662</ele>
        <time>2026-07-14T23:57:33Z</time>
      </trkpt>
      <trkpt lat="39.903047569662206" lon="116.46805396529442">
        <ele>36.508431606926024</ele>
        <time>2026-07-14T23:57:37Z</time>
      </trkpt>
      <trkpt lat="39.903033875578465" lon="116.46818600191878">
        <ele>37.87140855472535</ele>
        <time>2026-07-14T23:57:41Z</time>
      </trkpt>
      <trkpt lat="39.90305501636909" lon="116.4686360339952">
        <ele>37.10499442927539</ele>
        <time>2026-07-14T23:57:57Z</time>
      </trkpt>
      <trkpt lat="39.90306505942527" lon="116.46907011387802">
        <ele>37.56150931213051</ele>
        <time>2026-07-14T23:58:13Z</time>
      </trkpt>
      <trkpt lat="39.903070048365386" lon="116.4695414288865">
        <ele>37.51432494446635</ele>
        <time>2026-07-14T23:58:29Z</time>
      </trkpt>
      <trkpt lat="39.90307925888582" lon="116.46992792445319">
        <ele>37.86488589365035</ele>
        <time>2026-07-14T23:58:41Z</time>
      </trkpt>
      <trkpt lat="39.90308993598411" lon="116.47030580494486">
        <ele>37.57136791944504</ele>
        <time>2026-07-14T23:58:53Z</time>
      </trkpt>
      <trkpt lat="39.903095125290704" lon="116.47069166825858">
        <ele>37.822342361323535</ele>
        <time>2026-07-14T23:59:07Z</time>
      </trkpt>
      <trkpt lat="39.90310132775145" lon="116.4710695393276">
        <ele>37.440141612663865</ele>
        <time>2026-07-14T23:59:19Z</time>
      </trkpt>
      <trkpt lat="39.90311639565835" lon="116.47133690823554">
        <ele>36.06453428696841</ele>
        <time>2026-07-14T23:59:28Z</time>
      </trkpt>
      <trkpt lat="39.90320982148904" lon="116.47158792958946">
        <ele>38.12633240874857</ele>
        <time>2026-07-14T23:59:37Z</time>
      </trkpt>
      <trkpt lat="39.903268585129105" lon="116.47164590430407">
        <ele>37.804352200590074</ele>
        <time>2026-07-14T23:59:40Z</time>
      </trkpt>
      <trkpt lat="39.903096935983534" lon="116.47181279600035">
        <ele>38.52094457484782</ele>
        <time>2026-07-14T23:59:46Z</time>
      </trkpt>
      <trkpt lat="39.903105829354104" lon="116.47221880590759">
        <ele>39.06385062634945</ele>
        <time>2026-07-14T23:59:58Z</time>
      </trkpt>
      <trkpt lat="39.903062203823985" lon="116.47265045318541">
        <ele>38.0831983955577</ele>
        <time>2026-07-15T00:00:13Z</time>
      </trkpt>
      <trkpt lat="39.90306491204415" lon="116.47276054260983">
        <ele>38.66529971640557</ele>
        <time>2026-07-15T00:00:17Z</time>
      </trkpt>
      <trkpt lat="39.903006383764065" lon="116.47317696728459">
        <ele>38.103685677051544</ele>
        <time>2026-07-15T00:00:33Z</time>
      </trkpt>
      <trkpt lat="39.902964627609606" lon="116.47353250601795">
        <ele>37.727444019168615</ele>
        <time>2026-07-15T00:00:45Z</time>
      </trkpt>
      <trkpt lat="39.90291035546036" lon="116.47400019996753">
        <ele>38.44742477592081</ele>
        <time>2026-07-15T00:01:01Z</time>
      </trkpt>
      <trkpt lat="39.90285942299005" lon="116.47440075526771">
        <ele>37.08079745993018</ele>
        <time>2026-07-15T00:01:14Z</time>
      </trkpt>
      <trkpt lat="39.90280494430225" lon="116.47479400859228">
        <ele>37.32934420648962</ele>
        <time>2026-07-15T00:01:26Z</time>
      </trkpt>
      <trkpt lat="39.90275162612831" lon="116.47521806986464">
        <ele>37.94150651153177</ele>
        <time>2026-07-15T00:01:41Z</time>
      </trkpt>
      <trkpt lat="39.90271572349633" lon="116.47547472113126">
        <ele>37.364778716117144</ele>
        <time>2026-07-15T00:01:50Z</time>
      </trkpt>
      <trkpt lat="39.90271600472284" lon="116.47583162929216">
        <ele>35.83082247432321</ele>
        <time>2026-07-15T00:02:02Z</time>
      </trkpt>
      <trkpt lat="39.90272446563038" lon="116.47608200245969">
        <ele>35.67624766007066</ele>
        <time>2026-07-15T00:02:11Z</time>
      </trkpt>
      <trkpt lat="39.90277204812705" lon="116.47641445399881">
        <ele>35.44320634845644</ele>
        <time>2026-07-15T00:02:23Z</time>
      </trkpt>
      <trkpt lat="39.90276682709152" lon="116.4764882796384">
        <ele>34.40996497217566</ele>
        <time>2026-07-15T00:02:26Z</time>
      </trkpt>
      <trkpt lat="39.902843178599845" lon="116.476860874692">
        <ele>35.33227652683854</ele>
        <time>2026-07-15T00:02:41Z</time>
      </trkpt>
      <trkpt lat="39.902917158286336" lon="116.47720206088904">
        <ele>35.227042318321764</ele>
        <time>2026-07-15T00:03:02Z</time>
      </trkpt>
      <trkpt lat="39.90296606788707" lon="116.47735139493415">
        <ele>34.73928704764694</ele>
        <time>2026-07-15T00:03:12Z</time>
      </trkpt>
      <trkpt lat="39.90304167395636" lon="116.47774011551533">
        <ele>34.40928751323372</ele>
        <time>2026-07-15T00:03:27Z</time>
      </trkpt>
      <trkpt lat="39.903111464430495" lon="116.47798939585644">
        <ele>35.225745249539614</ele>
        <time>2026-07-15T00:03:36Z</time>
      </trkpt>
      <trkpt lat="39.903114306623806" lon="116.47807990035253">
        <ele>35.44484543334693</ele>
        <time>2026-07-15T00:03:39Z</time>
      </trkpt>
      <trkpt lat="39.90317443353869" lon="116.47825731523432">
        <ele>36.51446923986077</ele>
        <time>2026-07-15T00:03:45Z</time>
      </trkpt>
      <trkpt lat="39.90320064325271" lon="116.4784480158553">
        <ele>35.38249100651592</ele>
        <time>2026-07-15T00:03:51Z</time>
      </trkpt>
      <trkpt lat="39.903289649336536" lon="116.47881632576392">
        <ele>35.72149551101029</ele>
        <time>2026-07-15T00:04:03Z</time>
      </trkpt>
      <trkpt lat="39.90335738027237" lon="116.47910580274218">
        <ele>36.546918771229684</ele>
        <time>2026-07-15T00:04:15Z</time>
      </trkpt>
      <trkpt lat="39.90335667818712" lon="116.47919124208622">
        <ele>37.30229703895748</ele>
        <time>2026-07-15T00:04:18Z</time>
      </trkpt>
      <trkpt lat="39.90342543925846" lon="116.47933154998938">
        <ele>36.97729360125959</ele>
        <time>2026-07-15T00:04:24Z</time>
      </trkpt>
      <trkpt lat="39.90344265177629" lon="116.47947766575679">
        <ele>37.15286831744015</ele>
        <time>2026-07-15T00:04:30Z</time>
      </trkpt>
      <trkpt lat="39.903478111202" lon="116.47961732463189">
        <ele>37.73304506205022</ele>
        <time>2026-07-15T00:04:36Z</time>
      </trkpt>
      <trkpt lat="39.90353124326595" lon="116.48000125183644">
        <ele>36.84761783387512</ele>
        <time>2026-07-15T00:04:51Z</time>
      </trkpt>
      <trkpt lat="39.903617550433836" lon="116.48036390186859">
        <ele>36.15775412041694</ele>
        <time>2026-07-15T00:05:06Z</time>
      </trkpt>
      <trkpt lat="39.90370083682479" lon="116.48071361050793">
        <ele>37.439663829281926</ele>
        <time>2026-07-15T00:05:19Z</time>
      </trkpt>
      <trkpt lat="39.90375577554919" lon="116.48098686557498">
        <ele>35.92526338994503</ele>
        <time>2026-07-15T00:05:37Z</time>
      </trkpt>
      <trkpt lat="39.903790828570784" lon="116.48108469644946">
        <ele>36.07607982400805</ele>
        <time>2026-07-15T00:05:43Z</time>
      </trkpt>
      <trkpt lat="39.903819648422036" lon="116.48131916104617">
        <ele>36.186959634535015</ele>
        <time>2026-07-15T00:05:55Z</time>
      </trkpt>
      <trkpt lat="39.903842967776484" lon="116.48140573719176">
        <ele>35.866083580069244</ele>
        <time>2026-07-15T00:06:01Z</time>
      </trkpt>
      <trkpt lat="39.90385875589514" lon="116.48160057922857">
        <ele>35.612476577050984</ele>
        <time>2026-07-15T00:06:13Z</time>
      </trkpt>
      <trkpt lat="39.90388949916321" lon="116.48177056611452">
        <ele>36.26338658109307</ele>
        <time>2026-07-15T00:06:25Z</time>
      </trkpt>
      <trkpt lat="39.90382130313318" lon="116.48136179835217">
        <ele>36.780511325225234</ele>
        <time>2026-07-15T00:06:40Z</time>
      </trkpt>
      <trkpt lat="39.903741028003" lon="116.48097460402651">
        <ele>36.77425095438957</ele>
        <time>2026-07-15T00:06:52Z</time>
      </trkpt>
      <trkpt lat="39.90366001421021" lon="116.48059345820316">
        <ele>35.41765081975609</ele>
        <time>2026-07-15T00:07:04Z</time>
      </trkpt>
      <trkpt lat="39.9035825261852" lon="116.48019618825012">
        <ele>36.53755181282759</ele>
        <time>2026-07-15T00:07:16Z</time>
      </trkpt>
      <trkpt lat="39.90349175947023" lon="116.47974218912157">
        <ele>36.936865873634815</ele>
        <time>2026-07-15T00:07:31Z</time>
      </trkpt>
      <trkpt lat="39.90341127174754" lon="116.47936300595653">
        <ele>36.16006609424949</ele>
        <time>2026-07-15T00:07:44Z</time>
      </trkpt>
      <trkpt lat="39.903317485942615" lon="116.47896694222813">
        <ele>36.785864593461156</ele>
        <time>2026-07-15T00:08:02Z</time>
      </trkpt>
      <trkpt lat="39.90323225134407" lon="116.47862654639003">
        <ele>37.054564354009926</ele>
        <time>2026-07-15T00:08:14Z</time>
      </trkpt>
      <trkpt lat="39.90315133886134" lon="116.478263468781">
        <ele>36.48996032960713</ele>
        <time>2026-07-15T00:08:26Z</time>
      </trkpt>
      <trkpt lat="39.90307933047418" lon="116.4779081424987">
        <ele>36.5342864934355</ele>
        <time>2026-07-15T00:08:38Z</time>
      </trkpt>
      <trkpt lat="39.90298799678674" lon="116.47755732572732">
        <ele>35.30470757652074</ele>
        <time>2026-07-15T00:08:50Z</time>
      </trkpt>
      <trkpt lat="39.90288092756624" lon="116.47712578309729">
        <ele>35.10081505589187</ele>
        <time>2026-07-15T00:09:17Z</time>
      </trkpt>
      <trkpt lat="39.902793040269145" lon="116.47670071227704">
        <ele>35.637177750468254</ele>
        <time>2026-07-15T00:09:42Z</time>
      </trkpt>
      <trkpt lat="39.90274075834924" lon="116.4762430318136">
        <ele>34.409703376702964</ele>
        <time>2026-07-15T00:10:00Z</time>
      </trkpt>
      <trkpt lat="39.902722953316946" lon="116.47585736264526">
        <ele>34.951417963951826</ele>
        <time>2026-07-15T00:10:12Z</time>
      </trkpt>
      <trkpt lat="39.902729005861886" lon="116.4754949584963">
        <ele>35.76938012056053</ele>
        <time>2026-07-15T00:10:24Z</time>
      </trkpt>
      <trkpt lat="39.90275579396131" lon="116.47510938991509">
        <ele>36.64443883486092</ele>
        <time>2026-07-15T00:10:36Z</time>
      </trkpt>
      <trkpt lat="39.90280655477693" lon="116.47475811677133">
        <ele>36.64650694467127</ele>
        <time>2026-07-15T00:10:45Z</time>
      </trkpt>
      <trkpt lat="39.9028327707258" lon="116.47444122687882">
        <ele>38.03622607886791</ele>
        <time>2026-07-15T00:10:54Z</time>
      </trkpt>
      <trkpt lat="39.902894863004555" lon="116.47403207323572">
        <ele>37.62298799864948</ele>
        <time>2026-07-15T00:11:06Z</time>
      </trkpt>
      <trkpt lat="39.90293992416564" lon="116.4736559600089">
        <ele>38.18815192300826</ele>
        <time>2026-07-15T00:11:18Z</time>
      </trkpt>
      <trkpt lat="39.903000677667464" lon="116.4733000522727">
        <ele>38.28575258329511</ele>
        <time>2026-07-15T00:11:30Z</time>
      </trkpt>
      <trkpt lat="39.903029827725355" lon="116.47294368483558">
        <ele>38.744354353286326</ele>
        <time>2026-07-15T00:11:41Z</time>
      </trkpt>
      <trkpt lat="39.90308645491786" lon="116.4725990390781">
        <ele>37.652722558006644</ele>
        <time>2026-07-15T00:11:53Z</time>
      </trkpt>
      <trkpt lat="39.903099739542114" lon="116.47214676198342">
        <ele>37.50412740558386</ele>
        <time>2026-07-15T00:12:15Z</time>
      </trkpt>
      <trkpt lat="39.90310831991037" lon="116.47173145228712">
        <ele>38.70917120669037</ele>
        <time>2026-07-15T00:12:45Z</time>
      </trkpt>
      <trkpt lat="39.90311613452965" lon="116.47163531658195">
        <ele>38.564436129294336</ele>
        <time>2026-07-15T00:12:48Z</time>
      </trkpt>
      <trkpt lat="39.90313995838163" lon="116.47156940127468">
        <ele>38.92396816145629</ele>
        <time>2026-07-15T00:12:54Z</time>
      </trkpt>
      <trkpt lat="39.903116256968865" lon="116.4711699585014">
        <ele>37.67103459127247</ele>
        <time>2026-07-15T00:13:12Z</time>
      </trkpt>
      <trkpt lat="39.903109159677335" lon="116.47088719806878">
        <ele>37.286246915347874</ele>
        <time>2026-07-15T00:13:27Z</time>
      </trkpt>
      <trkpt lat="39.903114323844875" lon="116.47053466695442">
        <ele>38.84782572649419</ele>
        <time>2026-07-15T00:13:39Z</time>
      </trkpt>
      <trkpt lat="39.90309508939692" lon="116.47014052231793">
        <ele>39.04893590323627</ele>
        <time>2026-07-15T00:13:51Z</time>
      </trkpt>
      <trkpt lat="39.90308958010059" lon="116.47000974184">
        <ele>37.82684325519949</ele>
        <time>2026-07-15T00:13:55Z</time>
      </trkpt>
      <trkpt lat="39.90308706728345" lon="116.46977236385757">
        <ele>38.2600079420954</ele>
        <time>2026-07-15T00:14:03Z</time>
      </trkpt>
      <trkpt lat="39.90306788673127" lon="116.46964444618499">
        <ele>37.31461173854768</ele>
        <time>2026-07-15T00:14:07Z</time>
      </trkpt>
      <trkpt lat="39.90306321997151" lon="116.46929213348861">
        <ele>39.13373892288655</ele>
        <time>2026-07-15T00:14:17Z</time>
      </trkpt>
      <trkpt lat="39.903053890466154" lon="116.46920039736048">
        <ele>39.637524999678135</ele>
        <time>2026-07-15T00:14:20Z</time>
      </trkpt>
      <trkpt lat="39.90306487378151" lon="116.4691205810779">
        <ele>40.21968244574964</ele>
        <time>2026-07-15T00:14:23Z</time>
      </trkpt>
      <trkpt lat="39.903050426426205" lon="116.468754233818">
        <ele>38.21778759174049</ele>
        <time>2026-07-15T00:14:35Z</time>
      </trkpt>
      <trkpt lat="39.90305188302811" lon="116.46837644473652">
        <ele>38.145342954434454</ele>
        <time>2026-07-15T00:14:47Z</time>
      </trkpt>
      <trkpt lat="39.90304172000435" lon="116.46801392434823">
        <ele>37.6832530926913</ele>
        <time>2026-07-15T00:14:59Z</time>
      </trkpt>
      <trkpt lat="39.90304695309908" lon="116.4678443070715">
        <ele>37.12209964264184</ele>
        <time>2026-07-15T00:15:05Z</time>
      </trkpt>
      <trkpt lat="39.90303088264942" lon="116.46776008612365">
        <ele>36.48421263881028</ele>
        <time>2026-07-15T00:15:08Z</time>
      </trkpt>
      <trkpt lat="39.90303192586364" lon="116.46733711281138">
        <ele>38.031419495120645</ele>
        <time>2026-07-15T00:15:23Z</time>
      </trkpt>
      <trkpt lat="39.90302050783487" lon="116.46709201099186">
        <ele>37.64272699225694</ele>
        <time>2026-07-15T00:15:32Z</time>
      </trkpt>
      <trkpt lat="39.90297867216071" lon="116.46694845933519">
        <ele>38.0260274335742</ele>
        <time>2026-07-15T00:15:38Z</time>
      </trkpt>
      <trkpt lat="39.90288669267662" lon="116.46655818397133">
        <ele>39.70259179454297</ele>
        <time>2026-07-15T00:15:55Z</time>
      </trkpt>
      <trkpt lat="39.90288069941673" lon="116.46646510674191">
        <ele>38.792988592758775</ele>
        <time>2026-07-15T00:15:59Z</time>
      </trkpt>
      <trkpt lat="39.90272545238319" lon="116.46637012536392">
        <ele>37.07445024512708</ele>
        <time>2026-07-15T00:16:11Z</time>
      </trkpt>
      <trkpt lat="39.90257285417099" lon="116.466432479899">
        <ele>40.05914010293782</ele>
        <time>2026-07-15T00:16:23Z</time>
      </trkpt>
      <trkpt lat="39.90225404920324" lon="116.46645340827646">
        <ele>39.10949491057545</ele>
        <time>2026-07-15T00:16:49Z</time>
      </trkpt>
      <trkpt lat="39.902137476306414" lon="116.46647648447502">
        <ele>39.14452193956822</ele>
        <time>2026-07-15T00:16:58Z</time>
      </trkpt>
      <trkpt lat="39.90197981327683" lon="116.46646178311572">
        <ele>39.348672048188746</ele>
        <time>2026-07-15T00:17:10Z</time>
      </trkpt>
      <trkpt lat="39.90176313873566" lon="116.46647479536068">
        <ele>39.342067626304924</ele>
        <time>2026-07-15T00:17:28Z</time>
      </trkpt>
      <trkpt lat="39.9016192605339" lon="116.46642005480939">
        <ele>39.615280027501285</ele>
        <time>2026-07-15T00:17:40Z</time>
      </trkpt>
      <trkpt lat="39.901564717187604" lon="116.46635832751947">
        <ele>39.75812322925776</ele>
        <time>2026-07-15T00:17:43Z</time>
      </trkpt>
      <trkpt lat="39.90139920659405" lon="116.46634965371705">
        <ele>40.66352784819901</ele>
        <time>2026-07-15T00:17:52Z</time>
      </trkpt>
      <trkpt lat="39.90109933228829" lon="116.46642403813445">
        <ele>40.507599585689604</ele>
        <time>2026-07-15T00:18:04Z</time>
      </trkpt>
      <trkpt lat="39.90100602124232" lon="116.46642410904303">
        <ele>39.052964261732996</ele>
        <time>2026-07-15T00:18:08Z</time>
      </trkpt>
      <trkpt lat="39.900818190039544" lon="116.46648770456648">
        <ele>41.87515821028501</ele>
        <time>2026-07-15T00:18:16Z</time>
      </trkpt>
      <trkpt lat="39.900758929711166" lon="116.46653287761465">
        <ele>42.00560117326677</ele>
        <time>2026-07-15T00:18:20Z</time>
      </trkpt>
      <trkpt lat="39.900683245712884" lon="116.46663566493906">
        <ele>41.74159718584269</ele>
        <time>2026-07-15T00:18:24Z</time>
      </trkpt>
      <trkpt lat="39.900461130556685" lon="116.46674007330215">
        <ele>39.84547419194132</ele>
        <time>2026-07-15T00:18:36Z</time>
      </trkpt>
      <trkpt lat="39.900167321369445" lon="116.46670951488983">
        <ele>40.00221399497241</ele>
        <time>2026-07-15T00:18:56Z</time>
      </trkpt>
      <trkpt lat="39.89994024398465" lon="116.46667974214363">
        <ele>37.94747387059033</ele>
        <time>2026-07-15T00:19:10Z</time>
      </trkpt>
      <trkpt lat="39.899875575370814" lon="116.46655333102467">
        <ele>38.74860668554902</ele>
        <time>2026-07-15T00:19:16Z</time>
      </trkpt>
      <trkpt lat="39.89991180766214" lon="116.46637938640343">
        <ele>39.784756739623845</ele>
        <time>2026-07-15T00:19:22Z</time>
      </trkpt>
      <trkpt lat="39.89994152748758" lon="116.46630633822265">
        <ele>40.36222419794649</ele>
        <time>2026-07-15T00:19:25Z</time>
      </trkpt>
      <trkpt lat="39.89993837287902" lon="116.4662219306116">
        <ele>40.234024830162525</ele>
        <time>2026-07-15T00:19:28Z</time>
      </trkpt>
      <trkpt lat="39.8998432202359" lon="116.4661456360602">
        <ele>39.78326086886227</ele>
        <time>2026-07-15T00:19:31Z</time>
      </trkpt>
      <trkpt lat="39.89963437712653" lon="116.46628996639514">
        <ele>39.860158033668995</ele>
        <time>2026-07-15T00:19:34Z</time>
      </trkpt>
      <trkpt lat="39.89951498798593" lon="116.46647263518393">
        <ele>38.688603514805436</ele>
        <time>2026-07-15T00:19:40Z</time>
      </trkpt>
      <trkpt lat="39.89943258048795" lon="116.46647296768914">
        <ele>39.36313912272453</ele>
        <time>2026-07-15T00:19:46Z</time>
      </trkpt>
      <trkpt lat="39.899362323212465" lon="116.46643033229587">
        <ele>39.93459861911833</ele>
        <time>2026-07-15T00:19:59Z</time>
      </trkpt>
      <trkpt lat="39.89928810307476" lon="116.46641587049862">
        <ele>38.8704171217978</ele>
        <time>2026-07-15T00:20:20Z</time>
      </trkpt>
      <trkpt lat="39.89922303280476" lon="116.46636928347499">
        <ele>39.398264521732926</ele>
        <time>2026-07-15T00:20:26Z</time>
      </trkpt>
      <trkpt lat="39.8992067125368" lon="116.46638981371437">
        <ele>39.16330270189792</ele>
        <time>2026-07-15T00:20:29Z</time>
      </trkpt>
      <trkpt lat="39.89896662278509" lon="116.4665584922185">
        <ele>39.818876520730555</ele>
        <time>2026-07-15T00:24:08Z</time>
      </trkpt>
      <trkpt lat="39.8988849291951" lon="116.46655561741233">
        <ele>40.0881404671818</ele>
        <time>2026-07-15T00:24:16Z</time>
      </trkpt>
    </trkseg>
  </trk>
</gpx>