<?xml version="1.0" encoding="UTF-8"?>
<gpx xmlns="http://www.topografix.com/GPX/1/1" xmlns:gpxtpx="http://www.garmin.com/xmlschemas/TrackPointExtension/v1" xmlns:xsi="http://www.w3.org/2001/XMLSchema-instance" xsi:schemaLocation="http://www.topografix.com/GPX/1/1 http://www.topografix.com/GPX/1/1/gpx.xsd" version="1.1" creator="gpx.py -- https://github.com/tkrajina/gpxpy">
  <trk>
    <name>gpx from keep</name>
    <type>Run</type>
    <trkseg>
      <trkpt lat="39.8935047353221" lon="116.46444023041501">
        <ele>40.286806409657025</ele>
        <time>2026-09-07T23:42:07Z</time>
      </trkpt>
      <trkpt lat="39.893561436492604" lon="116.46420535689391">
        <ele>41.29150684684515</ele>
        <time>2026-09-07T23:42:13Z</time>
      </trkpt>
      <trkpt lat="39.893604291570234" lon="116.46422394869025">
        <ele>40.119688510894775</ele>
        <time>2026-09-07T23:42:21Z</time>
      </trkpt>
      <trkpt lat="39.89340388891822" lon="116.46395320986525">
        <ele>40.329046686440705</ele>
        <time>2026-09-07T23:42:27Z</time>
      </trkpt>
      <trkpt lat="39.89336082851972" lon="116.46401990081176">
        <ele>40.6195539294014</ele>
        <time>2026-09-07T23:42:39Z</time>
      </trkpt>
      <trkpt lat="39.893242322306186" lon="116.46393085101441">
        <ele>27.762762217782438</ele>
        <time>2026-09-07T23:42:45Z</time>
      </trkpt>
      <trkpt lat="39.89316794146443" lon="116.463788940912">
        <ele>39.20946262869984</ele>
        <time>2026-09-07T23:42:49Z</time>
      </trkpt>
      <trkpt lat="39.89326601702569" lon="116.46377893379437">
        <ele>39.40979035105556</ele>
        <time>2026-09-07T23:42:53Z</time>
      </trkpt>
      <trkpt lat="39.89328710338732" lon="116.46372184269408">
        <ele>40.26927552558482</ele>
        <time>2026-09-07T23:42:57Z</time>
      </trkpt>
      <trkpt lat="39.89341665423136" lon="116.46368509391598">
        <ele>39.83804747927934</ele>
        <time>2026-09-07T23:43:06Z</time>
      </trkpt>
      <trkpt lat="39.89343334647962" lon="116.46362219117437">
        <ele>39.48039892222732</ele>
        <time>2026-09-07T23:43:12Z</time>
      </trkpt>
      <trkpt lat="39.89349792756567" lon="116.46358919707811">
        <ele>39.67485462594777</ele>
        <time>2026-09-07T23:43:18Z</time>
      </trkpt>
      <trkpt lat="39.89352596995743" lon="116.46348617551054">
        <ele>39.92109748721123</ele>
        <time>2026-09-07T23:43:24Z</time>
      </trkpt>
      <trkpt lat="39.89352762036608" lon="116.46331464082954">
        <ele>40.06877627875656</ele>
        <time>2026-09-07T23:43:36Z</time>
      </trkpt>
      <trkpt lat="39.89357159298788" lon="116.46328136708334">
        <ele>40.583440377376974</ele>
        <time>2026-09-07T23:43:39Z</time>
      </trkpt>
      <trkpt lat="39.89369149001249" lon="116.46329935031135">
        <ele>41.644428103230894</ele>
        <time>2026-09-07T23:43:48Z</time>
      </trkpt>
      <trkpt lat="39.893775611017844" lon="116.4632060407792">
        <ele>41.201152921654284</ele>
        <time>2026-09-07T23:44:00Z</time>
      </trkpt>
      <trkpt lat="39.89383011258182" lon="116.46317438934281">
        <ele>41.774024746380746</ele>
        <time>2026-09-07T23:44:06Z</time>
      </trkpt>
      <trkpt lat="39.893883167674616" lon="116.46319816171902">
        <ele>40.445529400371015</ele>
        <time>2026-09-07T23:44:15Z</time>
      </trkpt>
      <trkpt lat="39.89394654929568" lon="116.46319879213313">
        <ele>40.314468120224774</ele>
        <time>2026-09-07T23:44:21Z</time>
      </trkpt>
      <trkpt lat="39.893971751194464" lon="116.46312234487517">
        <ele>39.05896707158536</ele>
        <time>2026-09-07T23:44:27Z</time>
      </trkpt>
      <trkpt lat="39.894278975864616" lon="116.46307688496694">
        <ele>40.42069357726723</ele>
        <time>2026-09-07T23:44:36Z</time>
      </trkpt>
      <trkpt lat="39.89445266586664" lon="116.46307925652391">
        <ele>41.67702845018357</ele>
        <time>2026-09-07T23:44:42Z</time>
      </trkpt>
      <trkpt lat="39.89462140001593" lon="116.46306396226112">
        <ele>41.48114812374115</ele>
        <time>2026-09-07T23:44:48Z</time>
      </trkpt>
      <trkpt lat="39.89468901730263" lon="116.46307920552199">
        <ele>42.724778718315065</ele>
        <time>2026-09-07T23:44:51Z</time>
      </trkpt>
      <trkpt lat="39.89501421719029" lon="116.46305730972774">
        <ele>40.16484473273158</ele>
        <time>2026-09-07T23:45:05Z</time>
      </trkpt>
      <trkpt lat="39.89518927492295" lon="116.46303238581149">
        <ele>39.841659823432565</ele>
        <time>2026-09-07T23:45:13Z</time>
      </trkpt>
      <trkpt lat="39.89529419197472" lon="116.46305380812859">
        <ele>39.45903173927218</ele>
        <time>2026-09-07T23:45:17Z</time>
      </trkpt>
      <trkpt lat="39.89558307407154" lon="116.4630493111464">
        <ele>40.21157874725759</ele>
        <time>2026-09-07T23:45:29Z</time>
      </trkpt>
      <trkpt lat="39.89570443751648" lon="116.46305254812503">
        <ele>40.160292885266244</ele>
        <time>2026-09-07T23:45:35Z</time>
      </trkpt>
      <trkpt lat="39.89576553923057" lon="116.46307195558273">
        <ele>39.85114267282188</ele>
        <time>2026-09-07T23:45:38Z</time>
      </trkpt>
      <trkpt lat="39.89580481520467" lon="116.46315333702587">
        <ele>40.5209524538368</ele>
        <time>2026-09-07T23:45:41Z</time>
      </trkpt>
      <trkpt lat="39.89581452695638" lon="116.46326440635058">
        <ele>39.93852632679045</ele>
        <time>2026-09-07T23:45:44Z</time>
      </trkpt>
      <trkpt lat="39.89579024825877" lon="116.4633307125809">
        <ele>38.3720521600917</ele>
        <time>2026-09-07T23:45:47Z</time>
      </trkpt>
      <trkpt lat="39.89580303541212" lon="116.463691102963">
        <ele>40.84720064792782</ele>
        <time>2026-09-07T23:45:59Z</time>
      </trkpt>
      <trkpt lat="39.89579896292029" lon="116.46385013918382">
        <ele>40.096124895848334</ele>
        <time>2026-09-07T23:46:05Z</time>
      </trkpt>
      <trkpt lat="39.895781491955326" lon="116.4639082339196">
        <ele>38.93055846169591</ele>
        <time>2026-09-07T23:46:08Z</time>
      </trkpt>
      <trkpt lat="39.89581043396328" lon="116.46416315258384">
        <ele>39.513725272379816</ele>
        <time>2026-09-07T23:46:17Z</time>
      </trkpt>
      <trkpt lat="39.89580878045796" lon="116.4644404110194">
        <ele>40.24449769128114</ele>
        <time>2026-09-07T23:46:26Z</time>
      </trkpt>
      <trkpt lat="39.89578628122681" lon="116.46460790037011">
        <ele>38.95538144186139</ele>
        <time>2026-09-07T23:46:32Z</time>
      </trkpt>
      <trkpt lat="39.89580158142698" lon="116.46497512397438">
        <ele>39.903825362212956</ele>
        <time>2026-09-07T23:46:44Z</time>
      </trkpt>
      <trkpt lat="39.89578401641299" lon="116.46504722646975">
        <ele>39.67170060053468</ele>
        <time>2026-09-07T23:46:47Z</time>
      </trkpt>
      <trkpt lat="39.89579335894702" lon="116.46513179607922">
        <ele>39.210695513524115</ele>
        <time>2026-09-07T23:46:50Z</time>
      </trkpt>
      <trkpt lat="39.89577729826766" lon="116.46520049182973">
        <ele>39.74389347527176</ele>
        <time>2026-09-07T23:46:53Z</time>
      </trkpt>
      <trkpt lat="39.89577753643192" lon="116.46535930827939">
        <ele>40.0910983029753</ele>
        <time>2026-09-07T23:46:59Z</time>
      </trkpt>
      <trkpt lat="39.89587745873802" lon="116.46547938980865">
        <ele>40.05645021982491</ele>
        <time>2026-09-07T23:47:06Z</time>
      </trkpt>
      <trkpt lat="39.895902676232666" lon="116.46557624751445">
        <ele>39.973856549710035</ele>
        <time>2026-09-07T23:47:09Z</time>
      </trkpt>
      <trkpt lat="39.89589407890226" lon="116.46564288746328">
        <ele>40.81154590845108</ele>
        <time>2026-09-07T23:47:12Z</time>
      </trkpt>
      <trkpt lat="39.89593827355932" lon="116.46571933006568">
        <ele>40.41581753175706</ele>
        <time>2026-09-07T23:47:15Z</time>
      </trkpt>
      <trkpt lat="39.895907329647045" lon="116.46582375742447">
        <ele>40.682521138340235</ele>
        <time>2026-09-07T23:47:18Z</time>
      </trkpt>
      <trkpt lat="39.89593912479878" lon="116.46600487206061">
        <ele>41.553610663861036</ele>
        <time>2026-09-07T23:47:24Z</time>
      </trkpt>
      <trkpt lat="39.895916863462816" lon="116.46619263944181">
        <ele>41.23023890517652</ele>
        <time>2026-09-07T23:47:30Z</time>
      </trkpt>
      <trkpt lat="39.895938363699905" lon="116.46627385113383">
        <ele>40.94437549635768</ele>
        <time>2026-09-07T23:47:33Z</time>
      </trkpt>
      <trkpt lat="39.89595027577498" lon="116.46651597688498">
        <ele>42.02605270408094</ele>
        <time>2026-09-07T23:47:42Z</time>
      </trkpt>
      <trkpt lat="39.895982576160215" lon="116.46663993865766">
        <ele>40.276941526681185</ele>
        <time>2026-09-07T23:47:51Z</time>
      </trkpt>
      <trkpt lat="39.896032575977415" lon="116.4667204700483">
        <ele>39.10192305594683</ele>
        <time>2026-09-07T23:47:57Z</time>
      </trkpt>
      <trkpt lat="39.89610920716703" lon="116.46675678746129">
        <ele>38.645982389338315</ele>
        <time>2026-09-07T23:48:03Z</time>
      </trkpt>
      <trkpt lat="39.896417717489875" lon="116.46678777675872">
        <ele>38.202445837669075</ele>
        <time>2026-09-07T23:48:27Z</time>
      </trkpt>
      <trkpt lat="39.896554307306914" lon="116.46676462718004">
        <ele>41.22007409390062</ele>
        <time>2026-09-07T23:48:39Z</time>
      </trkpt>
      <trkpt lat="39.896598552552796" lon="116.46677724880865">
        <ele>40.206130588427186</ele>
        <time>2026-09-07T23:48:42Z</time>
      </trkpt>
      <trkpt lat="39.89686883136269" lon="116.46675904512895">
        <ele>41.77759158518165</ele>
        <time>2026-09-07T23:49:00Z</time>
      </trkpt>
      <trkpt lat="39.896935602255425" lon="116.46675233280952">
        <ele>41.91115784738213</ele>
        <time>2026-09-07T23:49:03Z</time>
      </trkpt>
      <trkpt lat="39.89701087051981" lon="116.46677023386697">
        <ele>40.90240408945829</ele>
        <time>2026-09-07T23:49:06Z</time>
      </trkpt>
      <trkpt lat="39.897257047197925" lon="116.46677556981714">
        <ele>39.66331719327718</ele>
        <time>2026-09-07T23:49:16Z</time>
      </trkpt>
      <trkpt lat="39.89735594956215" lon="116.46681000792942">
        <ele>39.61960929259658</ele>
        <time>2026-09-07T23:49:20Z</time>
      </trkpt>
      <trkpt lat="39.8976298901614" lon="116.46680655800924">
        <ele>39.83653818257153</ele>
        <time>2026-09-07T23:49:32Z</time>
      </trkpt>
      <trkpt lat="39.89779218988103" lon="116.46679083685954">
        <ele>41.02963284775615</ele>
        <time>2026-09-07T23:49:40Z</time>
      </trkpt>
      <trkpt lat="39.898034934701585" lon="116.46683889103477">
        <ele>40.98891966789961</ele>
        <time>2026-09-07T23:49:52Z</time>
      </trkpt>
      <trkpt lat="39.8982094833851" lon="116.466826890365">
        <ele>40.58146846666932</ele>
        <time>2026-09-07T23:50:01Z</time>
      </trkpt>
      <trkpt lat="39.89849161260664" lon="116.46683889580424">
        <ele>40.54367501474917</ele>
        <time>2026-09-07T23:50:13Z</time>
      </trkpt>
      <trkpt lat="39.898803916737016" lon="116.46684863009378">
        <ele>41.30075223837048</ele>
        <time>2026-09-07T23:50:28Z</time>
      </trkpt>
      <trkpt lat="39.899120517442405" lon="116.46685039615558">
        <ele>40.05615418404341</ele>
        <time>2026-09-07T23:50:43Z</time>
      </trkpt>
      <trkpt lat="39.89928134369485" lon="116.46685451114459">
        <ele>40.825194033794105</ele>
        <time>2026-09-07T23:50:55Z</time>
      </trkpt>
      <trkpt lat="39.899360048996066" lon="116.46672544608043">
        <ele>38.405977530404925</ele>
        <time>2026-09-07T23:51:07Z</time>
      </trkpt>
      <trkpt lat="39.899351160985134" lon="116.4666470649545">
        <ele>38.32668481208384</ele>
        <time>2026-09-07T23:51:10Z</time>
      </trkpt>
      <trkpt lat="39.89941249841573" lon="116.46658830143787">
        <ele>39.15989043191075</ele>
        <time>2026-09-07T23:51:13Z</time>
      </trkpt>
      <trkpt lat="39.89945774800545" lon="116.46659022343147">
        <ele>39.169755511917174</ele>
        <time>2026-09-07T23:51:16Z</time>
      </trkpt>
      <trkpt lat="39.899539899333156" lon="116.46654423092738">
        <ele>39.60652245488018</ele>
        <time>2026-09-07T23:51:20Z</time>
      </trkpt>
      <trkpt lat="39.899602949686624" lon="116.46653305662122">
        <ele>37.11184958089143</ele>
        <time>2026-09-07T23:51:28Z</time>
      </trkpt>
      <trkpt lat="39.89966925666627" lon="116.46655068749547">
        <ele>38.673770925961435</ele>
        <time>2026-09-07T23:51:36Z</time>
      </trkpt>
      <trkpt lat="39.89983556880206" lon="116.4666745204637">
        <ele>38.315907249227166</ele>
        <time>2026-09-07T23:51:44Z</time>
      </trkpt>
      <trkpt lat="39.89988196607442" lon="116.46666459299615">
        <ele>39.37670011352748</ele>
        <time>2026-09-07T23:51:48Z</time>
      </trkpt>
      <trkpt lat="39.89993608708579" lon="116.4667381285443">
        <ele>39.91101646889001</ele>
        <time>2026-09-07T23:51:52Z</time>
      </trkpt>
      <trkpt lat="39.90022434238983" lon="116.46677257888652">
        <ele>40.752001891843975</ele>
        <time>2026-09-07T23:52:04Z</time>
      </trkpt>
      <trkpt lat="39.90050189573399" lon="116.46680231513534">
        <ele>40.35863341484219</ele>
        <time>2026-09-07T23:52:20Z</time>
      </trkpt>
      <trkpt lat="39.900589424662236" lon="116.46678757923723">
        <ele>40.236821020022035</ele>
        <time>2026-09-07T23:52:24Z</time>
      </trkpt>
      <trkpt lat="39.90067350545032" lon="116.46674241893234">
        <ele>39.82258076220751</ele>
        <time>2026-09-07T23:52:28Z</time>
      </trkpt>
      <trkpt lat="39.90082278406357" lon="116.46655557365152">
        <ele>40.39720340259373</ele>
        <time>2026-09-07T23:52:40Z</time>
      </trkpt>
      <trkpt lat="39.900978092326696" lon="116.46648007835226">
        <ele>41.02731685526669</ele>
        <time>2026-09-07T23:52:48Z</time>
      </trkpt>
      <trkpt lat="39.90105036240896" lon="116.46648529224697">
        <ele>40.82359613478184</ele>
        <time>2026-09-07T23:52:52Z</time>
      </trkpt>
      <trkpt lat="39.90114884088509" lon="116.46643703204823">
        <ele>40.61069797631353</ele>
        <time>2026-09-07T23:52:56Z</time>
      </trkpt>
      <trkpt lat="39.90123269395305" lon="116.46643456520071">
        <ele>40.142943183891475</ele>
        <time>2026-09-07T23:53:00Z</time>
      </trkpt>
      <trkpt lat="39.901299326429374" lon="116.46638428707483">
        <ele>40.17299039848149</ele>
        <time>2026-09-07T23:53:04Z</time>
      </trkpt>
      <trkpt lat="39.90143349529256" lon="116.46638344856149">
        <ele>40.06105466187</ele>
        <time>2026-09-07T23:53:11Z</time>
      </trkpt>
      <trkpt lat="39.90151397709378" lon="116.46634447241192">
        <ele>40.38100343104452</ele>
        <time>2026-09-07T23:53:15Z</time>
      </trkpt>
      <trkpt lat="39.901787269193235" lon="116.46647801555959">
        <ele>39.7310901992023</ele>
        <time>2026-09-07T23:53:30Z</time>
      </trkpt>
      <trkpt lat="39.90208036549337" lon="116.46644648054823">
        <ele>38.92137850262225</ele>
        <time>2026-09-07T23:53:46Z</time>
      </trkpt>
      <trkpt lat="39.90238739832641" lon="116.46643857594864">
        <ele>39.39928676281124</ele>
        <time>2026-09-07T23:54:02Z</time>
      </trkpt>
      <trkpt lat="39.902604980878344" lon="116.46642075107714">
        <ele>39.568965937010944</ele>
        <time>2026-09-07T23:54:14Z</time>
      </trkpt>
      <trkpt lat="39.90273679675421" lon="116.46635704604458">
        <ele>38.644000764004886</ele>
        <time>2026-09-07T23:54:22Z</time>
      </trkpt>
      <trkpt lat="39.902827079451" lon="116.46641731646939">
        <ele>39.11957908887416</ele>
        <time>2026-09-07T23:54:30Z</time>
      </trkpt>
      <trkpt lat="39.902871276206" lon="116.46646800676763">
        <ele>39.341228225268424</ele>
        <time>2026-09-07T23:54:34Z</time>
      </trkpt>
      <trkpt lat="39.90287743114427" lon="116.46654519918224">
        <ele>39.12460062094033</ele>
        <time>2026-09-07T23:54:38Z</time>
      </trkpt>
      <trkpt lat="39.90294623424942" lon="116.46672280068">
        <ele>37.737006411887705</ele>
        <time>2026-09-07T23:54:50Z</time>
      </trkpt>
      <trkpt lat="39.902945555537606" lon="116.46678190703538">
        <ele>38.479630385525525</ele>
        <time>2026-09-07T23:54:54Z</time>
      </trkpt>
      <trkpt lat="39.90300171762041" lon="116.46700366638822">
        <ele>37.56841723341495</ele>
        <time>2026-09-07T23:55:10Z</time>
      </trkpt>
      <trkpt lat="39.90305512669784" lon="116.46716325344525">
        <ele>38.50013170205057</ele>
        <time>2026-09-07T23:55:18Z</time>
      </trkpt>
      <trkpt lat="39.903050259363255" lon="116.46724903270803">
        <ele>38.466390506364405</ele>
        <time>2026-09-07T23:55:22Z</time>
      </trkpt>
      <trkpt lat="39.903085960358425" lon="116.46735549057257">
        <ele>38.65530024655163</ele>
        <time>2026-09-07T23:55:26Z</time>
      </trkpt>
      <trkpt lat="39.90306613275081" lon="116.46741607053559">
        <ele>38.495034251362085</ele>
        <time>2026-09-07T23:55:29Z</time>
      </trkpt>
      <trkpt lat="39.90307796472659" lon="116.46756844217248">
        <ele>38.00031132437289</ele>
        <time>2026-09-07T23:55:41Z</time>
      </trkpt>
      <trkpt lat="39.90305333436121" lon="116.46798604542312">
        <ele>37.648655612021685</ele>
        <time>2026-09-07T23:56:13Z</time>
      </trkpt>
      <trkpt lat="39.90304518710785" lon="116.46816022068565">
        <ele>37.70291312690824</ele>
        <time>2026-09-07T23:56:25Z</time>
      </trkpt>
      <trkpt lat="39.90307454960494" lon="116.46823593834661">
        <ele>37.88225836865604</ele>
        <time>2026-09-07T23:56:29Z</time>
      </trkpt>
      <trkpt lat="39.90308068548618" lon="116.46838168005891">
        <ele>38.691969635896385</ele>
        <time>2026-09-07T23:56:33Z</time>
      </trkpt>
      <trkpt lat="39.90305386040929" lon="116.46850219284143">
        <ele>37.12556008901447</ele>
        <time>2026-09-07T23:56:37Z</time>
      </trkpt>
      <trkpt lat="39.90307577748093" lon="116.46865733410958">
        <ele>37.571030128747225</ele>
        <time>2026-09-07T23:56:41Z</time>
      </trkpt>
      <trkpt lat="39.903058655544065" lon="116.46892255136733">
        <ele>38.514695272780955</ele>
        <time>2026-09-07T23:56:49Z</time>
      </trkpt>
      <trkpt lat="39.903084266345125" lon="116.46904606160966">
        <ele>38.72327425330877</ele>
        <time>2026-09-07T23:56:53Z</time>
      </trkpt>
      <trkpt lat="39.90307764013938" lon="116.46926705429993">
        <ele>37.680564356036484</ele>
        <time>2026-09-07T23:57:01Z</time>
      </trkpt>
      <trkpt lat="39.903092863298546" lon="116.46937537783941">
        <ele>38.206293769180775</ele>
        <time>2026-09-07T23:57:05Z</time>
      </trkpt>
      <trkpt lat="39.903088486048" lon="116.46977128841912">
        <ele>38.74858183320612</ele>
        <time>2026-09-07T23:57:21Z</time>
      </trkpt>
      <trkpt lat="39.9030994257265" lon="116.47021440749896">
        <ele>36.23067139741033</ele>
        <time>2026-09-07T23:57:37Z</time>
      </trkpt>
      <trkpt lat="39.903110770715166" lon="116.47049634544936">
        <ele>37.52155069261789</ele>
        <time>2026-09-07T23:57:49Z</time>
      </trkpt>
      <trkpt lat="39.90312631963818" lon="116.47056784990295">
        <ele>38.5953876953572</ele>
        <time>2026-09-07T23:57:52Z</time>
      </trkpt>
      <trkpt lat="39.903131931562164" lon="116.47092267432429">
        <ele>38.186307329684496</ele>
        <time>2026-09-07T23:58:07Z</time>
      </trkpt>
      <trkpt lat="39.90313994642542" lon="116.4713098097858">
        <ele>36.03599888738245</ele>
        <time>2026-09-07T23:58:22Z</time>
      </trkpt>
      <trkpt lat="39.90313782944292" lon="116.4713787957242">
        <ele>37.434409405104816</ele>
        <time>2026-09-07T23:58:25Z</time>
      </trkpt>
      <trkpt lat="39.90308855059201" lon="116.4714725730545">
        <ele>38.70321384817362</ele>
        <time>2026-09-07T23:58:42Z</time>
      </trkpt>
      <trkpt lat="39.90308359857006" lon="116.47136593213239">
        <ele>38.9723906647414</ele>
        <time>2026-09-07T23:58:46Z</time>
      </trkpt>
      <trkpt lat="39.90310276966276" lon="116.47125083417058">
        <ele>39.08635053690523</ele>
        <time>2026-09-07T23:58:54Z</time>
      </trkpt>
      <trkpt lat="39.90308409846675" lon="116.47108440823261">
        <ele>39.056521670892835</ele>
        <time>2026-09-07T23:59:06Z</time>
      </trkpt>
      <trkpt lat="39.90309116520498" lon="116.47099173005316">
        <ele>38.56768760457635</ele>
        <time>2026-09-07T23:59:10Z</time>
      </trkpt>
      <trkpt lat="39.903068840244636" lon="116.4709219209608">
        <ele>38.66978399362415</ele>
        <time>2026-09-07T23:59:14Z</time>
      </trkpt>
      <trkpt lat="39.90309514934412" lon="116.4708059469196">
        <ele>39.37751932069659</ele>
        <time>2026-09-07T23:59:18Z</time>
      </trkpt>
      <trkpt lat="39.903073937311845" lon="116.47073933862089">
        <ele>38.29476866219193</ele>
        <time>2026-09-07T23:59:22Z</time>
      </trkpt>
      <trkpt lat="39.90308644373322" lon="116.47052179548689">
        <ele>40.4523456832394</ele>
        <time>2026-09-07T23:59:30Z</time>
      </trkpt>
      <trkpt lat="39.90307165181457" lon="116.47041279906128">
        <ele>39.81537641398609</ele>
        <time>2026-09-07T23:59:34Z</time>
      </trkpt>
      <trkpt lat="39.903103572695" lon="116.470282475036">
        <ele>40.24420344270766</ele>
        <time>2026-09-07T23:59:38Z</time>
      </trkpt>
      <trkpt lat="39.90306279696286" lon="116.47007804398217">
        <ele>38.799789856188</ele>
        <time>2026-09-07T23:59:47Z</time>
      </trkpt>
      <trkpt lat="39.90308869876718" lon="116.46967863700557">
        <ele>39.4049585852772</ele>
        <time>2026-09-08T00:00:02Z</time>
      </trkpt>
      <trkpt lat="39.903080174964465" lon="116.46954136873642">
        <ele>39.52180557977408</ele>
        <time>2026-09-08T00:00:08Z</time>
      </trkpt>
      <trkpt lat="39.903087036200745" lon="116.46933891693875">
        <ele>40.259364555589855</ele>
        <time>2026-09-08T00:00:16Z</time>
      </trkpt>
      <trkpt lat="39.90306416104106" lon="116.46909203712686">
        <ele>39.56256159208715</ele>
        <time>2026-09-08T00:00:24Z</time>
      </trkpt>
      <trkpt lat="39.903071840229586" lon="116.4689909097778">
        <ele>39.96451643574983</ele>
        <time>2026-09-08T00:00:28Z</time>
      </trkpt>
      <trkpt lat="39.90306016396979" lon="116.46888206348413">
        <ele>39.70276939123869</ele>
        <time>2026-09-08T00:00:32Z</time>
      </trkpt>
      <trkpt lat="39.90307056513217" lon="116.46877584973868">
        <ele>39.591193611733615</ele>
        <time>2026-09-08T00:00:36Z</time>
      </trkpt>
      <trkpt lat="39.903053965731964" lon="116.46835604581189">
        <ele>38.644149894826114</ele>
        <time>2026-09-08T00:00:52Z</time>
      </trkpt>
      <trkpt lat="39.903033054443945" lon="116.46797220646489">
        <ele>38.30379943642765</ele>
        <time>2026-09-08T00:01:08Z</time>
      </trkpt>
      <trkpt lat="39.90301701681937" lon="116.46756507497149">
        <ele>38.58827898092568</ele>
        <time>2026-09-08T00:01:24Z</time>
      </trkpt>
      <trkpt lat="39.90301146168113" lon="116.46736305391057">
        <ele>38.43626375962049</ele>
        <time>2026-09-08T00:01:32Z</time>
      </trkpt>
      <trkpt lat="39.90302760394291" lon="116.46725184002031">
        <ele>37.79346864670515</ele>
        <time>2026-09-08T00:01:40Z</time>
      </trkpt>
      <trkpt lat="39.902961320884884" lon="116.4669329236545">
        <ele>39.09951241500676</ele>
        <time>2026-09-08T00:01:59Z</time>
      </trkpt>
      <trkpt lat="39.90290109353581" lon="116.46674408852854">
        <ele>38.95228612143546</ele>
        <time>2026-09-08T00:02:11Z</time>
      </trkpt>
      <trkpt lat="39.90290161298724" lon="116.4666798111732">
        <ele>39.3588978247717</ele>
        <time>2026-09-08T00:02:15Z</time>
      </trkpt>
      <trkpt lat="39.90286703386524" lon="116.46659052460926">
        <ele>38.35071083251387</ele>
        <time>2026-09-08T00:02:23Z</time>
      </trkpt>
      <trkpt lat="39.902859307833886" lon="116.46647140688358">
        <ele>38.746227806434035</ele>
        <time>2026-09-08T00:02:31Z</time>
      </trkpt>
      <trkpt lat="39.90282135318054" lon="116.46643149688241">
        <ele>38.087234707549214</ele>
        <time>2026-09-08T00:02:35Z</time>
      </trkpt>
      <trkpt lat="39.90272090671908" lon="116.46639980804635">
        <ele>38.7382648056373</ele>
        <time>2026-09-08T00:02:43Z</time>
      </trkpt>
      <trkpt lat="39.902654138461955" lon="116.46639913097069">
        <ele>38.909877667203546</ele>
        <time>2026-09-08T00:02:47Z</time>
      </trkpt>
      <trkpt lat="39.902592984970006" lon="116.46633171882446">
        <ele>38.24248710181564</ele>
        <time>2026-09-08T00:02:51Z</time>
      </trkpt>
      <trkpt lat="39.90250741942946" lon="116.46628116077093">
        <ele>38.74939739052206</ele>
        <time>2026-09-08T00:02:55Z</time>
      </trkpt>
      <trkpt lat="39.90224755786476" lon="116.46624033972027">
        <ele>39.76932972762734</ele>
        <time>2026-09-08T00:03:07Z</time>
      </trkpt>
      <trkpt lat="39.902178417221" lon="116.4662755194457">
        <ele>39.10490981955081</ele>
        <time>2026-09-08T00:03:11Z</time>
      </trkpt>
      <trkpt lat="39.90209476561494" lon="116.4662535069826">
        <ele>39.471140258945525</ele>
        <time>2026-09-08T00:03:15Z</time>
      </trkpt>
      <trkpt lat="39.901939968295146" lon="116.466300190121">
        <ele>39.04977774992585</ele>
        <time>2026-09-08T00:03:23Z</time>
      </trkpt>
      <trkpt lat="39.90186024873329" lon="116.46629151683139">
        <ele>39.26261086668819</ele>
        <time>2026-09-08T00:03:27Z</time>
      </trkpt>
      <trkpt lat="39.901537832497326" lon="116.46637300460155">
        <ele>40.58288791589439</ele>
        <time>2026-09-08T00:03:43Z</time>
      </trkpt>
      <trkpt lat="39.90140064826836" lon="116.46641988403205">
        <ele>40.07807273231447</ele>
        <time>2026-09-08T00:03:51Z</time>
      </trkpt>
      <trkpt lat="39.901338029967874" lon="116.46640658765355">
        <ele>39.57727555651218</ele>
        <time>2026-09-08T00:03:54Z</time>
      </trkpt>
      <trkpt lat="39.901166374137645" lon="116.46644255825905">
        <ele>40.07890512607992</ele>
        <time>2026-09-08T00:04:02Z</time>
      </trkpt>
      <trkpt lat="39.90093896922419" lon="116.46647356068861">
        <ele>41.07141816616058</ele>
        <time>2026-09-08T00:04:14Z</time>
      </trkpt>
      <trkpt lat="39.9008807860857" lon="116.46654667781209">
        <ele>41.26612864714116</ele>
        <time>2026-09-08T00:04:18Z</time>
      </trkpt>
      <trkpt lat="39.900808508066845" lon="116.46656686654887">
        <ele>41.37835927028209</ele>
        <time>2026-09-08T00:04:22Z</time>
      </trkpt>
      <trkpt lat="39.90063403385715" lon="116.46670824305876">
        <ele>40.47119450196624</ele>
        <time>2026-09-08T00:04:34Z</time>
      </trkpt>
      <trkpt lat="39.90055490965784" lon="116.46674991055288">
        <ele>40.10270939115435</ele>
        <time>2026-09-08T00:04:38Z</time>
      </trkpt>
      <trkpt lat="39.9004052390292" lon="116.46677295693125">
        <ele>40.386748703196645</ele>
        <time>2026-09-08T00:04:46Z</time>
      </trkpt>
      <trkpt lat="39.90013249420516" lon="116.46670558858995">
        <ele>38.556419557891786</ele>
        <time>2026-09-08T00:05:02Z</time>
      </trkpt>
      <trkpt lat="39.90000153639715" lon="116.46668127503808">
        <ele>38.04856377840042</ele>
        <time>2026-09-08T00:05:10Z</time>
      </trkpt>
      <trkpt lat="39.89992431045509" lon="116.46662473764916">
        <ele>39.33375875558704</ele>
        <time>2026-09-08T00:05:14Z</time>
      </trkpt>
      <trkpt lat="39.89990415573064" lon="116.46655343340747">
        <ele>39.009265115484595</ele>
        <time>2026-09-08T00:05:18Z</time>
      </trkpt>
      <trkpt lat="39.89985232988954" lon="116.46649528596404">
        <ele>38.48468068707734</ele>
        <time>2026-09-08T00:05:26Z</time>
      </trkpt>
      <trkpt lat="39.89973625191156" lon="116.46647979141285">
        <ele>39.68621796090156</ele>
        <time>2026-09-08T00:05:34Z</time>
      </trkpt>
      <trkpt lat="39.8995743853524" lon="116.46650162280176">
        <ele>39.898508347570896</ele>
        <time>2026-09-08T00:05:42Z</time>
      </trkpt>
      <trkpt lat="39.899528340447624" lon="116.46653003405184">
        <ele>40.43909529596567</ele>
        <time>2026-09-08T00:05:50Z</time>
      </trkpt>
      <trkpt lat="39.89936001498187" lon="116.46646801336843">
        <ele>38.280370492488146</ele>
        <time>2026-09-08T00:06:10Z</time>
      </trkpt>
      <trkpt lat="39.899336761425154" lon="116.46640582760953">
        <ele>38.62412111554295</ele>
        <time>2026-09-08T00:06:30Z</time>
      </trkpt>
      <trkpt lat="39.899272813881204" lon="116.46643386674269">
        <ele>39.36009948514402</ele>
        <time>2026-09-08T00:06:34Z</time>
      </trkpt>
      <trkpt lat="39.899237785835844" lon="116.46648780389792">
        <ele>40.116287583485246</ele>
        <time>2026-09-08T00:06:38Z</time>
      </trkpt>
      <trkpt lat="39.89922090919198" lon="116.46657816886727">
        <ele>39.63237118348479</ele>
        <time>2026-09-08T00:06:42Z</time>
      </trkpt>
      <trkpt lat="39.89913771828957" lon="116.46662282891157">
        <ele>39.215898701921105</ele>
        <time>2026-09-08T00:06:46Z</time>
      </trkpt>
      <trkpt lat="39.89889173227383" lon="116.46659439641356">
        <ele>39.55518731940538</ele>
        <time>2026-09-08T00:06:58Z</time>
      </trkpt>
      <trkpt lat="39.89864275807766" lon="116.46662358011992">
        <ele>40.542443476617336</ele>
        <time>2026-09-08T00:07:10Z</time>
      </trkpt>
      <trkpt lat="39.89856064086621" lon="116.46658827374728">
        <ele>40.847586433403194</ele>
        <time>2026-09-08T00:07:14Z</time>
      </trkpt>
      <trkpt lat="39.898475112473974" lon="116.4666138951479">
        <ele>39.88131005875766</ele>
        <time>2026-09-08T00:07:18Z</time>
      </trkpt>
      <trkpt lat="39.89817802882583" lon="116.46658413752932">
        <ele>40.430805754847825</ele>
        <time>2026-09-08T00:07:38Z</time>
      </trkpt>
      <trkpt lat="39.89803066717953" lon="116.46657687066237">
        <ele>41.53645323961973</ele>
        <time>2026-09-08T00:07:54Z</time>
      </trkpt>
      <trkpt lat="39.89794424422791" lon="116.46659586161942">
        <ele>41.2563298093155</ele>
        <time>2026-09-08T00:08:02Z</time>
      </trkpt>
      <trkpt lat="39.89773971285086" lon="116.46651053023876">
        <ele>40.35244990326464</ele>
        <time>2026-09-08T00:08:17Z</time>
      </trkpt>
      <trkpt lat="39.89757891963268" lon="116.4665312237029">
        <ele>40.56601658463478</ele>
        <time>2026-09-08T00:08:29Z</time>
      </trkpt>
      <trkpt lat="39.89752828899309" lon="116.46656640593207">
        <ele>41.48431543260813</ele>
        <time>2026-09-08T00:08:33Z</time>
      </trkpt>
      <trkpt lat="39.89745584031521" lon="116.46656728640613">
        <ele>41.353400009684265</ele>
        <time>2026-09-08T00:08:37Z</time>
      </trkpt>
      <trkpt lat="39.897402269361365" lon="116.46660887989843">
        <ele>39.8338542804122</ele>
        <time>2026-09-08T00:08:41Z</time>
      </trkpt>
      <trkpt lat="39.89723225257066" lon="116.46661597359287">
        <ele>39.380356225185096</ele>
        <time>2026-09-08T00:08:49Z</time>
      </trkpt>
      <trkpt lat="39.89715401890723" lon="116.4665601375879">
        <ele>40.70231344830245</ele>
        <time>2026-09-08T00:08:53Z</time>
      </trkpt>
      <trkpt lat="39.89704467067264" lon="116.46660955660562">
        <ele>40.392326075583696</ele>
        <time>2026-09-08T00:08:57Z</time>
      </trkpt>
      <trkpt lat="39.896967242911956" lon="116.46660919747298">
        <ele>40.67264366708696</ele>
        <time>2026-09-08T00:09:01Z</time>
      </trkpt>
      <trkpt lat="39.89692493415638" lon="116.46664920309473">
        <ele>39.3369930498302</ele>
        <time>2026-09-08T00:09:05Z</time>
      </trkpt>
      <trkpt lat="39.89672998271122" lon="116.4666316500065">
        <ele>39.42524743359536</ele>
        <time>2026-09-08T00:09:17Z</time>
      </trkpt>
      <trkpt lat="39.89667129370692" lon="116.46655437418669">
        <ele>39.91629390511662</ele>
        <time>2026-09-08T00:09:21Z</time>
      </trkpt>
      <trkpt lat="39.896576179658204" lon="116.46666312913278">
        <ele>38.61551367584616</ele>
        <time>2026-09-08T00:09:25Z</time>
      </trkpt>
      <trkpt lat="39.896420361384045" lon="116.46657669242535">
        <ele>40.56957508530468</ele>
        <time>2026-09-08T00:09:33Z</time>
      </trkpt>
      <trkpt lat="39.89617068897011" lon="116.46656892154105">
        <ele>40.23580261040479</ele>
        <time>2026-09-08T00:09:45Z</time>
      </trkpt>
      <trkpt lat="39.896017528698245" lon="116.46654217379862">
        <ele>39.24106251914054</ele>
        <time>2026-09-08T00:09:57Z</time>
      </trkpt>
      <trkpt lat="39.89606322255914" lon="116.46651977967824">
        <ele>39.35336258262396</ele>
        <time>2026-09-08T00:10:09Z</time>
      </trkpt>
      <trkpt lat="39.89601897299142" lon="116.46653379830877">
        <ele>38.66026320401579</ele>
        <time>2026-09-08T00:10:40Z</time>
      </trkpt>
      <trkpt lat="39.89568924348881" lon="116.46654400155089">
        <ele>42.516469011083245</ele>
        <time>2026-09-08T00:11:08Z</time>
      </trkpt>
      <trkpt lat="39.89538508111056" lon="116.46650542336744">
        <ele>38.732539034448564</ele>
        <time>2026-09-08T00:11:20Z</time>
      </trkpt>
      <trkpt lat="39.89522222174736" lon="116.46648151917937">
        <ele>38.02520828600973</ele>
        <time>2026-09-08T00:11:28Z</time>
      </trkpt>
      <trkpt lat="39.895083993419824" lon="116.46651666505659">
        <ele>38.79530300106853</ele>
        <time>2026-09-08T00:11:36Z</time>
      </trkpt>
      <trkpt lat="39.89499202956355" lon="116.46649386990248">
        <ele>39.34420354478061</ele>
        <time>2026-09-08T00:11:40Z</time>
      </trkpt>
      <trkpt lat="39.89478131919035" lon="116.46651559986736">
        <ele>39.530306744389236</ele>
        <time>2026-09-08T00:11:52Z</time>
      </trkpt>
      <trkpt lat="39.89462757366394" lon="116.46648840158319">
        <ele>40.161258114501834</ele>
        <time>2026-09-08T00:12:00Z</time>
      </trkpt>
      <trkpt lat="39.894453385448735" lon="116.4665033449276">
        <ele>38.006060253828764</ele>
        <time>2026-09-08T00:12:08Z</time>
      </trkpt>
      <trkpt lat="39.89438234462062" lon="116.4664797586375">
        <ele>37.177673963829875</ele>
        <time>2026-09-08T00:12:12Z</time>
      </trkpt>
      <trkpt lat="39.89435408887995" lon="116.46642451727307">
        <ele>38.55305361747742</ele>
        <time>2026-09-08T00:12:16Z</time>
      </trkpt>
      <trkpt lat="39.89433727684886" lon="116.46632905184691">
        <ele>38.9412387246266</ele>
        <time>2026-09-08T00:12:22Z</time>
      </trkpt>
      <trkpt lat="39.89429174925494" lon="116.46626839271053">
        <ele>39.33724090550095</ele>
        <time>2026-09-08T00:12:28Z</time>
      </trkpt>
      <trkpt lat="39.89404668063279" lon="116.46624065597396">
        <ele>39.12314094044268</ele>
        <time>2026-09-08T00:12:52Z</time>
      </trkpt>
      <trkpt lat="39.89397174468517" lon="116.46621669474453">
        <ele>38.23287693038583</ele>
        <time>2026-09-08T00:12:58Z</time>
      </trkpt>
      <trkpt lat="39.89392531397372" lon="116.46616613744968">
        <ele>38.80831210222095</ele>
        <time>2026-09-08T00:13:08Z</time>
      </trkpt>
      <trkpt lat="39.89397371121774" lon="116.46615999641323">
        <ele>38.63087201397866</ele>
        <time>2026-09-08T00:13:16Z</time>
      </trkpt>
      <trkpt lat="39.894083704885645" lon="116.46607526181673">
        <ele>38.7806873973459</ele>
        <time>2026-09-08T00:13:28Z</time>
      </trkpt>
      <trkpt lat="39.89410337495881" lon="116.4660255227466">
        <ele>39.31481374707073</ele>
        <time>2026-09-08T00:13:32Z</time>
      </trkpt>
    </trkseg>
  </trk>
</gpx>