<?xml version="1.0" encoding="UTF-8"?>
<gpx xmlns="http://www.topografix.com/GPX/1/1" xmlns:gpxtpx="http://www.garmin.com/xmlschemas/TrackPointExtension/v1" xmlns:xsi="http://www.w3.org/2001/XMLSchema-instance" xsi:schemaLocation="http://www.topografix.com/GPX/1/1 http://www.topografix.com/GPX/1/1/gpx.xsd" version="1.1" creator="gpx.py -- https://github.com/tkrajina/gpxpy">
  <trk>
    <name>gpx from keep</name>
    <type>Run</type>
    <trkseg>
      <trkpt lat="39.893807024864245" lon="116.4633853250814">
        <ele>39.75000273901969</ele>
        <time>2026-07-18T11:32:56Z</time>
      </trkpt>
      <trkpt lat="39.89372595242225" lon="116.46326738894992">
        <ele>39.617314690724015</ele>
        <time>2026-07-18T11:33:08Z</time>
      </trkpt>
      <trkpt lat="39.89376905153925" lon="116.4631784609762">
        <ele>38.90895339939743</ele>
        <time>2026-07-18T11:33:14Z</time>
      </trkpt>
      <trkpt lat="39.893831582938525" lon="116.46313485354099">
        <ele>38.60409889742732</ele>
        <time>2026-07-18T11:33:20Z</time>
      </trkpt>
      <trkpt lat="39.893901108332" lon="116.46318561814">
        <ele>40.209251378662884</ele>
        <time>2026-07-18T11:33:29Z</time>
      </trkpt>
      <trkpt lat="39.89390886774491" lon="116.46362452481792">
        <ele>40.0099099772051</ele>
        <time>2026-07-18T11:33:59Z</time>
      </trkpt>
      <trkpt lat="39.893918473926256" lon="116.46398819487534">
        <ele>39.712136747315526</ele>
        <time>2026-07-18T11:34:25Z</time>
      </trkpt>
      <trkpt lat="39.89394679849449" lon="116.46430066050898">
        <ele>40.30482155364007</ele>
        <time>2026-07-18T11:34:45Z</time>
      </trkpt>
      <trkpt lat="39.89405435921051" lon="116.46464839393238">
        <ele>38.63233860209584</ele>
        <time>2026-07-18T11:35:03Z</time>
      </trkpt>
      <trkpt lat="39.894099869892926" lon="116.46491196262912">
        <ele>39.305112143047154</ele>
        <time>2026-07-18T11:35:12Z</time>
      </trkpt>
      <trkpt lat="39.89418118550148" lon="116.4650630638155">
        <ele>39.373530882410705</ele>
        <time>2026-07-18T11:35:18Z</time>
      </trkpt>
      <trkpt lat="39.89418032816356" lon="116.46523711919085">
        <ele>40.17086935136467</ele>
        <time>2026-07-18T11:35:24Z</time>
      </trkpt>
      <trkpt lat="39.89420836272258" lon="116.46529836353457">
        <ele>40.1425265353173</ele>
        <time>2026-07-18T11:35:27Z</time>
      </trkpt>
      <trkpt lat="39.894230095657086" lon="116.46545277623073">
        <ele>39.97732348181307</ele>
        <time>2026-07-18T11:35:33Z</time>
      </trkpt>
      <trkpt lat="39.89425866649906" lon="116.46550943538284">
        <ele>40.76258257962763</ele>
        <time>2026-07-18T11:35:36Z</time>
      </trkpt>
      <trkpt lat="39.89429350969478" lon="116.46572871607125">
        <ele>39.8992811050266</ele>
        <time>2026-07-18T11:35:45Z</time>
      </trkpt>
      <trkpt lat="39.89436791046491" lon="116.46609673423586">
        <ele>39.32540243957192</ele>
        <time>2026-07-18T11:36:00Z</time>
      </trkpt>
      <trkpt lat="39.8944355018894" lon="116.46635279082857">
        <ele>38.937342301011086</ele>
        <time>2026-07-18T11:36:12Z</time>
      </trkpt>
      <trkpt lat="39.89451193653633" lon="116.46643746496929">
        <ele>39.031522599980235</ele>
        <time>2026-07-18T11:36:18Z</time>
      </trkpt>
      <trkpt lat="39.89466898107836" lon="116.46648753671403">
        <ele>39.76139465998858</ele>
        <time>2026-07-18T11:36:28Z</time>
      </trkpt>
      <trkpt lat="39.89490474821258" lon="116.46649454176436">
        <ele>38.11885174922645</ele>
        <time>2026-07-18T11:36:40Z</time>
      </trkpt>
      <trkpt lat="39.8950906984035" lon="116.46647779904274">
        <ele>39.29713558778167</ele>
        <time>2026-07-18T11:36:49Z</time>
      </trkpt>
      <trkpt lat="39.89514633074284" lon="116.46650970308895">
        <ele>38.93691783491522</ele>
        <time>2026-07-18T11:36:52Z</time>
      </trkpt>
      <trkpt lat="39.89528192946509" lon="116.46646185684602">
        <ele>39.18824931234121</ele>
        <time>2026-07-18T11:36:58Z</time>
      </trkpt>
      <trkpt lat="39.89556412348113" lon="116.46646637248627">
        <ele>39.231557194143534</ele>
        <time>2026-07-18T11:37:13Z</time>
      </trkpt>
      <trkpt lat="39.89567774748524" lon="116.46645701526293">
        <ele>38.528469091281295</ele>
        <time>2026-07-18T11:37:19Z</time>
      </trkpt>
      <trkpt lat="39.89573446642435" lon="116.466560724927">
        <ele>39.49958558380604</ele>
        <time>2026-07-18T11:37:25Z</time>
      </trkpt>
      <trkpt lat="39.89571917220044" lon="116.46674136140707">
        <ele>38.540955094620585</ele>
        <time>2026-07-18T11:37:34Z</time>
      </trkpt>
      <trkpt lat="39.89568866306739" lon="116.46680005548157">
        <ele>38.6373386522755</ele>
        <time>2026-07-18T11:37:40Z</time>
      </trkpt>
      <trkpt lat="39.895735165814365" lon="116.46677741992696">
        <ele>39.476077859289944</ele>
        <time>2026-07-18T11:37:55Z</time>
      </trkpt>
      <trkpt lat="39.89596716928167" lon="116.46676410482058">
        <ele>38.89686647988856</ele>
        <time>2026-07-18T11:38:04Z</time>
      </trkpt>
      <trkpt lat="39.8961154886718" lon="116.46679492078005">
        <ele>38.79805704392493</ele>
        <time>2026-07-18T11:38:10Z</time>
      </trkpt>
      <trkpt lat="39.89646270512031" lon="116.46677009940686">
        <ele>39.45977631304413</ele>
        <time>2026-07-18T11:38:28Z</time>
      </trkpt>
      <trkpt lat="39.89675600445746" lon="116.46678193677359">
        <ele>40.567022169940174</ele>
        <time>2026-07-18T11:38:44Z</time>
      </trkpt>
      <trkpt lat="39.89681646794543" lon="116.46677263564197">
        <ele>39.43145984970033</ele>
        <time>2026-07-18T11:38:48Z</time>
      </trkpt>
      <trkpt lat="39.89690821154572" lon="116.46679056508093">
        <ele>39.34063400235027</ele>
        <time>2026-07-18T11:38:52Z</time>
      </trkpt>
      <trkpt lat="39.896983835188585" lon="116.46678388061147">
        <ele>40.40371677838266</ele>
        <time>2026-07-18T11:38:56Z</time>
      </trkpt>
      <trkpt lat="39.89721675577026" lon="116.46680944943793">
        <ele>40.69764461647719</ele>
        <time>2026-07-18T11:39:08Z</time>
      </trkpt>
      <trkpt lat="39.897489615101634" lon="116.46678709850849">
        <ele>40.88621009606868</ele>
        <time>2026-07-18T11:39:23Z</time>
      </trkpt>
      <trkpt lat="39.89780946223267" lon="116.46676804799995">
        <ele>41.57988605555147</ele>
        <time>2026-07-18T11:39:41Z</time>
      </trkpt>
      <trkpt lat="39.897872285423254" lon="116.46676629435956">
        <ele>41.26420994102955</ele>
        <time>2026-07-18T11:39:44Z</time>
      </trkpt>
      <trkpt lat="39.897918971873736" lon="116.46679598952852">
        <ele>40.424874435178936</ele>
        <time>2026-07-18T11:39:47Z</time>
      </trkpt>
      <trkpt lat="39.89804577188265" lon="116.46681092728933">
        <ele>40.80333087686449</ele>
        <time>2026-07-18T11:39:56Z</time>
      </trkpt>
      <trkpt lat="39.89821410267982" lon="116.46679339743771">
        <ele>41.59415071643889</ele>
        <time>2026-07-18T11:40:08Z</time>
      </trkpt>
      <trkpt lat="39.89851179021573" lon="116.4668392651436">
        <ele>41.0504848184064</ele>
        <time>2026-07-18T11:40:32Z</time>
      </trkpt>
      <trkpt lat="39.89872707896205" lon="116.46692254605155">
        <ele>39.80948981270194</ele>
        <time>2026-07-18T11:40:50Z</time>
      </trkpt>
      <trkpt lat="39.89877381447229" lon="116.46691737133871">
        <ele>40.01507225073874</ele>
        <time>2026-07-18T11:40:54Z</time>
      </trkpt>
      <trkpt lat="39.898822888668725" lon="116.4668853476957">
        <ele>39.53127372730523</ele>
        <time>2026-07-18T11:40:58Z</time>
      </trkpt>
      <trkpt lat="39.898879187938725" lon="116.4668979134389">
        <ele>39.69403201062232</ele>
        <time>2026-07-18T11:41:02Z</time>
      </trkpt>
      <trkpt lat="39.89895110882983" lon="116.46687481944434">
        <ele>39.953713772818446</ele>
        <time>2026-07-18T11:41:06Z</time>
      </trkpt>
      <trkpt lat="39.899194351402556" lon="116.46689013227001">
        <ele>39.13136147335172</ele>
        <time>2026-07-18T11:41:18Z</time>
      </trkpt>
      <trkpt lat="39.89931172784129" lon="116.46684348732775">
        <ele>39.49591651465744</ele>
        <time>2026-07-18T11:41:24Z</time>
      </trkpt>
      <trkpt lat="39.89935136924405" lon="116.46677574601033">
        <ele>39.649091221392155</ele>
        <time>2026-07-18T11:41:27Z</time>
      </trkpt>
      <trkpt lat="39.89939210769367" lon="116.46663159464359">
        <ele>39.53490144666284</ele>
        <time>2026-07-18T11:41:33Z</time>
      </trkpt>
      <trkpt lat="39.89964889223559" lon="116.46649681827066">
        <ele>37.96053281612694</ele>
        <time>2026-07-18T11:41:54Z</time>
      </trkpt>
      <trkpt lat="39.899689727341816" lon="116.46646434456105">
        <ele>38.34811710100621</ele>
        <time>2026-07-18T11:42:00Z</time>
      </trkpt>
      <trkpt lat="39.89967237489463" lon="116.46651915099788">
        <ele>39.01039147563279</ele>
        <time>2026-07-18T11:42:04Z</time>
      </trkpt>
      <trkpt lat="39.89984918160772" lon="116.46659173856345">
        <ele>39.47378243971616</ele>
        <time>2026-07-18T11:42:07Z</time>
      </trkpt>
      <trkpt lat="39.899951877299216" lon="116.466728000948">
        <ele>39.70732870232314</ele>
        <time>2026-07-18T11:42:13Z</time>
      </trkpt>
      <trkpt lat="39.90024247980028" lon="116.46673746869706">
        <ele>40.5861916448921</ele>
        <time>2026-07-18T11:42:25Z</time>
      </trkpt>
      <trkpt lat="39.90051376205313" lon="116.46680707281128">
        <ele>39.98192785028368</ele>
        <time>2026-07-18T11:42:37Z</time>
      </trkpt>
      <trkpt lat="39.900630461739915" lon="116.4667645450343">
        <ele>39.794740565121174</ele>
        <time>2026-07-18T11:42:43Z</time>
      </trkpt>
      <trkpt lat="39.90070766488223" lon="116.46671056760357">
        <ele>40.13794932514429</ele>
        <time>2026-07-18T11:42:47Z</time>
      </trkpt>
      <trkpt lat="39.900769957836054" lon="116.46662869943812">
        <ele>39.75375952012837</ele>
        <time>2026-07-18T11:42:51Z</time>
      </trkpt>
      <trkpt lat="39.900922426514974" lon="116.4665093294468">
        <ele>39.46368903107941</ele>
        <time>2026-07-18T11:42:59Z</time>
      </trkpt>
      <trkpt lat="39.901237890903005" lon="116.46643129441318">
        <ele>41.48773274384439</ele>
        <time>2026-07-18T11:43:15Z</time>
      </trkpt>
      <trkpt lat="39.901476106900304" lon="116.46639011697687">
        <ele>40.07277961540967</ele>
        <time>2026-07-18T11:43:27Z</time>
      </trkpt>
      <trkpt lat="39.901534361416324" lon="116.46633517822573">
        <ele>39.99550408497453</ele>
        <time>2026-07-18T11:43:31Z</time>
      </trkpt>
      <trkpt lat="39.90171145777821" lon="116.46646183678843">
        <ele>40.492396738380194</ele>
        <time>2026-07-18T11:43:39Z</time>
      </trkpt>
      <trkpt lat="39.90200639746618" lon="116.46648237919698">
        <ele>40.11046931613237</ele>
        <time>2026-07-18T11:43:54Z</time>
      </trkpt>
      <trkpt lat="39.902165211398284" lon="116.46646866057368">
        <ele>38.99923277273774</ele>
        <time>2026-07-18T11:44:03Z</time>
      </trkpt>
      <trkpt lat="39.90227859927496" lon="116.4664181754706">
        <ele>39.99026330374181</ele>
        <time>2026-07-18T11:44:09Z</time>
      </trkpt>
      <trkpt lat="39.90257242707273" lon="116.46638992600673">
        <ele>39.090230074711144</ele>
        <time>2026-07-18T11:44:24Z</time>
      </trkpt>
      <trkpt lat="39.902777238034695" lon="116.46639086849405">
        <ele>37.455213736742735</ele>
        <time>2026-07-18T11:44:36Z</time>
      </trkpt>
      <trkpt lat="39.90283401170287" lon="116.46641043694396">
        <ele>38.33971306309104</ele>
        <time>2026-07-18T11:44:39Z</time>
      </trkpt>
      <trkpt lat="39.90287328138611" lon="116.46645888630664">
        <ele>38.92355237714946</ele>
        <time>2026-07-18T11:44:42Z</time>
      </trkpt>
      <trkpt lat="39.90295049413003" lon="116.46683583319388">
        <ele>36.01873202063143</ele>
        <time>2026-07-18T11:45:00Z</time>
      </trkpt>
      <trkpt lat="39.9030046209592" lon="116.46695802153506">
        <ele>37.13212921842933</ele>
        <time>2026-07-18T11:45:08Z</time>
      </trkpt>
      <trkpt lat="39.90305135743432" lon="116.46712012449404">
        <ele>38.165369883179665</ele>
        <time>2026-07-18T11:45:16Z</time>
      </trkpt>
      <trkpt lat="39.90305259198007" lon="116.46755923630211">
        <ele>38.71582448575646</ele>
        <time>2026-07-18T11:45:32Z</time>
      </trkpt>
      <trkpt lat="39.90305138677301" lon="116.46795913388736">
        <ele>37.55113070458174</ele>
        <time>2026-07-18T11:45:48Z</time>
      </trkpt>
      <trkpt lat="39.90306004860417" lon="116.46836693218532">
        <ele>37.927732061594725</ele>
        <time>2026-07-18T11:46:04Z</time>
      </trkpt>
      <trkpt lat="39.90307753984822" lon="116.4687843334322">
        <ele>38.53746682778001</ele>
        <time>2026-07-18T11:46:21Z</time>
      </trkpt>
      <trkpt lat="39.90309882755838" lon="116.46893617955854">
        <ele>39.323023879900575</ele>
        <time>2026-07-18T11:46:27Z</time>
      </trkpt>
      <trkpt lat="39.903087139552575" lon="116.46932586161456">
        <ele>38.47604058776051</ele>
        <time>2026-07-18T11:46:42Z</time>
      </trkpt>
      <trkpt lat="39.90309990867969" lon="116.46969003030105">
        <ele>39.49319836497307</ele>
        <time>2026-07-18T11:46:58Z</time>
      </trkpt>
      <trkpt lat="39.903097399577675" lon="116.47014499664846">
        <ele>38.82044826634228</ele>
        <time>2026-07-18T11:47:14Z</time>
      </trkpt>
      <trkpt lat="39.903120949891324" lon="116.4705880644446">
        <ele>38.11854249984026</ele>
        <time>2026-07-18T11:47:34Z</time>
      </trkpt>
      <trkpt lat="39.90312715297602" lon="116.47093364006685">
        <ele>38.01749202143401</ele>
        <time>2026-07-18T11:47:58Z</time>
      </trkpt>
      <trkpt lat="39.90314349845177" lon="116.47136494420702">
        <ele>39.00678689125925</ele>
        <time>2026-07-18T11:48:38Z</time>
      </trkpt>
      <trkpt lat="39.9031770042758" lon="116.47166597590139">
        <ele>39.49355182237923</ele>
        <time>2026-07-18T11:48:54Z</time>
      </trkpt>
      <trkpt lat="39.903139005857305" lon="116.47172011368177">
        <ele>39.41255612485111</ele>
        <time>2026-07-18T11:48:58Z</time>
      </trkpt>
      <trkpt lat="39.90316975879091" lon="116.4718773963972">
        <ele>39.04772611428052</ele>
        <time>2026-07-18T11:49:02Z</time>
      </trkpt>
      <trkpt lat="39.90312381710534" lon="116.47202793613015">
        <ele>38.91706230118871</ele>
        <time>2026-07-18T11:49:05Z</time>
      </trkpt>
      <trkpt lat="39.903102423529646" lon="116.47241057303496">
        <ele>39.098469354212284</ele>
        <time>2026-07-18T11:49:20Z</time>
      </trkpt>
      <trkpt lat="39.903072347154804" lon="116.47280125366461">
        <ele>39.01990805566311</ele>
        <time>2026-07-18T11:49:35Z</time>
      </trkpt>
      <trkpt lat="39.903024718329185" lon="116.47316930124236">
        <ele>38.296764988452196</ele>
        <time>2026-07-18T11:49:50Z</time>
      </trkpt>
      <trkpt lat="39.90297702588595" lon="116.47353986158302">
        <ele>38.48915605712682</ele>
        <time>2026-07-18T11:50:05Z</time>
      </trkpt>
      <trkpt lat="39.90292326556241" lon="116.47390887037277">
        <ele>38.707937884144485</ele>
        <time>2026-07-18T11:50:20Z</time>
      </trkpt>
      <trkpt lat="39.902876711215555" lon="116.47429104488081">
        <ele>38.68573436886072</ele>
        <time>2026-07-18T11:50:35Z</time>
      </trkpt>
      <trkpt lat="39.902818113732344" lon="116.47466357683817">
        <ele>37.65790362935513</ele>
        <time>2026-07-18T11:50:50Z</time>
      </trkpt>
      <trkpt lat="39.90278072914735" lon="116.47505976603988">
        <ele>37.069088467396796</ele>
        <time>2026-07-18T11:51:12Z</time>
      </trkpt>
      <trkpt lat="39.90273594144424" lon="116.47548173767979">
        <ele>36.081084934063256</ele>
        <time>2026-07-18T11:51:30Z</time>
      </trkpt>
      <trkpt lat="39.902724167102676" lon="116.47554966962451">
        <ele>35.75467045046389</ele>
        <time>2026-07-18T11:51:33Z</time>
      </trkpt>
      <trkpt lat="39.90273552790572" lon="116.47567470854868">
        <ele>36.16191174928099</ele>
        <time>2026-07-18T11:51:39Z</time>
      </trkpt>
      <trkpt lat="39.90273095107269" lon="116.47604282641821">
        <ele>33.690293974243104</ele>
        <time>2026-07-18T11:51:54Z</time>
      </trkpt>
      <trkpt lat="39.90275804217931" lon="116.47612262732456">
        <ele>34.26718715950847</ele>
        <time>2026-07-18T11:51:57Z</time>
      </trkpt>
      <trkpt lat="39.90274692331665" lon="116.47619299120254">
        <ele>34.467225106433034</ele>
        <time>2026-07-18T11:52:00Z</time>
      </trkpt>
      <trkpt lat="39.902788523065915" lon="116.47656379910858">
        <ele>36.03142684046179</ele>
        <time>2026-07-18T11:52:15Z</time>
      </trkpt>
      <trkpt lat="39.90284038826724" lon="116.47687056196591">
        <ele>36.404709306545556</ele>
        <time>2026-07-18T11:52:27Z</time>
      </trkpt>
      <trkpt lat="39.902907091657994" lon="116.47701715808368">
        <ele>36.98969250358641</ele>
        <time>2026-07-18T11:52:33Z</time>
      </trkpt>
      <trkpt lat="39.90297859328351" lon="116.47740039426772">
        <ele>35.15617989934981</ele>
        <time>2026-07-18T11:52:48Z</time>
      </trkpt>
      <trkpt lat="39.9030625783588" lon="116.47782150809977">
        <ele>35.61133558489382</ele>
        <time>2026-07-18T11:53:09Z</time>
      </trkpt>
      <trkpt lat="39.903161198730146" lon="116.47823365228656">
        <ele>36.652127982117236</ele>
        <time>2026-07-18T11:53:28Z</time>
      </trkpt>
      <trkpt lat="39.90324723932601" lon="116.47860495065281">
        <ele>36.914722019806504</ele>
        <time>2026-07-18T11:53:43Z</time>
      </trkpt>
      <trkpt lat="39.903328033912636" lon="116.47896975471788">
        <ele>37.59486232418567</ele>
        <time>2026-07-18T11:53:58Z</time>
      </trkpt>
      <trkpt lat="39.9034034266278" lon="116.47931239640408">
        <ele>36.150788315571845</ele>
        <time>2026-07-18T11:54:13Z</time>
      </trkpt>
      <trkpt lat="39.90348497548731" lon="116.47969146742243">
        <ele>36.822425954043865</ele>
        <time>2026-07-18T11:54:28Z</time>
      </trkpt>
      <trkpt lat="39.90357289611024" lon="116.48006950859677">
        <ele>36.57154341042042</ele>
        <time>2026-07-18T11:54:43Z</time>
      </trkpt>
      <trkpt lat="39.903642862458206" lon="116.48041857578384">
        <ele>36.882460228167474</ele>
        <time>2026-07-18T11:54:58Z</time>
      </trkpt>
      <trkpt lat="39.90366373492602" lon="116.48049437295575">
        <ele>36.59667500574142</ele>
        <time>2026-07-18T11:55:01Z</time>
      </trkpt>
      <trkpt lat="39.90366374936147" lon="116.48056348631658">
        <ele>35.84914927743375</ele>
        <time>2026-07-18T11:55:04Z</time>
      </trkpt>
      <trkpt lat="39.903707195413105" lon="116.48063728299493">
        <ele>35.15498370677233</ele>
        <time>2026-07-18T11:55:07Z</time>
      </trkpt>
      <trkpt lat="39.90373547093194" lon="116.48089239914009">
        <ele>37.02600705437362</ele>
        <time>2026-07-18T11:55:23Z</time>
      </trkpt>
      <trkpt lat="39.90371443872329" lon="116.48095140773898">
        <ele>36.969463867135346</ele>
        <time>2026-07-18T11:55:26Z</time>
      </trkpt>
      <trkpt lat="39.90376339060921" lon="116.48099473459499">
        <ele>37.65886815544218</ele>
        <time>2026-07-18T11:55:32Z</time>
      </trkpt>
      <trkpt lat="39.90383006953788" lon="116.48134928560341">
        <ele>36.06661665998399</ele>
        <time>2026-07-18T11:55:56Z</time>
      </trkpt>
      <trkpt lat="39.90386413131416" lon="116.48144317291327">
        <ele>37.57310775574297</ele>
        <time>2026-07-18T11:56:02Z</time>
      </trkpt>
      <trkpt lat="39.9039050914541" lon="116.48181610823924">
        <ele>36.77860925998539</ele>
        <time>2026-07-18T11:56:26Z</time>
      </trkpt>
      <trkpt lat="39.90392307510782" lon="116.48199571639907">
        <ele>38.217080562375486</ele>
        <time>2026-07-18T11:56:38Z</time>
      </trkpt>
      <trkpt lat="39.903922602359124" lon="116.48192751508213">
        <ele>37.346696838736534</ele>
        <time>2026-07-18T11:56:53Z</time>
      </trkpt>
      <trkpt lat="39.90389660573912" lon="116.48187387867314">
        <ele>37.6996111581102</ele>
        <time>2026-07-18T11:57:14Z</time>
      </trkpt>
      <trkpt lat="39.90385971974341" lon="116.4815368185012">
        <ele>37.4130530282855</ele>
        <time>2026-07-18T11:57:31Z</time>
      </trkpt>
      <trkpt lat="39.90380404150662" lon="116.48128361012662">
        <ele>36.626383227296174</ele>
        <time>2026-07-18T11:57:39Z</time>
      </trkpt>
      <trkpt lat="39.903804450137336" lon="116.4812181975167">
        <ele>36.719522253610194</ele>
        <time>2026-07-18T11:57:42Z</time>
      </trkpt>
      <trkpt lat="39.903726804916126" lon="116.48084761325568">
        <ele>36.99410308524966</ele>
        <time>2026-07-18T11:57:54Z</time>
      </trkpt>
      <trkpt lat="39.903663186448824" lon="116.48054543809877">
        <ele>37.63893805257976</ele>
        <time>2026-07-18T11:58:06Z</time>
      </trkpt>
      <trkpt lat="39.903662141036236" lon="116.48042812130001">
        <ele>32.119004249572754</ele>
        <time>2026-07-18T11:58:21Z</time>
      </trkpt>
      <trkpt lat="39.903597036633954" lon="116.48026047905681">
        <ele>37.738335302099586</ele>
        <time>2026-07-18T11:58:24Z</time>
      </trkpt>
      <trkpt lat="39.90358686961461" lon="116.48015308076657">
        <ele>37.41820450220257</ele>
        <time>2026-07-18T11:58:27Z</time>
      </trkpt>
      <trkpt lat="39.90347301085478" lon="116.47972401330402">
        <ele>37.595343340188265</ele>
        <time>2026-07-18T11:58:39Z</time>
      </trkpt>
      <trkpt lat="39.90339056260278" lon="116.47931198725153">
        <ele>36.46259878017008</ele>
        <time>2026-07-18T11:58:51Z</time>
      </trkpt>
      <trkpt lat="39.903310462442384" lon="116.47897109536417">
        <ele>36.7869662810117</ele>
        <time>2026-07-18T11:59:03Z</time>
      </trkpt>
      <trkpt lat="39.903269379362776" lon="116.47880060733172">
        <ele>37.4145594984293</ele>
        <time>2026-07-18T11:59:09Z</time>
      </trkpt>
      <trkpt lat="39.903226215573724" lon="116.47870297295798">
        <ele>37.93944605439901</ele>
        <time>2026-07-18T11:59:12Z</time>
      </trkpt>
      <trkpt lat="39.903224985038364" lon="116.47862115375393">
        <ele>36.97286684066057</ele>
        <time>2026-07-18T11:59:15Z</time>
      </trkpt>
      <trkpt lat="39.903188261784905" lon="116.47840886419574">
        <ele>37.13975025899708</ele>
        <time>2026-07-18T11:59:21Z</time>
      </trkpt>
      <trkpt lat="39.90313661838199" lon="116.47828219178133">
        <ele>36.868732328526676</ele>
        <time>2026-07-18T11:59:24Z</time>
      </trkpt>
      <trkpt lat="39.9030830214835" lon="116.47798505656667">
        <ele>36.880624546669424</ele>
        <time>2026-07-18T11:59:34Z</time>
      </trkpt>
      <trkpt lat="39.90305153099073" lon="116.4779065977415">
        <ele>35.819305785000324</ele>
        <time>2026-07-18T11:59:37Z</time>
      </trkpt>
      <trkpt lat="39.903031785235555" lon="116.4777204706776">
        <ele>35.42791296355426</ele>
        <time>2026-07-18T11:59:43Z</time>
      </trkpt>
      <trkpt lat="39.902940716375824" lon="116.47734848062298">
        <ele>34.75715756509453</ele>
        <time>2026-07-18T11:59:58Z</time>
      </trkpt>
      <trkpt lat="39.90284008609501" lon="116.47693398118099">
        <ele>35.68659638054669</ele>
        <time>2026-07-18T12:00:13Z</time>
      </trkpt>
      <trkpt lat="39.90278002548873" lon="116.47654037275703">
        <ele>36.064192024059594</ele>
        <time>2026-07-18T12:00:28Z</time>
      </trkpt>
      <trkpt lat="39.9027372210517" lon="116.47616309191919">
        <ele>35.514758040197194</ele>
        <time>2026-07-18T12:00:40Z</time>
      </trkpt>
      <trkpt lat="39.9027022476053" lon="116.47573845534424">
        <ele>36.46516154333949</ele>
        <time>2026-07-18T12:00:55Z</time>
      </trkpt>
      <trkpt lat="39.90270162672864" lon="116.47554723172777">
        <ele>36.12306248862296</ele>
        <time>2026-07-18T12:01:01Z</time>
      </trkpt>
      <trkpt lat="39.90272122183858" lon="116.4754639035768">
        <ele>36.178360152989626</ele>
        <time>2026-07-18T12:01:04Z</time>
      </trkpt>
      <trkpt lat="39.90273964032675" lon="116.47510942370047">
        <ele>36.75114691257477</ele>
        <time>2026-07-18T12:01:16Z</time>
      </trkpt>
      <trkpt lat="39.90280359161937" lon="116.47469285681099">
        <ele>38.169609846547246</ele>
        <time>2026-07-18T12:01:31Z</time>
      </trkpt>
      <trkpt lat="39.90284596205901" lon="116.47430773391528">
        <ele>38.22843400482088</ele>
        <time>2026-07-18T12:01:44Z</time>
      </trkpt>
      <trkpt lat="39.90287811842259" lon="116.47419842765345">
        <ele>38.43696446530521</ele>
        <time>2026-07-18T12:01:48Z</time>
      </trkpt>
      <trkpt lat="39.9028960211055" lon="116.47395658997071">
        <ele>38.36542499717325</ele>
        <time>2026-07-18T12:01:57Z</time>
      </trkpt>
      <trkpt lat="39.902917345802194" lon="116.4738655771835">
        <ele>38.30978571623564</ele>
        <time>2026-07-18T12:02:00Z</time>
      </trkpt>
      <trkpt lat="39.902955663556256" lon="116.47351628546079">
        <ele>37.87525392509997</ele>
        <time>2026-07-18T12:02:12Z</time>
      </trkpt>
      <trkpt lat="39.90295496249447" lon="116.47342770058088">
        <ele>38.17861812096089</ele>
        <time>2026-07-18T12:02:15Z</time>
      </trkpt>
      <trkpt lat="39.903014292857634" lon="116.47316988166382">
        <ele>38.604424910619855</ele>
        <time>2026-07-18T12:02:24Z</time>
      </trkpt>
      <trkpt lat="39.90304061122373" lon="116.47291940898376">
        <ele>38.114808740094304</ele>
        <time>2026-07-18T12:02:33Z</time>
      </trkpt>
      <trkpt lat="39.90303572220421" lon="116.47284824731928">
        <ele>38.27122127916664</ele>
        <time>2026-07-18T12:02:36Z</time>
      </trkpt>
      <trkpt lat="39.903106047445576" lon="116.47247457602467">
        <ele>38.651563060469925</ele>
        <time>2026-07-18T12:03:00Z</time>
      </trkpt>
      <trkpt lat="39.90312206670975" lon="116.47210238770664">
        <ele>38.39510986302048</ele>
        <time>2026-07-18T12:03:24Z</time>
      </trkpt>
      <trkpt lat="39.9031084464385" lon="116.47170414390152">
        <ele>39.30298766773194</ele>
        <time>2026-07-18T12:03:46Z</time>
      </trkpt>
      <trkpt lat="39.90310116076292" lon="116.471547013225">
        <ele>38.93751834426075</ele>
        <time>2026-07-18T12:03:54Z</time>
      </trkpt>
      <trkpt lat="39.90321427730468" lon="116.47170745091066">
        <ele>42.8411723151803</ele>
        <time>2026-07-18T12:03:58Z</time>
      </trkpt>
      <trkpt lat="39.90311053549491" lon="116.47121282148927">
        <ele>38.5119741614908</ele>
        <time>2026-07-18T12:04:06Z</time>
      </trkpt>
      <trkpt lat="39.90311055660875" lon="116.47093901225664">
        <ele>37.98734654765576</ele>
        <time>2026-07-18T12:04:14Z</time>
      </trkpt>
      <trkpt lat="39.903079458660265" lon="116.47079732959224">
        <ele>38.135017345659435</ele>
        <time>2026-07-18T12:04:18Z</time>
      </trkpt>
      <trkpt lat="39.903096520848756" lon="116.47035836636677">
        <ele>38.0820744978264</ele>
        <time>2026-07-18T12:04:32Z</time>
      </trkpt>
      <trkpt lat="39.9030897952166" lon="116.47014875557502">
        <ele>37.59209383837879</ele>
        <time>2026-07-18T12:04:38Z</time>
      </trkpt>
      <trkpt lat="39.90306478881872" lon="116.46997151638448">
        <ele>37.891777854412794</ele>
        <time>2026-07-18T12:04:41Z</time>
      </trkpt>
      <trkpt lat="39.9030828298394" lon="116.46991028102379">
        <ele>38.48407096788287</ele>
        <time>2026-07-18T12:04:44Z</time>
      </trkpt>
      <trkpt lat="39.90313652301186" lon="116.46983848594654">
        <ele>39.38419530540705</ele>
        <time>2026-07-18T12:04:47Z</time>
      </trkpt>
      <trkpt lat="39.90309176429392" lon="116.46971860086698">
        <ele>39.38943678047508</ele>
        <time>2026-07-18T12:04:50Z</time>
      </trkpt>
      <trkpt lat="39.90307871948882" lon="116.46952491245065">
        <ele>38.42094255425036</ele>
        <time>2026-07-18T12:04:56Z</time>
      </trkpt>
      <trkpt lat="39.9030909590254" lon="116.4694350875117">
        <ele>38.948380736634135</ele>
        <time>2026-07-18T12:04:59Z</time>
      </trkpt>
      <trkpt lat="39.90307688529273" lon="116.46922335018445">
        <ele>38.45316315628588</ele>
        <time>2026-07-18T12:05:05Z</time>
      </trkpt>
      <trkpt lat="39.90304879733613" lon="116.46908652040891">
        <ele>36.90933907870203</ele>
        <time>2026-07-18T12:05:08Z</time>
      </trkpt>
      <trkpt lat="39.903077310505324" lon="116.46881280530374">
        <ele>38.92836755607277</ele>
        <time>2026-07-18T12:05:17Z</time>
      </trkpt>
      <trkpt lat="39.903063762435494" lon="116.46872313653628">
        <ele>39.150080839172006</ele>
        <time>2026-07-18T12:05:20Z</time>
      </trkpt>
      <trkpt lat="39.90305906143159" lon="116.4683555952005">
        <ele>38.410913709551096</ele>
        <time>2026-07-18T12:05:32Z</time>
      </trkpt>
      <trkpt lat="39.90304077708055" lon="116.46798609976142">
        <ele>37.161822953261435</ele>
        <time>2026-07-18T12:05:44Z</time>
      </trkpt>
      <trkpt lat="39.90304492204475" lon="116.46754982916114">
        <ele>37.708096391521394</ele>
        <time>2026-07-18T12:05:59Z</time>
      </trkpt>
      <trkpt lat="39.90304883153188" lon="116.46719191357222">
        <ele>38.68980838730931</ele>
        <time>2026-07-18T12:06:11Z</time>
      </trkpt>
      <trkpt lat="39.90294860160483" lon="116.46677681996232">
        <ele>38.586200485005975</ele>
        <time>2026-07-18T12:06:26Z</time>
      </trkpt>
      <trkpt lat="39.90286981747214" lon="116.46643338402178">
        <ele>38.369152900762856</ele>
        <time>2026-07-18T12:06:47Z</time>
      </trkpt>
      <trkpt lat="39.90283766563472" lon="116.46638688579651">
        <ele>38.57328797504306</ele>
        <time>2026-07-18T12:06:50Z</time>
      </trkpt>
      <trkpt lat="39.90277804203613" lon="116.4663781353443">
        <ele>37.82357117161155</ele>
        <time>2026-07-18T12:06:56Z</time>
      </trkpt>
      <trkpt lat="39.90263139131529" lon="116.46626369471012">
        <ele>38.59888464398682</ele>
        <time>2026-07-18T12:07:08Z</time>
      </trkpt>
      <trkpt lat="39.90246776970749" lon="116.4662502760458">
        <ele>38.660155998542905</ele>
        <time>2026-07-18T12:07:20Z</time>
      </trkpt>
      <trkpt lat="39.902241600144855" lon="116.46627626009666">
        <ele>39.28008215688169</ele>
        <time>2026-07-18T12:07:38Z</time>
      </trkpt>
      <trkpt lat="39.90219225825853" lon="116.46626225663213">
        <ele>39.07161074131727</ele>
        <time>2026-07-18T12:07:44Z</time>
      </trkpt>
      <trkpt lat="39.90189824338468" lon="116.46631160865427">
        <ele>39.31713332980871</ele>
        <time>2026-07-18T12:08:09Z</time>
      </trkpt>
      <trkpt lat="39.901617679528314" lon="116.46633524929462">
        <ele>40.126195325516164</ele>
        <time>2026-07-18T12:08:33Z</time>
      </trkpt>
      <trkpt lat="39.90148632124381" lon="116.46635890996117">
        <ele>41.10675210505724</ele>
        <time>2026-07-18T12:08:45Z</time>
      </trkpt>
      <trkpt lat="39.90144620961686" lon="116.46639359329926">
        <ele>40.13164171669632</ele>
        <time>2026-07-18T12:08:51Z</time>
      </trkpt>
      <trkpt lat="39.90117002486369" lon="116.46641542003954">
        <ele>40.00374223198742</ele>
        <time>2026-07-18T12:09:15Z</time>
      </trkpt>
      <trkpt lat="39.90099990208342" lon="116.46645961851054">
        <ele>40.45756862685084</ele>
        <time>2026-07-18T12:09:27Z</time>
      </trkpt>
      <trkpt lat="39.900801465591705" lon="116.46653724601936">
        <ele>40.948404520750046</ele>
        <time>2026-07-18T12:09:45Z</time>
      </trkpt>
      <trkpt lat="39.90068001399091" lon="116.46665835603228">
        <ele>40.822955613955855</ele>
        <time>2026-07-18T12:09:57Z</time>
      </trkpt>
      <trkpt lat="39.900653312219056" lon="116.4667101086536">
        <ele>41.41557591035962</ele>
        <time>2026-07-18T12:10:00Z</time>
      </trkpt>
      <trkpt lat="39.90046712482088" lon="116.4667784671253">
        <ele>40.05587493348867</ele>
        <time>2026-07-18T12:10:16Z</time>
      </trkpt>
      <trkpt lat="39.900363453137516" lon="116.4667604984836">
        <ele>40.24876965675503</ele>
        <time>2026-07-18T12:10:24Z</time>
      </trkpt>
      <trkpt lat="39.900305000677115" lon="116.46671556571901">
        <ele>40.27618979662657</ele>
        <time>2026-07-18T12:10:28Z</time>
      </trkpt>
      <trkpt lat="39.90016654985668" lon="116.46672044557147">
        <ele>38.74188049510121</ele>
        <time>2026-07-18T12:10:40Z</time>
      </trkpt>
      <trkpt lat="39.899929237790914" lon="116.46670747389183">
        <ele>39.36327239871025</ele>
        <time>2026-07-18T12:11:01Z</time>
      </trkpt>
      <trkpt lat="39.899757080569834" lon="116.46647254941895">
        <ele>39.94460157305002</ele>
        <time>2026-07-18T12:11:25Z</time>
      </trkpt>
      <trkpt lat="39.8998607101272" lon="116.46637531501928">
        <ele>35.4706888506189</ele>
        <time>2026-07-18T12:11:31Z</time>
      </trkpt>
      <trkpt lat="39.89957835255416" lon="116.46639688154693">
        <ele>39.82021439168602</ele>
        <time>2026-07-18T12:11:37Z</time>
      </trkpt>
      <trkpt lat="39.8995801799815" lon="116.4665013746358">
        <ele>39.98963505588472</ele>
        <time>2026-07-18T12:11:40Z</time>
      </trkpt>
      <trkpt lat="39.899538199326095" lon="116.46655181020948">
        <ele>40.50252011884004</ele>
        <time>2026-07-18T12:11:46Z</time>
      </trkpt>
      <trkpt lat="39.89946466398115" lon="116.46652773621304">
        <ele>39.30949083715677</ele>
        <time>2026-07-18T12:11:55Z</time>
      </trkpt>
      <trkpt lat="39.899409022566964" lon="116.46648271408588">
        <ele>39.31089886371046</ele>
        <time>2026-07-18T12:12:01Z</time>
      </trkpt>
      <trkpt lat="39.899303891849335" lon="116.46651923117439">
        <ele>37.694542170502245</ele>
        <time>2026-07-18T12:12:08Z</time>
      </trkpt>
      <trkpt lat="39.89919827203298" lon="116.46660392648218">
        <ele>38.790125815197825</ele>
        <time>2026-07-18T12:12:14Z</time>
      </trkpt>
      <trkpt lat="39.89892662177886" lon="116.4665948343597">
        <ele>39.63791969884187</ele>
        <time>2026-07-18T12:12:29Z</time>
      </trkpt>
      <trkpt lat="39.89859214346376" lon="116.46658835060441">
        <ele>41.822142850607634</ele>
        <time>2026-07-18T12:12:47Z</time>
      </trkpt>
      <trkpt lat="39.89826917008316" lon="116.466587539543">
        <ele>40.78048749361187</ele>
        <time>2026-07-18T12:13:05Z</time>
      </trkpt>
      <trkpt lat="39.898214337575816" lon="116.46657978267669">
        <ele>40.604902209714055</ele>
        <time>2026-07-18T12:13:08Z</time>
      </trkpt>
      <trkpt lat="39.89813682746866" lon="116.46659989926525">
        <ele>41.31725407298654</ele>
        <time>2026-07-18T12:13:11Z</time>
      </trkpt>
      <trkpt lat="39.89793581440341" lon="116.46657843675914">
        <ele>41.39844851009548</ele>
        <time>2026-07-18T12:13:23Z</time>
      </trkpt>
      <trkpt lat="39.89782307371084" lon="116.46657531820603">
        <ele>41.349171116016805</ele>
        <time>2026-07-18T12:13:29Z</time>
      </trkpt>
      <trkpt lat="39.89773378383149" lon="116.4665269350038">
        <ele>40.87004552129656</ele>
        <time>2026-07-18T12:13:35Z</time>
      </trkpt>
      <trkpt lat="39.897560635379804" lon="116.46656244518788">
        <ele>40.475672842003405</ele>
        <time>2026-07-18T12:13:44Z</time>
      </trkpt>
      <trkpt lat="39.89751686804726" lon="116.4666011980332">
        <ele>40.81228865683079</ele>
        <time>2026-07-18T12:13:47Z</time>
      </trkpt>
      <trkpt lat="39.89746871564551" lon="116.46661560854294">
        <ele>40.83800637256354</ele>
        <time>2026-07-18T12:13:50Z</time>
      </trkpt>
      <trkpt lat="39.89736015362104" lon="116.46659798859653">
        <ele>40.794401791878045</ele>
        <time>2026-07-18T12:13:56Z</time>
      </trkpt>
      <trkpt lat="39.89730636601885" lon="116.46661290584434">
        <ele>40.862526760436594</ele>
        <time>2026-07-18T12:13:59Z</time>
      </trkpt>
      <trkpt lat="39.89702569772553" lon="116.46660001299016">
        <ele>41.36464071273804</ele>
        <time>2026-07-18T12:14:14Z</time>
      </trkpt>
      <trkpt lat="39.896702912655726" lon="116.46657845407965">
        <ele>40.829042554832995</ele>
        <time>2026-07-18T12:14:31Z</time>
      </trkpt>
      <trkpt lat="39.896604820228106" lon="116.4666024614973">
        <ele>40.38487941771746</ele>
        <time>2026-07-18T12:14:35Z</time>
      </trkpt>
      <trkpt lat="39.89632791927448" lon="116.46654744884185">
        <ele>40.362172487191856</ele>
        <time>2026-07-18T12:14:48Z</time>
      </trkpt>
      <trkpt lat="39.89619356601411" lon="116.4665807470328">
        <ele>40.31217130925506</ele>
        <time>2026-07-18T12:14:54Z</time>
      </trkpt>
      <trkpt lat="39.89614272494529" lon="116.46655827592186">
        <ele>39.52441474888474</ele>
        <time>2026-07-18T12:14:57Z</time>
      </trkpt>
      <trkpt lat="39.89608179974795" lon="116.4665625996376">
        <ele>40.10038573946804</ele>
        <time>2026-07-18T12:15:00Z</time>
      </trkpt>
      <trkpt lat="39.89590803690387" lon="116.46648569977623">
        <ele>39.66039696056396</ele>
        <time>2026-07-18T12:15:15Z</time>
      </trkpt>
      <trkpt lat="39.89584779389849" lon="116.46649433567727">
        <ele>38.74832181818783</ele>
        <time>2026-07-18T12:15:30Z</time>
      </trkpt>
      <trkpt lat="39.89553227867739" lon="116.46649934021379">
        <ele>39.54645403474569</ele>
        <time>2026-07-18T12:15:45Z</time>
      </trkpt>
      <trkpt lat="39.89541824750655" lon="116.4664886933563">
        <ele>38.80015000794083</ele>
        <time>2026-07-18T12:15:51Z</time>
      </trkpt>
      <trkpt lat="39.895132590234944" lon="116.46651127101086">
        <ele>37.86070439219475</ele>
        <time>2026-07-18T12:16:06Z</time>
      </trkpt>
      <trkpt lat="39.895066596630826" lon="116.46653859124268">
        <ele>38.90386119205505</ele>
        <time>2026-07-18T12:16:09Z</time>
      </trkpt>
      <trkpt lat="39.8950320386754" lon="116.4664964492831">
        <ele>37.489716524258256</ele>
        <time>2026-07-18T12:16:12Z</time>
      </trkpt>
      <trkpt lat="39.89498246861674" lon="116.4664808612074">
        <ele>37.5381843643263</ele>
        <time>2026-07-18T12:16:15Z</time>
      </trkpt>
      <trkpt lat="39.894925838526206" lon="116.46649274337943">
        <ele>38.77555232774466</ele>
        <time>2026-07-18T12:16:18Z</time>
      </trkpt>
      <trkpt lat="39.89487565526534" lon="116.46645139055187">
        <ele>39.11301483400166</ele>
        <time>2026-07-18T12:16:22Z</time>
      </trkpt>
      <trkpt lat="39.894813817308176" lon="116.46648672578934">
        <ele>39.19738537538797</ele>
        <time>2026-07-18T12:16:26Z</time>
      </trkpt>
      <trkpt lat="39.89462078732949" lon="116.46649284855901">
        <ele>38.53471148200333</ele>
        <time>2026-07-18T12:16:46Z</time>
      </trkpt>
      <trkpt lat="39.89457569751624" lon="116.4665120908885">
        <ele>38.99092045612633</ele>
        <time>2026-07-18T12:16:54Z</time>
      </trkpt>
      <trkpt lat="39.89434069696192" lon="116.46649726616793">
        <ele>39.6945591783151</ele>
        <time>2026-07-18T12:17:20Z</time>
      </trkpt>
      <trkpt lat="39.89427155710009" lon="116.46650861655256">
        <ele>38.59783772286028</ele>
        <time>2026-07-18T12:17:26Z</time>
      </trkpt>
      <trkpt lat="39.89417732890431" lon="116.46648792811239">
        <ele>39.78891793265939</ele>
        <time>2026-07-18T12:17:32Z</time>
      </trkpt>
      <trkpt lat="39.89406857840209" lon="116.46649425664216">
        <ele>38.47253362555057</ele>
        <time>2026-07-18T12:17:44Z</time>
      </trkpt>
    </trkseg>
  </trk>
</gpx>