<?xml version="1.0" encoding="UTF-8"?>
<gpx xmlns="http://www.topografix.com/GPX/1/1" xmlns:gpxtpx="http://www.garmin.com/xmlschemas/TrackPointExtension/v1" xmlns:xsi="http://www.w3.org/2001/XMLSchema-instance" xsi:schemaLocation="http://www.topografix.com/GPX/1/1 http://www.topografix.com/GPX/1/1/gpx.xsd" version="1.1" creator="gpx.py -- https://github.com/tkrajina/gpxpy">
  <trk>
    <name>gpx from keep</name>
    <type>Walk</type>
    <trkseg>
      <trkpt lat="36.115327970255066" lon="114.34118945469014">
        <ele>79.78225339762866</ele>
        <time>2026-06-20T00:00:44Z</time>
      </trkpt>
      <trkpt lat="36.115392706071454" lon="114.34111917486733">
        <ele>79.77395294047892</ele>
        <time>2026-06-20T00:00:48Z</time>
      </trkpt>
      <trkpt lat="36.11542227371302" lon="114.34100142972581">
        <ele>79.67562545463443</ele>
        <time>2026-06-20T00:00:52Z</time>
      </trkpt>
      <trkpt lat="36.115435752094065" lon="114.34066129785167">
        <ele>78.38172349333763</ele>
        <time>2026-06-20T00:01:04Z</time>
      </trkpt>
      <trkpt lat="36.11543747624858" lon="114.34042951097634">
        <ele>77.0597244175151</ele>
        <time>2026-06-20T00:01:12Z</time>
      </trkpt>
      <trkpt lat="36.115470438519104" lon="114.3399923541365">
        <ele>77.41086465399712</ele>
        <time>2026-06-20T00:01:28Z</time>
      </trkpt>
      <trkpt lat="36.11549747140865" lon="114.33956655124018">
        <ele>78.52410477865487</ele>
        <time>2026-06-20T00:01:44Z</time>
      </trkpt>
      <trkpt lat="36.115503613976664" lon="114.33939273024403">
        <ele>78.01437661424279</ele>
        <time>2026-06-20T00:01:52Z</time>
      </trkpt>
      <trkpt lat="36.115453726651594" lon="114.33926383762464">
        <ele>77.29473435785621</ele>
        <time>2026-06-20T00:02:00Z</time>
      </trkpt>
      <trkpt lat="36.1155120554638" lon="114.33920545692649">
        <ele>77.3151867063716</ele>
        <time>2026-06-20T00:02:08Z</time>
      </trkpt>
      <trkpt lat="36.11555576331608" lon="114.33903499794307">
        <ele>75.85382730327547</ele>
        <time>2026-06-20T00:02:16Z</time>
      </trkpt>
      <trkpt lat="36.11551079581179" lon="114.33902934276462">
        <ele>77.98427896015346</ele>
        <time>2026-06-20T00:02:50Z</time>
      </trkpt>
      <trkpt lat="36.11544586874609" lon="114.33899551785373">
        <ele>77.6028537210077</ele>
        <time>2026-06-20T00:03:32Z</time>
      </trkpt>
      <trkpt lat="36.11536390983122" lon="114.33880435837149">
        <ele>77.01862659677863</ele>
        <time>2026-06-20T00:03:41Z</time>
      </trkpt>
      <trkpt lat="36.11528909496439" lon="114.33877884680606">
        <ele>77.7673684163019</ele>
        <time>2026-06-20T00:03:47Z</time>
      </trkpt>
      <trkpt lat="36.11525374074832" lon="114.33882906300389">
        <ele>76.79141672048718</ele>
        <time>2026-06-20T00:03:50Z</time>
      </trkpt>
      <trkpt lat="36.11507798995721" lon="114.33884847749839">
        <ele>76.49779623188078</ele>
        <time>2026-06-20T00:03:59Z</time>
      </trkpt>
      <trkpt lat="36.11501342649865" lon="114.3388361780967">
        <ele>76.45451454725116</ele>
        <time>2026-06-20T00:04:02Z</time>
      </trkpt>
      <trkpt lat="36.11489294653409" lon="114.33886781530134">
        <ele>76.80265905242413</ele>
        <time>2026-06-20T00:04:08Z</time>
      </trkpt>
      <trkpt lat="36.11483707434511" lon="114.33882175550856">
        <ele>76.94628984387964</ele>
        <time>2026-06-20T00:04:14Z</time>
      </trkpt>
      <trkpt lat="36.11485580254596" lon="114.33872444365157">
        <ele>77.65738350246102</ele>
        <time>2026-06-20T00:04:20Z</time>
      </trkpt>
      <trkpt lat="36.114899798339465" lon="114.33867626364838">
        <ele>79.0430848998949</ele>
        <time>2026-06-20T00:04:26Z</time>
      </trkpt>
      <trkpt lat="36.11500676294279" lon="114.3386641276018">
        <ele>79.7462794398889</ele>
        <time>2026-06-20T00:04:39Z</time>
      </trkpt>
      <trkpt lat="36.11507852890175" lon="114.33862545707015">
        <ele>79.72295163851231</ele>
        <time>2026-06-20T00:04:42Z</time>
      </trkpt>
      <trkpt lat="36.1151211042001" lon="114.33847227549887">
        <ele>79.5959391342476</ele>
        <time>2026-06-20T00:04:48Z</time>
      </trkpt>
      <trkpt lat="36.11503254626861" lon="114.33823924102171">
        <ele>80.0211838092655</ele>
        <time>2026-06-20T00:04:54Z</time>
      </trkpt>
      <trkpt lat="36.11485581656518" lon="114.33808616967983">
        <ele>81.03705193847418</ele>
        <time>2026-06-20T00:05:00Z</time>
      </trkpt>
      <trkpt lat="36.11483436607384" lon="114.33794109472058">
        <ele>80.37265252228826</ele>
        <time>2026-06-20T00:05:03Z</time>
      </trkpt>
      <trkpt lat="36.114954582277115" lon="114.33765111318739">
        <ele>82.13628693856299</ele>
        <time>2026-06-20T00:05:12Z</time>
      </trkpt>
      <trkpt lat="36.11501265193407" lon="114.33756393339684">
        <ele>81.56679178867489</ele>
        <time>2026-06-20T00:05:15Z</time>
      </trkpt>
      <trkpt lat="36.11517573999692" lon="114.3374324182166">
        <ele>83.1475221188739</ele>
        <time>2026-06-20T00:05:21Z</time>
      </trkpt>
      <trkpt lat="36.11542514645271" lon="114.33712053567366">
        <ele>83.29921739641577</ele>
        <time>2026-06-20T00:05:33Z</time>
      </trkpt>
      <trkpt lat="36.115494980415825" lon="114.33702769102193">
        <ele>82.89549887925386</ele>
        <time>2026-06-20T00:05:36Z</time>
      </trkpt>
      <trkpt lat="36.11556946488108" lon="114.33683932383347">
        <ele>84.08099790010601</ele>
        <time>2026-06-20T00:05:42Z</time>
      </trkpt>
      <trkpt lat="36.11577967530429" lon="114.33662260585545">
        <ele>83.12004808243364</ele>
        <time>2026-06-20T00:05:51Z</time>
      </trkpt>
      <trkpt lat="36.11596774525586" lon="114.33660340138313">
        <ele>82.1174179315567</ele>
        <time>2026-06-20T00:06:03Z</time>
      </trkpt>
      <trkpt lat="36.116010677475515" lon="114.33658471914899">
        <ele>81.67126945685595</ele>
        <time>2026-06-20T00:06:06Z</time>
      </trkpt>
      <trkpt lat="36.11615138606506" lon="114.33645035942824">
        <ele>81.94356676656753</ele>
        <time>2026-06-20T00:06:24Z</time>
      </trkpt>
      <trkpt lat="36.11612367420942" lon="114.33651404532942">
        <ele>81.7922666920349</ele>
        <time>2026-06-20T00:06:36Z</time>
      </trkpt>
      <trkpt lat="36.116190454348775" lon="114.33648644535403">
        <ele>81.93934215325862</ele>
        <time>2026-06-20T00:06:55Z</time>
      </trkpt>
      <trkpt lat="36.11614872001994" lon="114.33653057247089">
        <ele>80.39503676444292</ele>
        <time>2026-06-20T00:07:31Z</time>
      </trkpt>
      <trkpt lat="36.11617892094497" lon="114.33646051475259">
        <ele>81.6594432797283</ele>
        <time>2026-06-20T00:09:24Z</time>
      </trkpt>
      <trkpt lat="36.11616285553425" lon="114.33653388712592">
        <ele>81.25592877436429</ele>
        <time>2026-06-20T00:09:57Z</time>
      </trkpt>
      <trkpt lat="36.11615940635777" lon="114.33647600389268">
        <ele>81.19042943324894</ele>
        <time>2026-06-20T00:10:06Z</time>
      </trkpt>
      <trkpt lat="36.116163725981224" lon="114.33653428667118">
        <ele>80.54312723316252</ele>
        <time>2026-06-20T00:11:13Z</time>
      </trkpt>
      <trkpt lat="36.11612678004856" lon="114.33647440698687">
        <ele>81.29934256151319</ele>
        <time>2026-06-20T00:12:36Z</time>
      </trkpt>
      <trkpt lat="36.11620661182318" lon="114.33648430946111">
        <ele>81.03021909948438</ele>
        <time>2026-06-20T00:12:52Z</time>
      </trkpt>
      <trkpt lat="36.1161418767526" lon="114.33649285536247">
        <ele>79.93377982638776</ele>
        <time>2026-06-20T00:13:18Z</time>
      </trkpt>
      <trkpt lat="36.116157434062025" lon="114.33648205303851">
        <ele>82.36839028354734</ele>
        <time>2026-06-20T00:14:38Z</time>
      </trkpt>
      <trkpt lat="36.11617806319974" lon="114.33630294109263">
        <ele>81.321353783831</ele>
        <time>2026-06-20T00:22:50Z</time>
      </trkpt>
      <trkpt lat="36.11618727537963" lon="114.33618278537574">
        <ele>81.29533446300775</ele>
        <time>2026-06-20T00:22:58Z</time>
      </trkpt>
      <trkpt lat="36.11619720560228" lon="114.33624079817652">
        <ele>82.06553938705474</ele>
        <time>2026-06-20T00:23:02Z</time>
      </trkpt>
      <trkpt lat="36.11619549817256" lon="114.33615765650644">
        <ele>81.47976137977093</ele>
        <time>2026-06-20T00:23:06Z</time>
      </trkpt>
      <trkpt lat="36.11621160615198" lon="114.33609493613216">
        <ele>81.0877907415852</ele>
        <time>2026-06-20T00:23:10Z</time>
      </trkpt>
      <trkpt lat="36.116146742798826" lon="114.33601803127382">
        <ele>81.61790649872273</ele>
        <time>2026-06-20T00:23:22Z</time>
      </trkpt>
      <trkpt lat="36.116127372692056" lon="114.33595849227285">
        <ele>81.52647202648222</ele>
        <time>2026-06-20T00:23:26Z</time>
      </trkpt>
      <trkpt lat="36.115970806623665" lon="114.33581490376922">
        <ele>77.82621192000806</ele>
        <time>2026-06-20T00:23:40Z</time>
      </trkpt>
      <trkpt lat="36.11604306360667" lon="114.33589077176457">
        <ele>77.85814547352493</ele>
        <time>2026-06-20T00:23:46Z</time>
      </trkpt>
      <trkpt lat="36.11599277342476" lon="114.3358505337635">
        <ele>78.12111054453999</ele>
        <time>2026-06-20T00:23:49Z</time>
      </trkpt>
      <trkpt lat="36.115674436878294" lon="114.33586843685896">
        <ele>77.28348588943481</ele>
        <time>2026-06-20T00:24:01Z</time>
      </trkpt>
      <trkpt lat="36.11544467924215" lon="114.33585147299368">
        <ele>76.3684246558696</ele>
        <time>2026-06-20T00:24:10Z</time>
      </trkpt>
      <trkpt lat="36.11527747757904" lon="114.33586251508119">
        <ele>76.57942009810358</ele>
        <time>2026-06-20T00:24:16Z</time>
      </trkpt>
      <trkpt lat="36.11499449715411" lon="114.33591373253307">
        <ele>75.65081176534295</ele>
        <time>2026-06-20T00:24:28Z</time>
      </trkpt>
      <trkpt lat="36.11469540951684" lon="114.33598892805921">
        <ele>77.24003726057708</ele>
        <time>2026-06-20T00:24:40Z</time>
      </trkpt>
      <trkpt lat="36.114480334118426" lon="114.33602700994786">
        <ele>77.09030561428517</ele>
        <time>2026-06-20T00:24:49Z</time>
      </trkpt>
      <trkpt lat="36.11442241505256" lon="114.33601981467812">
        <ele>76.89734111353755</ele>
        <time>2026-06-20T00:24:52Z</time>
      </trkpt>
      <trkpt lat="36.11435646480788" lon="114.33585178817401">
        <ele>75.6526958765462</ele>
        <time>2026-06-20T00:25:13Z</time>
      </trkpt>
      <trkpt lat="36.11436233108336" lon="114.33571258999817">
        <ele>73.23179704789072</ele>
        <time>2026-06-20T00:25:31Z</time>
      </trkpt>
      <trkpt lat="36.11435947576306" lon="114.33579885851059">
        <ele>75.58062918763608</ele>
        <time>2026-06-20T00:27:26Z</time>
      </trkpt>
      <trkpt lat="36.11443872164539" lon="114.33605560058973">
        <ele>79.29826751630753</ele>
        <time>2026-06-20T00:28:00Z</time>
      </trkpt>
      <trkpt lat="36.114445506308044" lon="114.33620150262553">
        <ele>81.00909698940814</ele>
        <time>2026-06-20T00:28:12Z</time>
      </trkpt>
      <trkpt lat="36.11441781617909" lon="114.33624875042958">
        <ele>81.93936060462147</ele>
        <time>2026-06-20T00:28:21Z</time>
      </trkpt>
      <trkpt lat="36.11439880993185" lon="114.33631756227169">
        <ele>83.3883076813072</ele>
        <time>2026-06-20T00:30:27Z</time>
      </trkpt>
      <trkpt lat="36.11441155582746" lon="114.33640626428287">
        <ele>85.31303380429745</ele>
        <time>2026-06-20T00:30:31Z</time>
      </trkpt>
      <trkpt lat="36.11421259310593" lon="114.33657756092994">
        <ele>84.41590178664774</ele>
        <time>2026-06-20T00:30:45Z</time>
      </trkpt>
      <trkpt lat="36.11410448676349" lon="114.33660577331716">
        <ele>83.20438132528216</ele>
        <time>2026-06-20T00:31:00Z</time>
      </trkpt>
      <trkpt lat="36.114088789430404" lon="114.33665956702602">
        <ele>83.00971397198737</ele>
        <time>2026-06-20T00:31:18Z</time>
      </trkpt>
      <trkpt lat="36.1140865208674" lon="114.33676924335057">
        <ele>81.43006508704275</ele>
        <time>2026-06-20T00:31:27Z</time>
      </trkpt>
      <trkpt lat="36.11413965083675" lon="114.3368309293638">
        <ele>82.8221149398014</ele>
        <time>2026-06-20T00:31:33Z</time>
      </trkpt>
      <trkpt lat="36.114116317075" lon="114.33688358530786">
        <ele>82.65089823678136</ele>
        <time>2026-06-20T00:31:39Z</time>
      </trkpt>
      <trkpt lat="36.11412363128563" lon="114.33705384061376">
        <ele>82.29307982418686</ele>
        <time>2026-06-20T00:31:54Z</time>
      </trkpt>
      <trkpt lat="36.11410921609814" lon="114.33713510568249">
        <ele>82.26305636204779</ele>
        <time>2026-06-20T00:31:58Z</time>
      </trkpt>
      <trkpt lat="36.11405345689188" lon="114.33715263934677">
        <ele>83.71293215546757</ele>
        <time>2026-06-20T00:32:06Z</time>
      </trkpt>
      <trkpt lat="36.11393777933358" lon="114.33717309130047">
        <ele>82.13384081888944</ele>
        <time>2026-06-20T00:32:25Z</time>
      </trkpt>
      <trkpt lat="36.113850369138056" lon="114.33716631415659">
        <ele>80.16527094133198</ele>
        <time>2026-06-20T00:32:31Z</time>
      </trkpt>
      <trkpt lat="36.11379374253251" lon="114.33718215983241">
        <ele>79.38736170344055</ele>
        <time>2026-06-20T00:32:40Z</time>
      </trkpt>
      <trkpt lat="36.113730962636964" lon="114.33717167798468">
        <ele>77.72442165296525</ele>
        <time>2026-06-20T00:32:49Z</time>
      </trkpt>
      <trkpt lat="36.11377464592127" lon="114.33721856937952">
        <ele>78.73192535061389</ele>
        <time>2026-06-20T00:33:07Z</time>
      </trkpt>
      <trkpt lat="36.11371659350493" lon="114.33714348007283">
        <ele>78.70368472952396</ele>
        <time>2026-06-20T00:33:25Z</time>
      </trkpt>
      <trkpt lat="36.1136191428403" lon="114.33717796281734">
        <ele>76.43465669546276</ele>
        <time>2026-06-20T00:33:46Z</time>
      </trkpt>
      <trkpt lat="36.113565676307275" lon="114.33716863716519">
        <ele>76.17222441360354</ele>
        <time>2026-06-20T00:33:52Z</time>
      </trkpt>
      <trkpt lat="36.11347637579086" lon="114.33684814920024">
        <ele>73.86349419038743</ele>
        <time>2026-06-20T00:34:11Z</time>
      </trkpt>
      <trkpt lat="36.113395151611535" lon="114.33649928278106">
        <ele>74.72111294232309</ele>
        <time>2026-06-20T00:34:35Z</time>
      </trkpt>
      <trkpt lat="36.113391495452326" lon="114.33640163565693">
        <ele>74.33470445964485</ele>
        <time>2026-06-20T00:34:43Z</time>
      </trkpt>
      <trkpt lat="36.11331917537086" lon="114.3360616041882">
        <ele>73.8380205668509</ele>
        <time>2026-06-20T00:35:02Z</time>
      </trkpt>
      <trkpt lat="36.11331216678039" lon="114.33600543466657">
        <ele>73.8682236969471</ele>
        <time>2026-06-20T00:35:05Z</time>
      </trkpt>
      <trkpt lat="36.113212772645674" lon="114.33580200954074">
        <ele>76.00783947389573</ele>
        <time>2026-06-20T00:35:23Z</time>
      </trkpt>
      <trkpt lat="36.11318653662931" lon="114.33573963766929">
        <ele>72.58412974979728</ele>
        <time>2026-06-20T00:35:47Z</time>
      </trkpt>
      <trkpt lat="36.11323013116371" lon="114.33577609642157">
        <ele>73.80232762824744</ele>
        <time>2026-06-20T00:36:02Z</time>
      </trkpt>
      <trkpt lat="36.11325520500492" lon="114.3358364803015">
        <ele>74.20960896275938</ele>
        <time>2026-06-20T00:36:12Z</time>
      </trkpt>
      <trkpt lat="36.11320201213338" lon="114.33578279996095">
        <ele>74.94471522048116</ele>
        <time>2026-06-20T00:36:32Z</time>
      </trkpt>
      <trkpt lat="36.11307886296018" lon="114.33548948549657">
        <ele>73.41724905371666</ele>
        <time>2026-06-20T00:36:48Z</time>
      </trkpt>
      <trkpt lat="36.11306421221599" lon="114.33523091084884">
        <ele>75.90700565185398</ele>
        <time>2026-06-20T00:37:12Z</time>
      </trkpt>
      <trkpt lat="36.11308628043872" lon="114.33515945729447">
        <ele>75.5816565901041</ele>
        <time>2026-06-20T00:37:20Z</time>
      </trkpt>
      <trkpt lat="36.11308764807904" lon="114.33497273767189">
        <ele>77.4844834599644</ele>
        <time>2026-06-20T00:37:36Z</time>
      </trkpt>
      <trkpt lat="36.11306337463766" lon="114.33489738123163">
        <ele>77.50774443894625</ele>
        <time>2026-06-20T00:37:44Z</time>
      </trkpt>
      <trkpt lat="36.113011256461874" lon="114.33489795395907">
        <ele>76.94007736351341</ele>
        <time>2026-06-20T00:37:52Z</time>
      </trkpt>
      <trkpt lat="36.112966124628024" lon="114.33493103471149">
        <ele>77.5118339555338</ele>
        <time>2026-06-20T00:37:56Z</time>
      </trkpt>
      <trkpt lat="36.11286467831755" lon="114.3351654210038">
        <ele>78.07841803692281</ele>
        <time>2026-06-20T00:38:12Z</time>
      </trkpt>
      <trkpt lat="36.11267199490086" lon="114.33553248681154">
        <ele>77.8176686167717</ele>
        <time>2026-06-20T00:38:43Z</time>
      </trkpt>
      <trkpt lat="36.11263666088962" lon="114.33559068045913">
        <ele>77.65567274019122</ele>
        <time>2026-06-20T00:38:51Z</time>
      </trkpt>
      <trkpt lat="36.112631361784594" lon="114.3356567309131">
        <ele>77.6229384355247</ele>
        <time>2026-06-20T00:38:59Z</time>
      </trkpt>
      <trkpt lat="36.11258068061481" lon="114.33575640771897">
        <ele>75.78252306953073</ele>
        <time>2026-06-20T00:39:07Z</time>
      </trkpt>
      <trkpt lat="36.112456950126244" lon="114.33608816526828">
        <ele>77.81160493474454</ele>
        <time>2026-06-20T00:39:31Z</time>
      </trkpt>
      <trkpt lat="36.11228857459975" lon="114.33651167360966">
        <ele>79.20537799969316</ele>
        <time>2026-06-20T00:39:55Z</time>
      </trkpt>
      <trkpt lat="36.112248079818045" lon="114.3367138968291">
        <ele>77.37241396959871</ele>
        <time>2026-06-20T00:40:15Z</time>
      </trkpt>
      <trkpt lat="36.112245465368794" lon="114.33679539246107">
        <ele>77.66229952778667</ele>
        <time>2026-06-20T00:40:19Z</time>
      </trkpt>
      <trkpt lat="36.112167983531315" lon="114.33711174330747">
        <ele>79.30110260099173</ele>
        <time>2026-06-20T00:40:38Z</time>
      </trkpt>
      <trkpt lat="36.112124320101664" lon="114.33743125226289">
        <ele>80.04922698717564</ele>
        <time>2026-06-20T00:40:58Z</time>
      </trkpt>
      <trkpt lat="36.11213944078706" lon="114.33783474262225">
        <ele>78.19771382305771</ele>
        <time>2026-06-20T00:41:18Z</time>
      </trkpt>
      <trkpt lat="36.112161598544525" lon="114.33798309937033">
        <ele>78.95786436926574</ele>
        <time>2026-06-20T00:41:22Z</time>
      </trkpt>
      <trkpt lat="36.11213878065754" lon="114.3381583184788">
        <ele>77.96324301045388</ele>
        <time>2026-06-20T00:41:26Z</time>
      </trkpt>
      <trkpt lat="36.1121517920193" lon="114.33832639113676">
        <ele>78.13652990013361</ele>
        <time>2026-06-20T00:41:34Z</time>
      </trkpt>
      <trkpt lat="36.112171779639915" lon="114.33838848809084">
        <ele>77.99393566977233</ele>
        <time>2026-06-20T00:41:38Z</time>
      </trkpt>
      <trkpt lat="36.11217727300329" lon="114.33830944712413">
        <ele>77.47076054476202</ele>
        <time>2026-06-20T00:41:42Z</time>
      </trkpt>
      <trkpt lat="36.11216029411873" lon="114.33817158972741">
        <ele>76.89347860217094</ele>
        <time>2026-06-20T00:41:50Z</time>
      </trkpt>
      <trkpt lat="36.11213770656286" lon="114.33828741440021">
        <ele>77.53481374494731</ele>
        <time>2026-06-20T00:41:58Z</time>
      </trkpt>
      <trkpt lat="36.11220884280578" lon="114.3384862834022">
        <ele>78.93063751515001</ele>
        <time>2026-06-20T00:42:10Z</time>
      </trkpt>
      <trkpt lat="36.112202919824256" lon="114.33874359178455">
        <ele>78.29401832539588</ele>
        <time>2026-06-20T00:42:22Z</time>
      </trkpt>
      <trkpt lat="36.112302179681265" lon="114.33912723949048">
        <ele>78.68246847111732</ele>
        <time>2026-06-20T00:42:42Z</time>
      </trkpt>
      <trkpt lat="36.11236054704434" lon="114.33934941696239">
        <ele>78.38890438899398</ele>
        <time>2026-06-20T00:42:54Z</time>
      </trkpt>
      <trkpt lat="36.11239968082324" lon="114.33944124609816">
        <ele>77.93450874555856</ele>
        <time>2026-06-20T00:43:00Z</time>
      </trkpt>
      <trkpt lat="36.112576033240366" lon="114.33968431286911">
        <ele>77.7227222789079</ele>
        <time>2026-06-20T00:43:18Z</time>
      </trkpt>
      <trkpt lat="36.112646197001006" lon="114.33973020874109">
        <ele>76.23854258656502</ele>
        <time>2026-06-20T00:43:24Z</time>
      </trkpt>
      <trkpt lat="36.11255312311973" lon="114.3396611447225">
        <ele>75.70607468578964</ele>
        <time>2026-06-20T00:43:30Z</time>
      </trkpt>
      <trkpt lat="36.11272163931498" lon="114.33982498814122">
        <ele>77.00163346622139</ele>
        <time>2026-06-20T00:44:00Z</time>
      </trkpt>
      <trkpt lat="36.113034070555216" lon="114.33997414448908">
        <ele>77.23892835900187</ele>
        <time>2026-06-20T00:44:27Z</time>
      </trkpt>
      <trkpt lat="36.11331862680168" lon="114.3401303408603">
        <ele>74.66738674789667</ele>
        <time>2026-06-20T00:44:58Z</time>
      </trkpt>
      <trkpt lat="36.11351133162667" lon="114.34025791841479">
        <ele>74.6926175262779</ele>
        <time>2026-06-20T00:45:16Z</time>
      </trkpt>
      <trkpt lat="36.11373773106997" lon="114.34056088954486">
        <ele>74.91092378180474</ele>
        <time>2026-06-20T00:45:46Z</time>
      </trkpt>
      <trkpt lat="36.11381974520379" lon="114.34071950295277">
        <ele>75.89642619062215</ele>
        <time>2026-06-20T00:45:55Z</time>
      </trkpt>
      <trkpt lat="36.11390686681569" lon="114.34075489422753">
        <ele>75.07498917914927</ele>
        <time>2026-06-20T00:46:01Z</time>
      </trkpt>
      <trkpt lat="36.11397192012299" lon="114.34082186749309">
        <ele>73.8154633147642</ele>
        <time>2026-06-20T00:46:07Z</time>
      </trkpt>
      <trkpt lat="36.11425664962216" lon="114.3409977483246">
        <ele>78.13233650010079</ele>
        <time>2026-06-20T00:46:28Z</time>
      </trkpt>
      <trkpt lat="36.11451077059965" lon="114.34119991909265">
        <ele>78.09227917063981</ele>
        <time>2026-06-20T00:46:51Z</time>
      </trkpt>
      <trkpt lat="36.11457292822166" lon="114.34129019808624">
        <ele>77.63794857170433</ele>
        <time>2026-06-20T00:47:00Z</time>
      </trkpt>
      <trkpt lat="36.11453099644433" lon="114.3413316450421">
        <ele>77.90412689559162</ele>
        <time>2026-06-20T00:47:09Z</time>
      </trkpt>
    </trkseg>
  </trk>
</gpx>