<?xml version="1.0" encoding="UTF-8"?>
<gpx xmlns="http://www.topografix.com/GPX/1/1" xmlns:gpxtpx="http://www.garmin.com/xmlschemas/TrackPointExtension/v1" xmlns:xsi="http://www.w3.org/2001/XMLSchema-instance" xsi:schemaLocation="http://www.topografix.com/GPX/1/1 http://www.topografix.com/GPX/1/1/gpx.xsd" version="1.1" creator="gpx.py -- https://github.com/tkrajina/gpxpy">
  <trk>
    <name>gpx from keep</name>
    <type>Run</type>
    <trkseg>
      <trkpt lat="39.89424356567437" lon="116.46344304655736">
        <ele>40.88496208190918</ele>
        <time>2026-09-12T11:11:51Z</time>
      </trkpt>
      <trkpt lat="39.89391486997426" lon="116.46344849559011">
        <ele>42.16645622253418</ele>
        <time>2026-09-12T11:11:58Z</time>
      </trkpt>
      <trkpt lat="39.89393097900722" lon="116.46357358633172">
        <ele>41.30689830519259</ele>
        <time>2026-09-12T11:12:06Z</time>
      </trkpt>
      <trkpt lat="39.893912152238094" lon="116.46371926696071">
        <ele>39.088026229292154</ele>
        <time>2026-09-12T11:12:14Z</time>
      </trkpt>
      <trkpt lat="39.89392815421019" lon="116.46387923027397">
        <ele>39.757904349826276</ele>
        <time>2026-09-12T11:12:22Z</time>
      </trkpt>
      <trkpt lat="39.89390968736589" lon="116.46396198621638">
        <ele>39.300816553644836</ele>
        <time>2026-09-12T11:12:26Z</time>
      </trkpt>
      <trkpt lat="39.89395914673457" lon="116.46417680619317">
        <ele>40.2977420957759</ele>
        <time>2026-09-12T11:12:38Z</time>
      </trkpt>
      <trkpt lat="39.89394436446364" lon="116.46424036725077">
        <ele>39.42516138032079</ele>
        <time>2026-09-12T11:12:42Z</time>
      </trkpt>
      <trkpt lat="39.893903635405" lon="116.46428973496926">
        <ele>39.392640945501626</ele>
        <time>2026-09-12T11:12:46Z</time>
      </trkpt>
      <trkpt lat="39.89390348746522" lon="116.4643517866131">
        <ele>40.049140179529786</ele>
        <time>2026-09-12T11:12:50Z</time>
      </trkpt>
      <trkpt lat="39.89401286597655" lon="116.46455034155306">
        <ele>39.4379067691043</ele>
        <time>2026-09-12T11:13:06Z</time>
      </trkpt>
      <trkpt lat="39.89402920722722" lon="116.46468581861008">
        <ele>39.80116287432611</ele>
        <time>2026-09-12T11:13:14Z</time>
      </trkpt>
      <trkpt lat="39.89411612274337" lon="116.46494168368342">
        <ele>39.150643455795944</ele>
        <time>2026-09-12T11:13:26Z</time>
      </trkpt>
      <trkpt lat="39.894198093327695" lon="116.46528698348675">
        <ele>38.71496510505676</ele>
        <time>2026-09-12T11:13:38Z</time>
      </trkpt>
      <trkpt lat="39.89427356857173" lon="116.46569432161843">
        <ele>38.65851503703743</ele>
        <time>2026-09-12T11:13:54Z</time>
      </trkpt>
      <trkpt lat="39.89435324186907" lon="116.46596629330416">
        <ele>39.29374088719487</ele>
        <time>2026-09-12T11:14:05Z</time>
      </trkpt>
      <trkpt lat="39.8943589336892" lon="116.46604892130738">
        <ele>38.91070474404842</ele>
        <time>2026-09-12T11:14:08Z</time>
      </trkpt>
      <trkpt lat="39.89439036977153" lon="116.46612689944149">
        <ele>39.402982893399894</ele>
        <time>2026-09-12T11:14:11Z</time>
      </trkpt>
      <trkpt lat="39.89444218199339" lon="116.466370354891">
        <ele>38.67575191985816</ele>
        <time>2026-09-12T11:14:20Z</time>
      </trkpt>
      <trkpt lat="39.89447126927333" lon="116.46643616041295">
        <ele>38.05942353140563</ele>
        <time>2026-09-12T11:14:23Z</time>
      </trkpt>
      <trkpt lat="39.894609297981155" lon="116.46654980110546">
        <ele>38.96372276637703</ele>
        <time>2026-09-12T11:14:29Z</time>
      </trkpt>
      <trkpt lat="39.89461482500482" lon="116.46665736084987">
        <ele>37.62540140002966</ele>
        <time>2026-09-12T11:14:32Z</time>
      </trkpt>
      <trkpt lat="39.89469281712332" lon="116.46672124478143">
        <ele>38.81014903448522</ele>
        <time>2026-09-12T11:14:35Z</time>
      </trkpt>
      <trkpt lat="39.894826819416224" lon="116.46668824143877">
        <ele>38.06659789197147</ele>
        <time>2026-09-12T11:14:41Z</time>
      </trkpt>
      <trkpt lat="39.89514163805843" lon="116.4666886950466">
        <ele>38.426444192416966</ele>
        <time>2026-09-12T11:14:56Z</time>
      </trkpt>
      <trkpt lat="39.89524025063128" lon="116.46671660291108">
        <ele>39.53269593324512</ele>
        <time>2026-09-12T11:15:02Z</time>
      </trkpt>
      <trkpt lat="39.89527310638993" lon="116.46676768218639">
        <ele>39.33235719241202</ele>
        <time>2026-09-12T11:15:05Z</time>
      </trkpt>
      <trkpt lat="39.8953942748332" lon="116.46673939218391">
        <ele>40.215120672248304</ele>
        <time>2026-09-12T11:15:11Z</time>
      </trkpt>
      <trkpt lat="39.895568565047746" lon="116.4667631832907">
        <ele>39.365127734839916</ele>
        <time>2026-09-12T11:15:20Z</time>
      </trkpt>
      <trkpt lat="39.89577469787128" lon="116.46674634070274">
        <ele>38.09975195303559</ele>
        <time>2026-09-12T11:15:29Z</time>
      </trkpt>
      <trkpt lat="39.89591902202081" lon="116.46670270859067">
        <ele>39.5474383123219</ele>
        <time>2026-09-12T11:15:35Z</time>
      </trkpt>
      <trkpt lat="39.896245579808934" lon="116.46669174876031">
        <ele>40.391277256421745</ele>
        <time>2026-09-12T11:15:47Z</time>
      </trkpt>
      <trkpt lat="39.8963336107384" lon="116.46671882112244">
        <ele>39.639202209189534</ele>
        <time>2026-09-12T11:15:50Z</time>
      </trkpt>
      <trkpt lat="39.896415556879" lon="116.46668480073176">
        <ele>40.591097716242075</ele>
        <time>2026-09-12T11:15:53Z</time>
      </trkpt>
      <trkpt lat="39.89673827097883" lon="116.46666388819095">
        <ele>40.40909672155976</ele>
        <time>2026-09-12T11:16:05Z</time>
      </trkpt>
      <trkpt lat="39.89706927492627" lon="116.466676720714">
        <ele>41.33114284928888</ele>
        <time>2026-09-12T11:16:18Z</time>
      </trkpt>
      <trkpt lat="39.897366330210545" lon="116.46665416574243">
        <ele>41.80598307028413</ele>
        <time>2026-09-12T11:16:30Z</time>
      </trkpt>
      <trkpt lat="39.897657257934476" lon="116.46673156872481">
        <ele>41.22291002981365</ele>
        <time>2026-09-12T11:16:42Z</time>
      </trkpt>
      <trkpt lat="39.89794925702157" lon="116.46675603556153">
        <ele>41.47242556884885</ele>
        <time>2026-09-12T11:16:54Z</time>
      </trkpt>
      <trkpt lat="39.89807205219202" lon="116.46678119855864">
        <ele>39.7129294667393</ele>
        <time>2026-09-12T11:17:00Z</time>
      </trkpt>
      <trkpt lat="39.898187881464445" lon="116.46676008847824">
        <ele>41.384811219759285</ele>
        <time>2026-09-12T11:17:09Z</time>
      </trkpt>
      <trkpt lat="39.898484145888716" lon="116.46679535521628">
        <ele>40.870372417382896</ele>
        <time>2026-09-12T11:17:33Z</time>
      </trkpt>
      <trkpt lat="39.898637532682294" lon="116.46681620528933">
        <ele>40.529527846723795</ele>
        <time>2026-09-12T11:17:45Z</time>
      </trkpt>
      <trkpt lat="39.89876727867266" lon="116.46679499590033">
        <ele>40.70292356796563</ele>
        <time>2026-09-12T11:17:54Z</time>
      </trkpt>
      <trkpt lat="39.899078576926186" lon="116.46679915128708">
        <ele>40.034680619835854</ele>
        <time>2026-09-12T11:18:16Z</time>
      </trkpt>
      <trkpt lat="39.8991494384399" lon="116.46678030561607">
        <ele>41.22187593020499</ele>
        <time>2026-09-12T11:18:22Z</time>
      </trkpt>
      <trkpt lat="39.89923438241085" lon="116.4667856315103">
        <ele>39.03409355226904</ele>
        <time>2026-09-12T11:18:28Z</time>
      </trkpt>
      <trkpt lat="39.89932263195647" lon="116.46676275458071">
        <ele>39.49577230028808</ele>
        <time>2026-09-12T11:18:34Z</time>
      </trkpt>
      <trkpt lat="39.89936870663757" lon="116.46670302633325">
        <ele>39.053854250349104</ele>
        <time>2026-09-12T11:18:40Z</time>
      </trkpt>
      <trkpt lat="39.89940002552457" lon="116.46658856904227">
        <ele>39.55450516939163</ele>
        <time>2026-09-12T11:18:46Z</time>
      </trkpt>
      <trkpt lat="39.89951589751155" lon="116.46655217398879">
        <ele>38.60524925682694</ele>
        <time>2026-09-12T11:18:52Z</time>
      </trkpt>
      <trkpt lat="39.8995584297895" lon="116.46650597094086">
        <ele>38.26084063295275</ele>
        <time>2026-09-12T11:18:55Z</time>
      </trkpt>
      <trkpt lat="39.89962608241452" lon="116.46649413092433">
        <ele>36.000071723014116</ele>
        <time>2026-09-12T11:19:01Z</time>
      </trkpt>
      <trkpt lat="39.899706860299204" lon="116.46635898442157">
        <ele>38.53524257987738</ele>
        <time>2026-09-12T11:19:07Z</time>
      </trkpt>
      <trkpt lat="39.89984614405101" lon="116.46659769258784">
        <ele>38.40391944907606</ele>
        <time>2026-09-12T11:19:13Z</time>
      </trkpt>
      <trkpt lat="39.89990210562705" lon="116.46672281029745">
        <ele>38.89569708984345</ele>
        <time>2026-09-12T11:19:16Z</time>
      </trkpt>
      <trkpt lat="39.90020708262042" lon="116.46673401152434">
        <ele>41.73780172690749</ele>
        <time>2026-09-12T11:19:28Z</time>
      </trkpt>
      <trkpt lat="39.9003059343715" lon="116.46671684075098">
        <ele>41.65600275900215</ele>
        <time>2026-09-12T11:19:31Z</time>
      </trkpt>
      <trkpt lat="39.900466049701606" lon="116.46677119958373">
        <ele>41.09267530310899</ele>
        <time>2026-09-12T11:19:37Z</time>
      </trkpt>
      <trkpt lat="39.90062485314008" lon="116.46675229394424">
        <ele>40.03816135507077</ele>
        <time>2026-09-12T11:19:43Z</time>
      </trkpt>
      <trkpt lat="39.90067582805485" lon="116.46671269669253">
        <ele>40.106318328529596</ele>
        <time>2026-09-12T11:19:46Z</time>
      </trkpt>
      <trkpt lat="39.90078597730362" lon="116.46657041308667">
        <ele>40.36277839168906</ele>
        <time>2026-09-12T11:19:52Z</time>
      </trkpt>
      <trkpt lat="39.90090107567529" lon="116.46648241425207">
        <ele>39.37601997703314</ele>
        <time>2026-09-12T11:19:58Z</time>
      </trkpt>
      <trkpt lat="39.900964508406794" lon="116.46646885855371">
        <ele>38.54922609683126</ele>
        <time>2026-09-12T11:20:01Z</time>
      </trkpt>
      <trkpt lat="39.9010965992963" lon="116.46639442413151">
        <ele>40.58860003668815</ele>
        <time>2026-09-12T11:20:07Z</time>
      </trkpt>
      <trkpt lat="39.90144183604623" lon="116.46635616628915">
        <ele>39.7772316057235</ele>
        <time>2026-09-12T11:20:19Z</time>
      </trkpt>
      <trkpt lat="39.90153244654662" lon="116.46630864792105">
        <ele>39.24676663521677</ele>
        <time>2026-09-12T11:20:23Z</time>
      </trkpt>
      <trkpt lat="39.90158432441807" lon="116.46634905721791">
        <ele>40.279027690179646</ele>
        <time>2026-09-12T11:20:27Z</time>
      </trkpt>
      <trkpt lat="39.901658288147694" lon="116.46645146707212">
        <ele>39.503281000070274</ele>
        <time>2026-09-12T11:20:31Z</time>
      </trkpt>
      <trkpt lat="39.901731632185474" lon="116.46648029133155">
        <ele>39.67529787495732</ele>
        <time>2026-09-12T11:20:35Z</time>
      </trkpt>
      <trkpt lat="39.902035564126905" lon="116.46646059415585">
        <ele>40.51508672721684</ele>
        <time>2026-09-12T11:20:47Z</time>
      </trkpt>
      <trkpt lat="39.90228129983627" lon="116.46644423289318">
        <ele>38.77325210440904</ele>
        <time>2026-09-12T11:20:58Z</time>
      </trkpt>
      <trkpt lat="39.9023600474044" lon="116.46641738614426">
        <ele>38.344465154223144</ele>
        <time>2026-09-12T11:21:01Z</time>
      </trkpt>
      <trkpt lat="39.902641744102105" lon="116.466377178307">
        <ele>38.01365620363504</ele>
        <time>2026-09-12T11:21:13Z</time>
      </trkpt>
      <trkpt lat="39.90271136912633" lon="116.46635490114498">
        <ele>38.6671725269407</ele>
        <time>2026-09-12T11:21:16Z</time>
      </trkpt>
      <trkpt lat="39.9027808676731" lon="116.46637001601819">
        <ele>37.79479715693742</ele>
        <time>2026-09-12T11:21:19Z</time>
      </trkpt>
      <trkpt lat="39.90288020310638" lon="116.46635655467244">
        <ele>37.7360507985577</ele>
        <time>2026-09-12T11:21:25Z</time>
      </trkpt>
      <trkpt lat="39.90290677785192" lon="116.46642537680852">
        <ele>37.90779939480126</ele>
        <time>2026-09-12T11:21:28Z</time>
      </trkpt>
      <trkpt lat="39.90292002280915" lon="116.46664891062612">
        <ele>36.305085223168135</ele>
        <time>2026-09-12T11:21:37Z</time>
      </trkpt>
      <trkpt lat="39.902990291747734" lon="116.46693836591353">
        <ele>35.29820449464023</ele>
        <time>2026-09-12T11:21:49Z</time>
      </trkpt>
      <trkpt lat="39.903067023577805" lon="116.46718308270128">
        <ele>35.2482091691345</ele>
        <time>2026-09-12T11:21:58Z</time>
      </trkpt>
      <trkpt lat="39.90307581404395" lon="116.46758474767827">
        <ele>35.15347518958151</ele>
        <time>2026-09-12T11:22:10Z</time>
      </trkpt>
      <trkpt lat="39.90307082256859" lon="116.46789436605587">
        <ele>36.87849805317819</ele>
        <time>2026-09-12T11:22:19Z</time>
      </trkpt>
      <trkpt lat="39.903061341173185" lon="116.46832043163845">
        <ele>38.655285832472146</ele>
        <time>2026-09-12T11:22:33Z</time>
      </trkpt>
      <trkpt lat="39.90307314640729" lon="116.46867460627122">
        <ele>38.62082119099796</ele>
        <time>2026-09-12T11:22:45Z</time>
      </trkpt>
      <trkpt lat="39.90308013001198" lon="116.46878923255956">
        <ele>38.85340991895646</ele>
        <time>2026-09-12T11:22:49Z</time>
      </trkpt>
      <trkpt lat="39.90306757707276" lon="116.46891836769886">
        <ele>38.978885389864445</ele>
        <time>2026-09-12T11:22:53Z</time>
      </trkpt>
      <trkpt lat="39.90309306730084" lon="116.46933743353696">
        <ele>39.01226754486561</ele>
        <time>2026-09-12T11:23:05Z</time>
      </trkpt>
      <trkpt lat="39.90308950248849" lon="116.46958422288512">
        <ele>38.69205604121089</ele>
        <time>2026-09-12T11:23:13Z</time>
      </trkpt>
      <trkpt lat="39.90310307098422" lon="116.46968566940491">
        <ele>39.641331711784005</ele>
        <time>2026-09-12T11:23:16Z</time>
      </trkpt>
      <trkpt lat="39.903091272579964" lon="116.47004880146419">
        <ele>39.06482646148652</ele>
        <time>2026-09-12T11:23:28Z</time>
      </trkpt>
      <trkpt lat="39.90310569859573" lon="116.47041267784843">
        <ele>39.06386728864163</ele>
        <time>2026-09-12T11:23:40Z</time>
      </trkpt>
      <trkpt lat="39.90311352292138" lon="116.4705844950434">
        <ele>39.558117624372244</ele>
        <time>2026-09-12T11:23:46Z</time>
      </trkpt>
      <trkpt lat="39.903132640551995" lon="116.4706624571946">
        <ele>39.17208272591233</ele>
        <time>2026-09-12T11:23:49Z</time>
      </trkpt>
      <trkpt lat="39.90311751457044" lon="116.47075024333402">
        <ele>38.628574727103114</ele>
        <time>2026-09-12T11:23:55Z</time>
      </trkpt>
      <trkpt lat="39.903129132381075" lon="116.47115945993579">
        <ele>37.52186431735754</ele>
        <time>2026-09-12T11:24:19Z</time>
      </trkpt>
      <trkpt lat="39.90314922043393" lon="116.47155282729601">
        <ele>37.620208396576345</ele>
        <time>2026-09-12T11:24:43Z</time>
      </trkpt>
      <trkpt lat="39.90319887364095" lon="116.47165269897356">
        <ele>38.01543733663857</ele>
        <time>2026-09-12T11:24:51Z</time>
      </trkpt>
      <trkpt lat="39.90315166007001" lon="116.4718253047739">
        <ele>37.96540381759405</ele>
        <time>2026-09-12T11:24:59Z</time>
      </trkpt>
      <trkpt lat="39.90310854361715" lon="116.47221588244336">
        <ele>37.869140098802745</ele>
        <time>2026-09-12T11:25:15Z</time>
      </trkpt>
      <trkpt lat="39.90308327351877" lon="116.47259582494877">
        <ele>37.66953790001571</ele>
        <time>2026-09-12T11:25:27Z</time>
      </trkpt>
      <trkpt lat="39.90303748092412" lon="116.47299489551699">
        <ele>38.687400800175965</ele>
        <time>2026-09-12T11:25:39Z</time>
      </trkpt>
      <trkpt lat="39.90302289109689" lon="116.47313601740458">
        <ele>39.55023462045938</ele>
        <time>2026-09-12T11:25:43Z</time>
      </trkpt>
      <trkpt lat="39.9029944469491" lon="116.47324918733649">
        <ele>39.46725940424949</ele>
        <time>2026-09-12T11:25:47Z</time>
      </trkpt>
      <trkpt lat="39.90295728842036" lon="116.47365714308525">
        <ele>38.836156788282096</ele>
        <time>2026-09-12T11:26:01Z</time>
      </trkpt>
      <trkpt lat="39.9029196992479" lon="116.47401850264772">
        <ele>40.15420215204358</ele>
        <time>2026-09-12T11:26:13Z</time>
      </trkpt>
      <trkpt lat="39.90285853153465" lon="116.4743555715309">
        <ele>39.27854758128524</ele>
        <time>2026-09-12T11:26:25Z</time>
      </trkpt>
      <trkpt lat="39.902859332201615" lon="116.47444762959819">
        <ele>39.19967051409185</ele>
        <time>2026-09-12T11:26:28Z</time>
      </trkpt>
      <trkpt lat="39.90281762816435" lon="116.47461027591775">
        <ele>37.69579610135406</ele>
        <time>2026-09-12T11:26:34Z</time>
      </trkpt>
      <trkpt lat="39.902819663266975" lon="116.47470796549534">
        <ele>38.32173449266702</ele>
        <time>2026-09-12T11:26:37Z</time>
      </trkpt>
      <trkpt lat="39.90279950871846" lon="116.4748449345541">
        <ele>38.59519592206925</ele>
        <time>2026-09-12T11:26:41Z</time>
      </trkpt>
      <trkpt lat="39.90280251027089" lon="116.4749733637541">
        <ele>39.22963919956237</ele>
        <time>2026-09-12T11:26:45Z</time>
      </trkpt>
      <trkpt lat="39.902759784763745" lon="116.47521208549804">
        <ele>39.022318228147924</ele>
        <time>2026-09-12T11:26:53Z</time>
      </trkpt>
      <trkpt lat="39.902726915681434" lon="116.47566626938332">
        <ele>36.49564152024686</ele>
        <time>2026-09-12T11:27:09Z</time>
      </trkpt>
      <trkpt lat="39.902734676630075" lon="116.47604474852231">
        <ele>36.54346817731857</ele>
        <time>2026-09-12T11:27:21Z</time>
      </trkpt>
      <trkpt lat="39.90277484537259" lon="116.4763942555009">
        <ele>36.639832174405456</ele>
        <time>2026-09-12T11:27:33Z</time>
      </trkpt>
      <trkpt lat="39.90279523676174" lon="116.47668735320666">
        <ele>35.930721355602145</ele>
        <time>2026-09-12T11:27:45Z</time>
      </trkpt>
      <trkpt lat="39.90289606736926" lon="116.47706209171265">
        <ele>36.622836127877235</ele>
        <time>2026-09-12T11:28:05Z</time>
      </trkpt>
      <trkpt lat="39.90291036555189" lon="116.47717820186729">
        <ele>36.22967546340078</ele>
        <time>2026-09-12T11:28:09Z</time>
      </trkpt>
      <trkpt lat="39.9030220904768" lon="116.47760728804478">
        <ele>34.95009190402925</ele>
        <time>2026-09-12T11:28:25Z</time>
      </trkpt>
      <trkpt lat="39.90306402707632" lon="116.477814835896">
        <ele>36.0563658606261</ele>
        <time>2026-09-12T11:28:33Z</time>
      </trkpt>
      <trkpt lat="39.90316769254237" lon="116.47821955687287">
        <ele>37.110827532596886</ele>
        <time>2026-09-12T11:28:48Z</time>
      </trkpt>
      <trkpt lat="39.903199636781764" lon="116.47833201174434">
        <ele>36.950991868041456</ele>
        <time>2026-09-12T11:28:52Z</time>
      </trkpt>
      <trkpt lat="39.90328821978181" lon="116.47875778376685">
        <ele>36.24834916833788</ele>
        <time>2026-09-12T11:29:08Z</time>
      </trkpt>
      <trkpt lat="39.90336743081378" lon="116.47899833454868">
        <ele>35.39894996210933</ele>
        <time>2026-09-12T11:29:16Z</time>
      </trkpt>
      <trkpt lat="39.90344244072087" lon="116.47945503074735">
        <ele>36.32166505418718</ele>
        <time>2026-09-12T11:29:32Z</time>
      </trkpt>
      <trkpt lat="39.903519029542345" lon="116.4798613649973">
        <ele>36.113549466244876</ele>
        <time>2026-09-12T11:29:48Z</time>
      </trkpt>
      <trkpt lat="39.903609203046386" lon="116.48023164941645">
        <ele>37.21014844626188</ele>
        <time>2026-09-12T11:30:12Z</time>
      </trkpt>
      <trkpt lat="39.903681289148366" lon="116.4806060548377">
        <ele>37.765888299793005</ele>
        <time>2026-09-12T11:30:36Z</time>
      </trkpt>
      <trkpt lat="39.903761760950246" lon="116.48103885404315">
        <ele>37.694523429498076</ele>
        <time>2026-09-12T11:30:56Z</time>
      </trkpt>
      <trkpt lat="39.903817462633974" lon="116.48139819087639">
        <ele>37.500727825798094</ele>
        <time>2026-09-12T11:31:08Z</time>
      </trkpt>
      <trkpt lat="39.90389708858396" lon="116.4818021413082">
        <ele>37.50476492382586</ele>
        <time>2026-09-12T11:31:32Z</time>
      </trkpt>
      <trkpt lat="39.90393851147363" lon="116.4819908727393">
        <ele>38.693024126812816</ele>
        <time>2026-09-12T11:31:44Z</time>
      </trkpt>
      <trkpt lat="39.90395562729131" lon="116.4823908438903">
        <ele>37.39102623704821</ele>
        <time>2026-09-12T11:32:08Z</time>
      </trkpt>
      <trkpt lat="39.903989831313304" lon="116.48276004075785">
        <ele>37.48742647469044</ele>
        <time>2026-09-12T11:32:32Z</time>
      </trkpt>
      <trkpt lat="39.90398724946362" lon="116.48311844490843">
        <ele>36.18919239938259</ele>
        <time>2026-09-12T11:32:48Z</time>
      </trkpt>
      <trkpt lat="39.904007574472885" lon="116.48325798603376">
        <ele>37.25179641507566</ele>
        <time>2026-09-12T11:32:52Z</time>
      </trkpt>
      <trkpt lat="39.90399529128288" lon="116.48366450180069">
        <ele>36.613009134307504</ele>
        <time>2026-09-12T11:33:07Z</time>
      </trkpt>
      <trkpt lat="39.903985844327046" lon="116.4838775697267">
        <ele>37.47160297073424</ele>
        <time>2026-09-12T11:33:15Z</time>
      </trkpt>
      <trkpt lat="39.90395072113753" lon="116.4839897489428">
        <ele>36.61457491107285</ele>
        <time>2026-09-12T11:33:19Z</time>
      </trkpt>
      <trkpt lat="39.903954621899636" lon="116.48425491545099">
        <ele>36.84515614900738</ele>
        <time>2026-09-12T11:33:27Z</time>
      </trkpt>
      <trkpt lat="39.903972658473876" lon="116.484312905846">
        <ele>38.08243965450674</ele>
        <time>2026-09-12T11:33:31Z</time>
      </trkpt>
      <trkpt lat="39.903972658473876" lon="116.484312905846">
        <ele>38.08243965450674</ele>
        <time>2026-09-12T11:33:43Z</time>
      </trkpt>
      <trkpt lat="39.90395939768111" lon="116.48425704895251">
        <ele>37.34016047138721</ele>
        <time>2026-09-12T11:36:51Z</time>
      </trkpt>
      <trkpt lat="39.90397977453818" lon="116.48415810808523">
        <ele>36.87343700695783</ele>
        <time>2026-09-12T11:36:59Z</time>
      </trkpt>
      <trkpt lat="39.90395830398279" lon="116.48410596519798">
        <ele>37.48866376746446</ele>
        <time>2026-09-12T11:37:03Z</time>
      </trkpt>
      <trkpt lat="39.903970635039556" lon="116.48395494623597">
        <ele>37.06609288509935</ele>
        <time>2026-09-12T11:37:10Z</time>
      </trkpt>
      <trkpt lat="39.90396274530928" lon="116.48386982472552">
        <ele>36.48525962699205</ele>
        <time>2026-09-12T11:37:13Z</time>
      </trkpt>
      <trkpt lat="39.903994497073455" lon="116.48373588332394">
        <ele>37.402665936388075</ele>
        <time>2026-09-12T11:37:19Z</time>
      </trkpt>
      <trkpt lat="39.90397361049243" lon="116.48361962145599">
        <ele>36.665013334713876</ele>
        <time>2026-09-12T11:37:25Z</time>
      </trkpt>
      <trkpt lat="39.904012512808805" lon="116.4834954747103">
        <ele>36.50257638748735</ele>
        <time>2026-09-12T11:37:28Z</time>
      </trkpt>
      <trkpt lat="39.9039801850605" lon="116.4833957467211">
        <ele>36.17589226271957</ele>
        <time>2026-09-12T11:37:31Z</time>
      </trkpt>
      <trkpt lat="39.903972003946535" lon="116.4831717134897">
        <ele>35.71480619907379</ele>
        <time>2026-09-12T11:37:40Z</time>
      </trkpt>
      <trkpt lat="39.90394629814638" lon="116.48307577822364">
        <ele>35.98773454502225</ele>
        <time>2026-09-12T11:37:46Z</time>
      </trkpt>
      <trkpt lat="39.90397395032958" lon="116.48302862820495">
        <ele>36.47045854758471</ele>
        <time>2026-09-12T11:37:49Z</time>
      </trkpt>
      <trkpt lat="39.90395664726135" lon="116.48266005471056">
        <ele>36.22761437576264</ele>
        <time>2026-09-12T11:38:00Z</time>
      </trkpt>
      <trkpt lat="39.90394616819739" lon="116.48234205899598">
        <ele>35.553438446484506</ele>
        <time>2026-09-12T11:38:12Z</time>
      </trkpt>
      <trkpt lat="39.90389666758666" lon="116.48199356365801">
        <ele>36.13969489187002</ele>
        <time>2026-09-12T11:38:24Z</time>
      </trkpt>
      <trkpt lat="39.90390310881014" lon="116.48187010412357">
        <ele>37.406828969717026</ele>
        <time>2026-09-12T11:38:28Z</time>
      </trkpt>
      <trkpt lat="39.90386699310805" lon="116.4815436707821">
        <ele>37.30854745861143</ele>
        <time>2026-09-12T11:38:40Z</time>
      </trkpt>
      <trkpt lat="39.90378510708391" lon="116.48110712222542">
        <ele>36.36692687589675</ele>
        <time>2026-09-12T11:38:56Z</time>
      </trkpt>
      <trkpt lat="39.90368693256939" lon="116.48068116458167">
        <ele>35.72143040411174</ele>
        <time>2026-09-12T11:39:12Z</time>
      </trkpt>
      <trkpt lat="39.90361454591374" lon="116.48036069298786">
        <ele>36.699224811047316</ele>
        <time>2026-09-12T11:39:24Z</time>
      </trkpt>
      <trkpt lat="39.90360701748104" lon="116.48027254367511">
        <ele>36.552596824243665</ele>
        <time>2026-09-12T11:39:27Z</time>
      </trkpt>
      <trkpt lat="39.90354780817091" lon="116.48002487470029">
        <ele>36.40092950221151</ele>
        <time>2026-09-12T11:39:36Z</time>
      </trkpt>
      <trkpt lat="39.90354386829706" lon="116.47993919316602">
        <ele>37.18197517003864</ele>
        <time>2026-09-12T11:39:39Z</time>
      </trkpt>
      <trkpt lat="39.903445465162555" lon="116.47952769521949">
        <ele>37.36053751222789</ele>
        <time>2026-09-12T11:39:54Z</time>
      </trkpt>
      <trkpt lat="39.903363690545774" lon="116.47910997849843">
        <ele>37.53397005889565</ele>
        <time>2026-09-12T11:40:10Z</time>
      </trkpt>
      <trkpt lat="39.90326219203033" lon="116.47866311851712">
        <ele>36.90391300711781</ele>
        <time>2026-09-12T11:40:26Z</time>
      </trkpt>
      <trkpt lat="39.90322573265324" lon="116.47849324468987">
        <ele>37.842953386716545</ele>
        <time>2026-09-12T11:40:38Z</time>
      </trkpt>
      <trkpt lat="39.90312458492802" lon="116.47807193813337">
        <ele>36.68268883880228</ele>
        <time>2026-09-12T11:41:09Z</time>
      </trkpt>
      <trkpt lat="39.903095851165396" lon="116.47796020066929">
        <ele>36.409492938779294</ele>
        <time>2026-09-12T11:41:13Z</time>
      </trkpt>
      <trkpt lat="39.903088665413286" lon="116.47786449813992">
        <ele>36.0607010954991</ele>
        <time>2026-09-12T11:41:17Z</time>
      </trkpt>
      <trkpt lat="39.902996030486854" lon="116.47751303632852">
        <ele>34.34978125989437</ele>
        <time>2026-09-12T11:41:30Z</time>
      </trkpt>
      <trkpt lat="39.90291689739632" lon="116.47712424659925">
        <ele>35.21242049895227</ele>
        <time>2026-09-12T11:41:45Z</time>
      </trkpt>
      <trkpt lat="39.902862663136844" lon="116.47689051110947">
        <ele>35.11506686732173</ele>
        <time>2026-09-12T11:41:54Z</time>
      </trkpt>
      <trkpt lat="39.902829432506884" lon="116.47680896936511">
        <ele>36.30432332120836</ele>
        <time>2026-09-12T11:41:57Z</time>
      </trkpt>
      <trkpt lat="39.90279689487434" lon="116.4764533488728">
        <ele>35.65987253468484</ele>
        <time>2026-09-12T11:42:15Z</time>
      </trkpt>
      <trkpt lat="39.90278155929826" lon="116.47631706485167">
        <ele>35.508420621976256</ele>
        <time>2026-09-12T11:42:27Z</time>
      </trkpt>
      <trkpt lat="39.90275948073246" lon="116.47626291236976">
        <ele>34.84266250021756</ele>
        <time>2026-09-12T11:42:40Z</time>
      </trkpt>
      <trkpt lat="39.90272232842853" lon="116.47582931436712">
        <ele>35.63218327797949</ele>
        <time>2026-09-12T11:43:04Z</time>
      </trkpt>
      <trkpt lat="39.902730780604074" lon="116.47545727267416">
        <ele>36.29558147396892</ele>
        <time>2026-09-12T11:43:26Z</time>
      </trkpt>
      <trkpt lat="39.90277646047833" lon="116.47503841136296">
        <ele>36.572634883224964</ele>
        <time>2026-09-12T11:43:47Z</time>
      </trkpt>
      <trkpt lat="39.902822186459666" lon="116.47465948800358">
        <ele>36.50217944942415</ele>
        <time>2026-09-12T11:43:59Z</time>
      </trkpt>
      <trkpt lat="39.90284197318498" lon="116.47457136812854">
        <ele>37.48604698386043</ele>
        <time>2026-09-12T11:44:02Z</time>
      </trkpt>
      <trkpt lat="39.902837535925386" lon="116.47449307697464">
        <ele>36.44819620065391</ele>
        <time>2026-09-12T11:44:05Z</time>
      </trkpt>
      <trkpt lat="39.90288968703348" lon="116.47410634723083">
        <ele>37.47096714004874</ele>
        <time>2026-09-12T11:44:20Z</time>
      </trkpt>
      <trkpt lat="39.90293480721464" lon="116.47374986375408">
        <ele>36.77954194135964</ele>
        <time>2026-09-12T11:44:35Z</time>
      </trkpt>
      <trkpt lat="39.90299224466454" lon="116.47335580810417">
        <ele>38.15272200200707</ele>
        <time>2026-09-12T11:44:50Z</time>
      </trkpt>
      <trkpt lat="39.90304968280426" lon="116.47299361041745">
        <ele>37.11458072811365</ele>
        <time>2026-09-12T11:45:05Z</time>
      </trkpt>
      <trkpt lat="39.90305711239837" lon="116.4728258725141">
        <ele>37.19008184503764</ele>
        <time>2026-09-12T11:45:11Z</time>
      </trkpt>
      <trkpt lat="39.90309552354102" lon="116.47246361682318">
        <ele>38.14814456459135</ele>
        <time>2026-09-12T11:45:26Z</time>
      </trkpt>
      <trkpt lat="39.90312543024755" lon="116.47202260418887">
        <ele>39.47961283940822</ele>
        <time>2026-09-12T11:45:44Z</time>
      </trkpt>
      <trkpt lat="39.90314081467134" lon="116.47163861547978">
        <ele>38.08093040343374</ele>
        <time>2026-09-12T11:46:00Z</time>
      </trkpt>
      <trkpt lat="39.90316716528114" lon="116.47147946220502">
        <ele>38.91094724088907</ele>
        <time>2026-09-12T11:46:08Z</time>
      </trkpt>
      <trkpt lat="39.9031173002117" lon="116.4710229306039">
        <ele>39.52301143389195</ele>
        <time>2026-09-12T11:46:20Z</time>
      </trkpt>
      <trkpt lat="39.90312461524425" lon="116.4708423061274">
        <ele>38.1746999071911</ele>
        <time>2026-09-12T11:46:26Z</time>
      </trkpt>
      <trkpt lat="39.90311254671121" lon="116.47046968037496">
        <ele>38.820422171615064</ele>
        <time>2026-09-12T11:46:41Z</time>
      </trkpt>
      <trkpt lat="39.90309685364498" lon="116.4700840209713">
        <ele>39.693340204656124</ele>
        <time>2026-09-12T11:46:56Z</time>
      </trkpt>
      <trkpt lat="39.903086876308976" lon="116.46963684754377">
        <ele>38.5520602921024</ele>
        <time>2026-09-12T11:47:17Z</time>
      </trkpt>
      <trkpt lat="39.90308708222161" lon="116.46921962513139">
        <ele>39.2844694852829</ele>
        <time>2026-09-12T11:47:46Z</time>
      </trkpt>
      <trkpt lat="39.90308269392393" lon="116.46881625231727">
        <ele>38.765653755515814</ele>
        <time>2026-09-12T11:48:10Z</time>
      </trkpt>
      <trkpt lat="39.903089381366414" lon="116.46843494422264">
        <ele>38.09638990089297</ele>
        <time>2026-09-12T11:48:34Z</time>
      </trkpt>
      <trkpt lat="39.90308568407145" lon="116.4680792729039">
        <ele>38.40582813229412</ele>
        <time>2026-09-12T11:48:54Z</time>
      </trkpt>
      <trkpt lat="39.903075348462245" lon="116.46768774114483">
        <ele>37.90001813136041</ele>
        <time>2026-09-12T11:49:20Z</time>
      </trkpt>
      <trkpt lat="39.903057860508724" lon="116.4673034197703">
        <ele>37.2334741698578</ele>
        <time>2026-09-12T11:49:46Z</time>
      </trkpt>
      <trkpt lat="39.903053744992214" lon="116.46704262353603">
        <ele>38.54225127957761</ele>
        <time>2026-09-12T11:50:06Z</time>
      </trkpt>
      <trkpt lat="39.90294534190111" lon="116.46675472809244">
        <ele>39.16332577075809</ele>
        <time>2026-09-12T11:50:58Z</time>
      </trkpt>
      <trkpt lat="39.90289421111911" lon="116.46657461852084">
        <ele>38.949266692623496</ele>
        <time>2026-09-12T11:51:14Z</time>
      </trkpt>
      <trkpt lat="39.90286017818023" lon="116.46638251466838">
        <ele>39.396006618626416</ele>
        <time>2026-09-12T11:51:30Z</time>
      </trkpt>
      <trkpt lat="39.902722272131626" lon="116.46639957681897">
        <ele>38.41695333365351</ele>
        <time>2026-09-12T11:51:46Z</time>
      </trkpt>
      <trkpt lat="39.90265190309247" lon="116.46633789601093">
        <ele>40.85875144135207</ele>
        <time>2026-09-12T11:51:53Z</time>
      </trkpt>
      <trkpt lat="39.902624740104166" lon="116.46628236993774">
        <ele>40.11070927605033</ele>
        <time>2026-09-12T11:51:57Z</time>
      </trkpt>
      <trkpt lat="39.90254974520214" lon="116.46624379244562">
        <ele>39.9813047638163</ele>
        <time>2026-09-12T11:52:05Z</time>
      </trkpt>
      <trkpt lat="39.902244667660234" lon="116.46627208323494">
        <ele>39.92999928537756</ele>
        <time>2026-09-12T11:52:33Z</time>
      </trkpt>
      <trkpt lat="39.90211381791579" lon="116.46625946810609">
        <ele>40.47544873598963</ele>
        <time>2026-09-12T11:52:45Z</time>
      </trkpt>
      <trkpt lat="39.90179102569658" lon="116.46631745939509">
        <ele>40.77323501184583</ele>
        <time>2026-09-12T11:53:13Z</time>
      </trkpt>
      <trkpt lat="39.901516415666606" lon="116.46632554282574">
        <ele>40.19796898216009</ele>
        <time>2026-09-12T11:53:33Z</time>
      </trkpt>
      <trkpt lat="39.90116395231353" lon="116.46641691631025">
        <ele>41.81395064108074</ele>
        <time>2026-09-12T11:53:49Z</time>
      </trkpt>
      <trkpt lat="39.90102129465206" lon="116.46645404388516">
        <ele>40.24528554826975</ele>
        <time>2026-09-12T11:53:56Z</time>
      </trkpt>
      <trkpt lat="39.900963701447345" lon="116.46642191054485">
        <ele>40.84017625916749</ele>
        <time>2026-09-12T11:53:59Z</time>
      </trkpt>
      <trkpt lat="39.90081961874073" lon="116.46648357380067">
        <ele>40.36839466821402</ele>
        <time>2026-09-12T11:54:06Z</time>
      </trkpt>
      <trkpt lat="39.900630432619906" lon="116.46668662502985">
        <ele>38.95318882819265</ele>
        <time>2026-09-12T11:54:18Z</time>
      </trkpt>
      <trkpt lat="39.90048318595489" lon="116.46674418057917">
        <ele>39.02870452683419</ele>
        <time>2026-09-12T11:54:26Z</time>
      </trkpt>
      <trkpt lat="39.90039324800836" lon="116.4667517156291">
        <ele>39.95444801077247</ele>
        <time>2026-09-12T11:54:30Z</time>
      </trkpt>
      <trkpt lat="39.90021523298975" lon="116.4667075161812">
        <ele>39.38294314593077</ele>
        <time>2026-09-12T11:54:42Z</time>
      </trkpt>
      <trkpt lat="39.89997539290134" lon="116.46672401911626">
        <ele>39.552984298206866</ele>
        <time>2026-09-12T11:55:10Z</time>
      </trkpt>
      <trkpt lat="39.8998833820157" lon="116.46670457332309">
        <ele>40.96450849995017</ele>
        <time>2026-09-12T11:55:14Z</time>
      </trkpt>
      <trkpt lat="39.899848570380954" lon="116.4666357330722">
        <ele>40.714041034691036</ele>
        <time>2026-09-12T11:55:18Z</time>
      </trkpt>
      <trkpt lat="39.89978107143217" lon="116.46656162810422">
        <ele>39.417221527546644</ele>
        <time>2026-09-12T11:55:22Z</time>
      </trkpt>
      <trkpt lat="39.89966005735463" lon="116.46629573040924">
        <ele>39.446112054400146</ele>
        <time>2026-09-12T11:55:34Z</time>
      </trkpt>
      <trkpt lat="39.89952011222881" lon="116.46647851479926">
        <ele>40.738550207577646</ele>
        <time>2026-09-12T11:55:38Z</time>
      </trkpt>
      <trkpt lat="39.89944451902218" lon="116.4664701769204">
        <ele>40.34160661324859</ele>
        <time>2026-09-12T11:55:46Z</time>
      </trkpt>
      <trkpt lat="39.89937969443388" lon="116.46643493629301">
        <ele>39.767177822999656</ele>
        <time>2026-09-12T11:55:50Z</time>
      </trkpt>
      <trkpt lat="39.89933864425322" lon="116.46637771327414">
        <ele>40.56763568241149</ele>
        <time>2026-09-12T11:56:08Z</time>
      </trkpt>
      <trkpt lat="39.899273698607075" lon="116.46640059187725">
        <ele>39.41954442579299</ele>
        <time>2026-09-12T11:56:23Z</time>
      </trkpt>
      <trkpt lat="39.899240145332826" lon="116.4664562228885">
        <ele>40.86512195132673</ele>
        <time>2026-09-12T11:56:31Z</time>
      </trkpt>
      <trkpt lat="39.89924365907759" lon="116.46652874824187">
        <ele>40.03684483654797</ele>
        <time>2026-09-12T11:56:35Z</time>
      </trkpt>
      <trkpt lat="39.89921162354621" lon="116.46658211250636">
        <ele>40.018396155908704</ele>
        <time>2026-09-12T11:56:39Z</time>
      </trkpt>
      <trkpt lat="39.89892823967089" lon="116.4665697107274">
        <ele>39.18574586790055</ele>
        <time>2026-09-12T11:56:51Z</time>
      </trkpt>
      <trkpt lat="39.898810581286234" lon="116.46659436993966">
        <ele>40.055812074802816</ele>
        <time>2026-09-12T11:56:55Z</time>
      </trkpt>
      <trkpt lat="39.89866299534734" lon="116.46655263411758">
        <ele>39.855676267296076</ele>
        <time>2026-09-12T11:57:03Z</time>
      </trkpt>
      <trkpt lat="39.89856657038262" lon="116.4665757058385">
        <ele>41.137806084007025</ele>
        <time>2026-09-12T11:57:07Z</time>
      </trkpt>
      <trkpt lat="39.89840662026342" lon="116.46657050471397">
        <ele>40.38902813009918</ele>
        <time>2026-09-12T11:57:15Z</time>
      </trkpt>
      <trkpt lat="39.89830022979555" lon="116.46658988712103">
        <ele>40.384127288125455</ele>
        <time>2026-09-12T11:57:19Z</time>
      </trkpt>
      <trkpt lat="39.89813277404223" lon="116.4665661704424">
        <ele>40.99309482984245</ele>
        <time>2026-09-12T11:57:27Z</time>
      </trkpt>
      <trkpt lat="39.89796562666674" lon="116.46656178487775">
        <ele>40.38838511519134</ele>
        <time>2026-09-12T11:57:35Z</time>
      </trkpt>
      <trkpt lat="39.89781668942207" lon="116.46650882982802">
        <ele>41.40289793536067</ele>
        <time>2026-09-12T11:57:43Z</time>
      </trkpt>
      <trkpt lat="39.897719145531134" lon="116.46652339721422">
        <ele>41.07423334475607</ele>
        <time>2026-09-12T11:57:47Z</time>
      </trkpt>
      <trkpt lat="39.89750761508626" lon="116.46660608129952">
        <ele>40.68888971582055</ele>
        <time>2026-09-12T11:57:59Z</time>
      </trkpt>
      <trkpt lat="39.897358926381266" lon="116.46659293862976">
        <ele>40.64985974226147</ele>
        <time>2026-09-12T11:58:06Z</time>
      </trkpt>
      <trkpt lat="39.89721548617466" lon="116.46661725786764">
        <ele>41.31023152451962</ele>
        <time>2026-09-12T11:58:13Z</time>
      </trkpt>
      <trkpt lat="39.897092538648685" lon="116.46659711460346">
        <ele>41.04045547172427</ele>
        <time>2026-09-12T11:58:20Z</time>
      </trkpt>
      <trkpt lat="39.89704005577775" lon="116.46654156735212">
        <ele>40.070616067387164</ele>
        <time>2026-09-12T11:58:24Z</time>
      </trkpt>
      <trkpt lat="39.89670014221991" lon="116.46653522436098">
        <ele>40.37335231807083</ele>
        <time>2026-09-12T11:58:48Z</time>
      </trkpt>
    </trkseg>
  </trk>
</gpx>