<?xml version="1.0" encoding="UTF-8"?>
<gpx xmlns="http://www.topografix.com/GPX/1/1" xmlns:gpxtpx="http://www.garmin.com/xmlschemas/TrackPointExtension/v1" xmlns:xsi="http://www.w3.org/2001/XMLSchema-instance" xsi:schemaLocation="http://www.topografix.com/GPX/1/1 http://www.topografix.com/GPX/1/1/gpx.xsd" version="1.1" creator="gpx.py -- https://github.com/tkrajina/gpxpy">
  <trk>
    <name>gpx from keep</name>
    <type>Run</type>
    <trkseg>
      <trkpt lat="39.894624405349774" lon="116.46404866825252">
        <ele>40.57465934753418</ele>
        <time>2026-07-20T23:45:50Z</time>
      </trkpt>
      <trkpt lat="39.894671062272586" lon="116.46384687854247">
        <ele>44.34046745300293</ele>
        <time>2026-07-20T23:45:54Z</time>
      </trkpt>
      <trkpt lat="39.89381009171382" lon="116.46365951740927">
        <ele>41.683607233688235</ele>
        <time>2026-07-20T23:46:10Z</time>
      </trkpt>
      <trkpt lat="39.893815517158544" lon="116.46359436311128">
        <ele>41.78974728286266</ele>
        <time>2026-07-20T23:46:20Z</time>
      </trkpt>
      <trkpt lat="39.89379670406474" lon="116.46345012154251">
        <ele>40.248245828785</ele>
        <time>2026-07-20T23:46:27Z</time>
      </trkpt>
      <trkpt lat="39.89381052893548" lon="116.4633698750758">
        <ele>40.4522049119696</ele>
        <time>2026-07-20T23:46:34Z</time>
      </trkpt>
      <trkpt lat="39.89374568791282" lon="116.4633113718444">
        <ele>39.422820368781686</ele>
        <time>2026-07-20T23:46:45Z</time>
      </trkpt>
      <trkpt lat="39.89377051322767" lon="116.46321737029638">
        <ele>38.06584423594177</ele>
        <time>2026-07-20T23:46:55Z</time>
      </trkpt>
      <trkpt lat="39.893855845092396" lon="116.46313523169155">
        <ele>37.803333449177444</ele>
        <time>2026-07-20T23:47:03Z</time>
      </trkpt>
      <trkpt lat="39.893906347244936" lon="116.46316706426238">
        <ele>39.54747806955129</ele>
        <time>2026-07-20T23:47:16Z</time>
      </trkpt>
      <trkpt lat="39.893914110450936" lon="116.46346415979578">
        <ele>39.14052755665034</ele>
        <time>2026-07-20T23:47:38Z</time>
      </trkpt>
      <trkpt lat="39.893895732116235" lon="116.46360528528263">
        <ele>37.73599617090076</ele>
        <time>2026-07-20T23:47:49Z</time>
      </trkpt>
      <trkpt lat="39.89391177867723" lon="116.46367657747086">
        <ele>39.245087806135416</ele>
        <time>2026-07-20T23:47:53Z</time>
      </trkpt>
      <trkpt lat="39.89388256485034" lon="116.46374081086422">
        <ele>38.20975841488689</ele>
        <time>2026-07-20T23:47:57Z</time>
      </trkpt>
      <trkpt lat="39.89392547224744" lon="116.46382739675698">
        <ele>41.31258921418339</ele>
        <time>2026-07-20T23:48:03Z</time>
      </trkpt>
      <trkpt lat="39.89389173013675" lon="116.46389207145167">
        <ele>41.03488775156438</ele>
        <time>2026-07-20T23:48:09Z</time>
      </trkpt>
      <trkpt lat="39.89392121263879" lon="116.46408255450002">
        <ele>39.68093085940927</ele>
        <time>2026-07-20T23:48:21Z</time>
      </trkpt>
      <trkpt lat="39.89391175540339" lon="116.46423020247059">
        <ele>40.08792203385383</ele>
        <time>2026-07-20T23:48:33Z</time>
      </trkpt>
      <trkpt lat="39.89400891568318" lon="116.46453393342179">
        <ele>38.55915550608188</ele>
        <time>2026-07-20T23:48:51Z</time>
      </trkpt>
      <trkpt lat="39.89401038381054" lon="116.46464179351655">
        <ele>38.8581378320232</ele>
        <time>2026-07-20T23:48:57Z</time>
      </trkpt>
      <trkpt lat="39.89399395612382" lon="116.4647279927378">
        <ele>36.85804876219481</ele>
        <time>2026-07-20T23:49:03Z</time>
      </trkpt>
      <trkpt lat="39.89407956055517" lon="116.4650280277341">
        <ele>38.79201654717326</ele>
        <time>2026-07-20T23:49:18Z</time>
      </trkpt>
      <trkpt lat="39.89406818652212" lon="116.46515937106288">
        <ele>39.528949819505215</ele>
        <time>2026-07-20T23:49:24Z</time>
      </trkpt>
      <trkpt lat="39.89415885009965" lon="116.46553070343309">
        <ele>38.55650142673403</ele>
        <time>2026-07-20T23:49:45Z</time>
      </trkpt>
      <trkpt lat="39.89419100230311" lon="116.46559182365651">
        <ele>38.93705517333001</ele>
        <time>2026-07-20T23:49:48Z</time>
      </trkpt>
      <trkpt lat="39.894191561727624" lon="116.46573617459384">
        <ele>38.691456941887736</ele>
        <time>2026-07-20T23:49:54Z</time>
      </trkpt>
      <trkpt lat="39.894248375165034" lon="116.46583567198908">
        <ele>38.53408860322088</ele>
        <time>2026-07-20T23:50:00Z</time>
      </trkpt>
      <trkpt lat="39.89426796672305" lon="116.46604025179272">
        <ele>38.612953963689506</ele>
        <time>2026-07-20T23:50:09Z</time>
      </trkpt>
      <trkpt lat="39.894331136397355" lon="116.4662339398429">
        <ele>39.049541518092155</ele>
        <time>2026-07-20T23:50:21Z</time>
      </trkpt>
      <trkpt lat="39.89437551456929" lon="116.46626084998807">
        <ele>38.39627440366894</ele>
        <time>2026-07-20T23:50:25Z</time>
      </trkpt>
      <trkpt lat="39.89437857633465" lon="116.46645086277705">
        <ele>39.134286128915846</ele>
        <time>2026-07-20T23:50:41Z</time>
      </trkpt>
      <trkpt lat="39.89431931498946" lon="116.46623192181605">
        <ele>39.47062834352255</ele>
        <time>2026-07-20T23:51:13Z</time>
      </trkpt>
      <trkpt lat="39.89431832199793" lon="116.46608543418134">
        <ele>38.297908493317664</ele>
        <time>2026-07-20T23:51:22Z</time>
      </trkpt>
      <trkpt lat="39.89434102139526" lon="116.46619460688069">
        <ele>38.74068528506905</ele>
        <time>2026-07-20T23:51:28Z</time>
      </trkpt>
      <trkpt lat="39.89433479464339" lon="116.46632166213315">
        <ele>38.5853042146191</ele>
        <time>2026-07-20T23:51:31Z</time>
      </trkpt>
      <trkpt lat="39.894379533252334" lon="116.46630754861377">
        <ele>37.691525200381875</ele>
        <time>2026-07-20T23:51:34Z</time>
      </trkpt>
      <trkpt lat="39.894395895723626" lon="116.4663948327873">
        <ele>39.006291455589235</ele>
        <time>2026-07-20T23:51:37Z</time>
      </trkpt>
      <trkpt lat="39.89444488887247" lon="116.46642850284886">
        <ele>36.64985213521868</ele>
        <time>2026-07-20T23:51:43Z</time>
      </trkpt>
      <trkpt lat="39.894592780818094" lon="116.46643080760009">
        <ele>37.6985152438283</ele>
        <time>2026-07-20T23:51:49Z</time>
      </trkpt>
      <trkpt lat="39.89465610644476" lon="116.46640356345179">
        <ele>37.691418710164726</ele>
        <time>2026-07-20T23:51:52Z</time>
      </trkpt>
      <trkpt lat="39.894767487718006" lon="116.46646587513202">
        <ele>37.93572779279202</ele>
        <time>2026-07-20T23:51:58Z</time>
      </trkpt>
      <trkpt lat="39.89490726034766" lon="116.46644938532746">
        <ele>38.43985478114337</ele>
        <time>2026-07-20T23:52:04Z</time>
      </trkpt>
      <trkpt lat="39.894970824114914" lon="116.46646509192003">
        <ele>37.31190073117614</ele>
        <time>2026-07-20T23:52:07Z</time>
      </trkpt>
      <trkpt lat="39.89504855985072" lon="116.46645435974999">
        <ele>38.26720837503672</ele>
        <time>2026-07-20T23:52:10Z</time>
      </trkpt>
      <trkpt lat="39.89509818341153" lon="116.46650715276922">
        <ele>38.88143851235509</ele>
        <time>2026-07-20T23:52:13Z</time>
      </trkpt>
      <trkpt lat="39.895171770294816" lon="116.4666946612705">
        <ele>38.74304084666073</ele>
        <time>2026-07-20T23:52:24Z</time>
      </trkpt>
      <trkpt lat="39.89524899173771" lon="116.46670349051692">
        <ele>38.14371795486659</ele>
        <time>2026-07-20T23:52:32Z</time>
      </trkpt>
      <trkpt lat="39.895309196862335" lon="116.46676456188287">
        <ele>38.819427041336894</ele>
        <time>2026-07-20T23:52:36Z</time>
      </trkpt>
      <trkpt lat="39.89538411105956" lon="116.46675259959623">
        <ele>37.81111480202526</ele>
        <time>2026-07-20T23:52:44Z</time>
      </trkpt>
      <trkpt lat="39.89545039422185" lon="116.46678773441852">
        <ele>39.26368679944426</ele>
        <time>2026-07-20T23:52:48Z</time>
      </trkpt>
      <trkpt lat="39.89552085001409" lon="116.46678979885704">
        <ele>38.06914949323982</ele>
        <time>2026-07-20T23:52:52Z</time>
      </trkpt>
      <trkpt lat="39.89562668033453" lon="116.46673558295203">
        <ele>38.08108764607459</ele>
        <time>2026-07-20T23:52:56Z</time>
      </trkpt>
      <trkpt lat="39.89567189815145" lon="116.46680667614802">
        <ele>38.535730231553316</ele>
        <time>2026-07-20T23:53:00Z</time>
      </trkpt>
      <trkpt lat="39.89570034950144" lon="116.46674860579792">
        <ele>39.32396136038005</ele>
        <time>2026-07-20T23:53:04Z</time>
      </trkpt>
      <trkpt lat="39.89568946759592" lon="116.46673971818028">
        <ele>37.86079809907824</ele>
        <time>2026-07-20T23:53:16Z</time>
      </trkpt>
      <trkpt lat="39.89569937380783" lon="116.46656585355605">
        <ele>37.965849567204714</ele>
        <time>2026-07-20T23:53:36Z</time>
      </trkpt>
      <trkpt lat="39.89568411890974" lon="116.46641282548849">
        <ele>38.30495535302907</ele>
        <time>2026-07-20T23:53:40Z</time>
      </trkpt>
      <trkpt lat="39.895720582606984" lon="116.46634053672075">
        <ele>38.89619990065694</ele>
        <time>2026-07-20T23:53:44Z</time>
      </trkpt>
      <trkpt lat="39.895691449145566" lon="116.46612904568538">
        <ele>38.310526496730745</ele>
        <time>2026-07-20T23:53:52Z</time>
      </trkpt>
      <trkpt lat="39.895698280899495" lon="116.46601681450221">
        <ele>39.72344230674207</ele>
        <time>2026-07-20T23:53:56Z</time>
      </trkpt>
      <trkpt lat="39.89573091850746" lon="116.46593146902933">
        <ele>41.4199846945703</ele>
        <time>2026-07-20T23:54:00Z</time>
      </trkpt>
      <trkpt lat="39.895687135580374" lon="116.46583860263266">
        <ele>40.63645682577044</ele>
        <time>2026-07-20T23:54:04Z</time>
      </trkpt>
      <trkpt lat="39.89571092290415" lon="116.46576115438387">
        <ele>39.804434502497315</ele>
        <time>2026-07-20T23:54:08Z</time>
      </trkpt>
      <trkpt lat="39.89570965807204" lon="116.46565146430133">
        <ele>40.53968079574406</ele>
        <time>2026-07-20T23:54:12Z</time>
      </trkpt>
      <trkpt lat="39.89574375417862" lon="116.46556506509368">
        <ele>40.06881460081786</ele>
        <time>2026-07-20T23:54:16Z</time>
      </trkpt>
      <trkpt lat="39.895657129546265" lon="116.46557388059476">
        <ele>38.63805094920099</ele>
        <time>2026-07-20T23:54:20Z</time>
      </trkpt>
      <trkpt lat="39.89574014902931" lon="116.46547414712836">
        <ele>40.233175199478865</ele>
        <time>2026-07-20T23:54:28Z</time>
      </trkpt>
      <trkpt lat="39.89567756583974" lon="116.46550265446957">
        <ele>40.61745176743716</ele>
        <time>2026-07-20T23:54:36Z</time>
      </trkpt>
      <trkpt lat="39.89576707383163" lon="116.46544944045687">
        <ele>39.378933262079954</ele>
        <time>2026-07-20T23:54:44Z</time>
      </trkpt>
      <trkpt lat="39.89577183371005" lon="116.46538654470743">
        <ele>38.71914307679981</ele>
        <time>2026-07-20T23:54:56Z</time>
      </trkpt>
      <trkpt lat="39.89588698159432" lon="116.46527661662257">
        <ele>40.303397993557155</ele>
        <time>2026-07-20T23:55:04Z</time>
      </trkpt>
      <trkpt lat="39.89594034513341" lon="116.46520088787953">
        <ele>38.70250923931599</ele>
        <time>2026-07-20T23:55:08Z</time>
      </trkpt>
      <trkpt lat="39.89597213669326" lon="116.46512237069965">
        <ele>39.07284616585821</ele>
        <time>2026-07-20T23:55:20Z</time>
      </trkpt>
      <trkpt lat="39.89595952370766" lon="116.46500923572508">
        <ele>39.136864978820086</ele>
        <time>2026-07-20T23:55:24Z</time>
      </trkpt>
      <trkpt lat="39.895989910767284" lon="116.46473430764172">
        <ele>39.83356784284115</ele>
        <time>2026-07-20T23:55:32Z</time>
      </trkpt>
      <trkpt lat="39.89598734870592" lon="116.46458129270144">
        <ele>39.070244926027954</ele>
        <time>2026-07-20T23:55:36Z</time>
      </trkpt>
      <trkpt lat="39.89594996297818" lon="116.46441461517169">
        <ele>38.66975194402039</ele>
        <time>2026-07-20T23:55:40Z</time>
      </trkpt>
      <trkpt lat="39.89597826206695" lon="116.46425968947001">
        <ele>39.39377769548446</ele>
        <time>2026-07-20T23:55:44Z</time>
      </trkpt>
      <trkpt lat="39.89600440792009" lon="116.46398337119136">
        <ele>39.69090836774558</ele>
        <time>2026-07-20T23:55:52Z</time>
      </trkpt>
      <trkpt lat="39.89596992399896" lon="116.46380173823998">
        <ele>39.786482146941125</ele>
        <time>2026-07-20T23:55:56Z</time>
      </trkpt>
      <trkpt lat="39.89599299852985" lon="116.46368022306848">
        <ele>39.24537056311965</ele>
        <time>2026-07-20T23:56:00Z</time>
      </trkpt>
      <trkpt lat="39.89598753292677" lon="116.46355371228348">
        <ele>38.849052677862346</ele>
        <time>2026-07-20T23:56:04Z</time>
      </trkpt>
      <trkpt lat="39.895928175966475" lon="116.46343291935581">
        <ele>39.02843798417598</ele>
        <time>2026-07-20T23:56:08Z</time>
      </trkpt>
      <trkpt lat="39.89595380989845" lon="116.4633170489301">
        <ele>39.43353239260614</ele>
        <time>2026-07-20T23:56:12Z</time>
      </trkpt>
      <trkpt lat="39.89594139946108" lon="116.46312242255821">
        <ele>39.4010954098776</ele>
        <time>2026-07-20T23:56:16Z</time>
      </trkpt>
      <trkpt lat="39.89599121802931" lon="116.46267041065316">
        <ele>39.60215543676168</ele>
        <time>2026-07-20T23:56:31Z</time>
      </trkpt>
      <trkpt lat="39.895959575991846" lon="116.46252854089678">
        <ele>39.874094208702445</ele>
        <time>2026-07-20T23:56:35Z</time>
      </trkpt>
      <trkpt lat="39.89598091750773" lon="116.46222538725547">
        <ele>39.64599492959678</ele>
        <time>2026-07-20T23:56:47Z</time>
      </trkpt>
      <trkpt lat="39.89597382047082" lon="116.46213326584117">
        <ele>40.11648117750883</ele>
        <time>2026-07-20T23:56:55Z</time>
      </trkpt>
      <trkpt lat="39.896024668454025" lon="116.46187384470764">
        <ele>40.708195488899946</ele>
        <time>2026-07-20T23:57:03Z</time>
      </trkpt>
      <trkpt lat="39.895988957464475" lon="116.46172466227168">
        <ele>40.33408285025507</ele>
        <time>2026-07-20T23:57:07Z</time>
      </trkpt>
      <trkpt lat="39.89604281469486" lon="116.46164970381645">
        <ele>40.4623435754329</ele>
        <time>2026-07-20T23:57:11Z</time>
      </trkpt>
      <trkpt lat="39.896015505902646" lon="116.4615647060453">
        <ele>39.38326233904809</ele>
        <time>2026-07-20T23:57:15Z</time>
      </trkpt>
      <trkpt lat="39.896027336885304" lon="116.4614177844372">
        <ele>40.15309342928231</ele>
        <time>2026-07-20T23:57:19Z</time>
      </trkpt>
      <trkpt lat="39.89601076768724" lon="116.46120835694325">
        <ele>39.94129872415215</ele>
        <time>2026-07-20T23:57:27Z</time>
      </trkpt>
      <trkpt lat="39.8960646799044" lon="116.46111832441213">
        <ele>40.72925385646522</ele>
        <time>2026-07-20T23:57:39Z</time>
      </trkpt>
      <trkpt lat="39.89601467336388" lon="116.46115024111623">
        <ele>40.81676944810897</ele>
        <time>2026-07-20T23:57:43Z</time>
      </trkpt>
      <trkpt lat="39.895998227384254" lon="116.46104697620007">
        <ele>40.53379392530769</ele>
        <time>2026-07-20T23:58:34Z</time>
      </trkpt>
      <trkpt lat="39.89601211714774" lon="116.46081852681378">
        <ele>40.339091289788485</ele>
        <time>2026-07-20T23:58:42Z</time>
      </trkpt>
      <trkpt lat="39.895970934151414" lon="116.46042995084363">
        <ele>39.65506250131875</ele>
        <time>2026-07-20T23:59:14Z</time>
      </trkpt>
      <trkpt lat="39.89601530473503" lon="116.46012753341795">
        <ele>41.098791592754424</ele>
        <time>2026-07-20T23:59:34Z</time>
      </trkpt>
      <trkpt lat="39.895959868146605" lon="116.45989475353285">
        <ele>40.017135188914835</ele>
        <time>2026-07-20T23:59:54Z</time>
      </trkpt>
      <trkpt lat="39.895948391591865" lon="116.45976483242345">
        <ele>41.01568152848631</ele>
        <time>2026-07-21T00:00:02Z</time>
      </trkpt>
      <trkpt lat="39.89598659824806" lon="116.45940129391295">
        <ele>41.94120063818991</ele>
        <time>2026-07-21T00:00:26Z</time>
      </trkpt>
      <trkpt lat="39.896035867414696" lon="116.45904905741713">
        <ele>42.339781121350825</ele>
        <time>2026-07-21T00:00:54Z</time>
      </trkpt>
      <trkpt lat="39.89605870798599" lon="116.45897106516574">
        <ele>41.57727864012122</ele>
        <time>2026-07-21T00:01:02Z</time>
      </trkpt>
      <trkpt lat="39.89603004144931" lon="116.45886412852425">
        <ele>41.94843953009695</ele>
        <time>2026-07-21T00:01:10Z</time>
      </trkpt>
      <trkpt lat="39.89606430439285" lon="116.45865633356591">
        <ele>39.60236200410873</ele>
        <time>2026-07-21T00:01:30Z</time>
      </trkpt>
      <trkpt lat="39.89604430326498" lon="116.45856440013793">
        <ele>39.86993711069226</ele>
        <time>2026-07-21T00:01:38Z</time>
      </trkpt>
      <trkpt lat="39.89604311645687" lon="116.45846498093488">
        <ele>39.528905149549246</ele>
        <time>2026-07-21T00:01:46Z</time>
      </trkpt>
      <trkpt lat="39.896060230520135" lon="116.45840120393315">
        <ele>40.08380926027894</ele>
        <time>2026-07-21T00:01:54Z</time>
      </trkpt>
      <trkpt lat="39.896031847191445" lon="116.45824841394531">
        <ele>40.30557884648442</ele>
        <time>2026-07-21T00:02:06Z</time>
      </trkpt>
      <trkpt lat="39.89603911006943" lon="116.45813459113505">
        <ele>39.968947942368686</ele>
        <time>2026-07-21T00:02:14Z</time>
      </trkpt>
      <trkpt lat="39.8960031220573" lon="116.45794184502833">
        <ele>40.70119781605899</ele>
        <time>2026-07-21T00:02:26Z</time>
      </trkpt>
      <trkpt lat="39.8959902055357" lon="116.45767919735651">
        <ele>39.91084467060864</ele>
        <time>2026-07-21T00:02:42Z</time>
      </trkpt>
      <trkpt lat="39.89602703996414" lon="116.45746704458982">
        <ele>41.01869488786906</ele>
        <time>2026-07-21T00:02:58Z</time>
      </trkpt>
      <trkpt lat="39.89601358240708" lon="116.45727466613238">
        <ele>40.712966872379184</ele>
        <time>2026-07-21T00:03:10Z</time>
      </trkpt>
      <trkpt lat="39.89603417209442" lon="116.45702221785535">
        <ele>41.52631225530058</ele>
        <time>2026-07-21T00:03:28Z</time>
      </trkpt>
      <trkpt lat="39.89603275704552" lon="116.45682562837615">
        <ele>42.00420362781733</ele>
        <time>2026-07-21T00:03:43Z</time>
      </trkpt>
      <trkpt lat="39.8960015290103" lon="116.45672517473527">
        <ele>42.222887677140534</ele>
        <time>2026-07-21T00:03:51Z</time>
      </trkpt>
      <trkpt lat="39.89598949031609" lon="116.45641646178692">
        <ele>41.92940280493349</ele>
        <time>2026-07-21T00:04:11Z</time>
      </trkpt>
      <trkpt lat="39.89602113309812" lon="116.45634299126918">
        <ele>41.90241251792759</ele>
        <time>2026-07-21T00:04:19Z</time>
      </trkpt>
      <trkpt lat="39.895995544944505" lon="116.45613449910648">
        <ele>42.552453234791756</ele>
        <time>2026-07-21T00:04:35Z</time>
      </trkpt>
      <trkpt lat="39.8960299214357" lon="116.4557879566721">
        <ele>42.56684273015708</ele>
        <time>2026-07-21T00:05:02Z</time>
      </trkpt>
      <trkpt lat="39.895690085985656" lon="116.45576938164433">
        <ele>42.93518713489175</ele>
        <time>2026-07-21T00:05:40Z</time>
      </trkpt>
      <trkpt lat="39.89537190755021" lon="116.45574769388396">
        <ele>42.80596794001758</ele>
        <time>2026-07-21T00:06:08Z</time>
      </trkpt>
      <trkpt lat="39.89504490835823" lon="116.45575965423278">
        <ele>42.13291124626994</ele>
        <time>2026-07-21T00:06:36Z</time>
      </trkpt>
      <trkpt lat="39.894904723958675" lon="116.45574443779583">
        <ele>41.54327986296266</ele>
        <time>2026-07-21T00:06:52Z</time>
      </trkpt>
      <trkpt lat="39.89483700980336" lon="116.45576737434094">
        <ele>41.15660526882857</ele>
        <time>2026-07-21T00:06:59Z</time>
      </trkpt>
      <trkpt lat="39.89450661057497" lon="116.45573977864522">
        <ele>40.65309985354543</ele>
        <time>2026-07-21T00:07:31Z</time>
      </trkpt>
      <trkpt lat="39.894433322583865" lon="116.45574762237237">
        <ele>40.87521633692086</ele>
        <time>2026-07-21T00:07:39Z</time>
      </trkpt>
      <trkpt lat="39.894328612496075" lon="116.45571456449677">
        <ele>41.46879621502012</ele>
        <time>2026-07-21T00:07:47Z</time>
      </trkpt>
      <trkpt lat="39.89424073918172" lon="116.4557092519973">
        <ele>40.73752402700484</ele>
        <time>2026-07-21T00:07:55Z</time>
      </trkpt>
      <trkpt lat="39.89407962795696" lon="116.45575154395833">
        <ele>40.56846415810287</ele>
        <time>2026-07-21T00:08:07Z</time>
      </trkpt>
      <trkpt lat="39.89402462833568" lon="116.45581780155501">
        <ele>40.432202705182135</ele>
        <time>2026-07-21T00:08:15Z</time>
      </trkpt>
      <trkpt lat="39.89400439272635" lon="116.45591142326204">
        <ele>39.72559337038547</ele>
        <time>2026-07-21T00:08:23Z</time>
      </trkpt>
      <trkpt lat="39.89402090241602" lon="116.45634712020522">
        <ele>39.83287072647363</ele>
        <time>2026-07-21T00:08:55Z</time>
      </trkpt>
      <trkpt lat="39.894022438641585" lon="116.45673439586756">
        <ele>40.4849597197026</ele>
        <time>2026-07-21T00:09:18Z</time>
      </trkpt>
      <trkpt lat="39.89403994328736" lon="116.45685134211499">
        <ele>40.299808892421424</ele>
        <time>2026-07-21T00:09:26Z</time>
      </trkpt>
      <trkpt lat="39.89401603982044" lon="116.45702367183041">
        <ele>41.13634053710848</ele>
        <time>2026-07-21T00:09:38Z</time>
      </trkpt>
      <trkpt lat="39.89403910614284" lon="116.45722601035426">
        <ele>41.22774881217629</ele>
        <time>2026-07-21T00:09:54Z</time>
      </trkpt>
      <trkpt lat="39.89407688955405" lon="116.45732244561646">
        <ele>41.11396518535912</ele>
        <time>2026-07-21T00:10:02Z</time>
      </trkpt>
      <trkpt lat="39.89407051642422" lon="116.45739458303466">
        <ele>40.84542073123157</ele>
        <time>2026-07-21T00:10:06Z</time>
      </trkpt>
      <trkpt lat="39.89412012229455" lon="116.45766487515807">
        <ele>41.230447561480105</ele>
        <time>2026-07-21T00:10:30Z</time>
      </trkpt>
      <trkpt lat="39.89406590913481" lon="116.45805363647948">
        <ele>42.8343635648489</ele>
        <time>2026-07-21T00:11:02Z</time>
      </trkpt>
      <trkpt lat="39.894028430477476" lon="116.45841772453637">
        <ele>43.14387396350503</ele>
        <time>2026-07-21T00:11:33Z</time>
      </trkpt>
      <trkpt lat="39.894040379491315" lon="116.45849393896597">
        <ele>43.339537591673434</ele>
        <time>2026-07-21T00:11:39Z</time>
      </trkpt>
      <trkpt lat="39.89402196141658" lon="116.4586065186198">
        <ele>41.98086547572166</ele>
        <time>2026-07-21T00:11:45Z</time>
      </trkpt>
      <trkpt lat="39.89412132693905" lon="116.45876475514065">
        <ele>40.96359203476459</ele>
        <time>2026-07-21T00:11:57Z</time>
      </trkpt>
      <trkpt lat="39.89410332576992" lon="116.45917215603492">
        <ele>42.04166099987924</ele>
        <time>2026-07-21T00:12:29Z</time>
      </trkpt>
      <trkpt lat="39.89409840895691" lon="116.45933408622798">
        <ele>40.79522385727614</ele>
        <time>2026-07-21T00:12:41Z</time>
      </trkpt>
      <trkpt lat="39.89411228071983" lon="116.45944990114313">
        <ele>40.960141899995506</ele>
        <time>2026-07-21T00:12:49Z</time>
      </trkpt>
      <trkpt lat="39.89409159796965" lon="116.45984787198189">
        <ele>40.764783640392125</ele>
        <time>2026-07-21T00:13:17Z</time>
      </trkpt>
      <trkpt lat="39.89405402964909" lon="116.46028060816084">
        <ele>41.23263254761696</ele>
        <time>2026-07-21T00:13:50Z</time>
      </trkpt>
      <trkpt lat="39.894032060170794" lon="116.46051028977517">
        <ele>41.07989168353379</ele>
        <time>2026-07-21T00:14:07Z</time>
      </trkpt>
      <trkpt lat="39.89400892251662" lon="116.46057291000878">
        <ele>40.35579180531204</ele>
        <time>2026-07-21T00:14:15Z</time>
      </trkpt>
      <trkpt lat="39.89395405515441" lon="116.46059924967419">
        <ele>40.737740718759596</ele>
        <time>2026-07-21T00:14:19Z</time>
      </trkpt>
      <trkpt lat="39.89381149568411" lon="116.46061538899605">
        <ele>40.492264608852565</ele>
        <time>2026-07-21T00:14:31Z</time>
      </trkpt>
      <trkpt lat="39.89374566015197" lon="116.46064047637357">
        <ele>40.73224812652916</ele>
        <time>2026-07-21T00:14:39Z</time>
      </trkpt>
      <trkpt lat="39.89376893260174" lon="116.46074346364138">
        <ele>41.784968932159245</ele>
        <time>2026-07-21T00:14:51Z</time>
      </trkpt>
      <trkpt lat="39.893762448867676" lon="116.46085700968158">
        <ele>41.194838429801166</ele>
        <time>2026-07-21T00:14:59Z</time>
      </trkpt>
      <trkpt lat="39.89364620471974" lon="116.46074482290042">
        <ele>39.031549571081996</ele>
        <time>2026-07-21T00:15:15Z</time>
      </trkpt>
      <trkpt lat="39.89342348982318" lon="116.46092174971945">
        <ele>40.1274528214708</ele>
        <time>2026-07-21T00:15:32Z</time>
      </trkpt>
      <trkpt lat="39.89328546939034" lon="116.46091858804915">
        <ele>39.842833273112774</ele>
        <time>2026-07-21T00:15:44Z</time>
      </trkpt>
      <trkpt lat="39.8931847980926" lon="116.46088091027129">
        <ele>39.95366963278502</ele>
        <time>2026-07-21T00:15:52Z</time>
      </trkpt>
      <trkpt lat="39.893103664233685" lon="116.46088595952071">
        <ele>39.971499227918684</ele>
        <time>2026-07-21T00:16:00Z</time>
      </trkpt>
      <trkpt lat="39.8929512701393" lon="116.46085761081899">
        <ele>39.94924142025411</ele>
        <time>2026-07-21T00:16:20Z</time>
      </trkpt>
      <trkpt lat="39.89290700572203" lon="116.46088109537304">
        <ele>40.131416788324714</ele>
        <time>2026-07-21T00:16:24Z</time>
      </trkpt>
      <trkpt lat="39.89261949796547" lon="116.46093351737065">
        <ele>39.68360013142228</ele>
        <time>2026-07-21T00:16:44Z</time>
      </trkpt>
      <trkpt lat="39.89252706020788" lon="116.46094997851118">
        <ele>39.90956448763609</ele>
        <time>2026-07-21T00:16:52Z</time>
      </trkpt>
      <trkpt lat="39.89240975896661" lon="116.46091856293673">
        <ele>39.276492826640606</ele>
        <time>2026-07-21T00:17:08Z</time>
      </trkpt>
      <trkpt lat="39.89230414777198" lon="116.46097016446312">
        <ele>39.71766577102244</ele>
        <time>2026-07-21T00:17:20Z</time>
      </trkpt>
      <trkpt lat="39.892277263971806" lon="116.46116749440557">
        <ele>40.751317432150245</ele>
        <time>2026-07-21T00:17:35Z</time>
      </trkpt>
      <trkpt lat="39.89229919075" lon="116.46129228309472">
        <ele>40.336786163039505</ele>
        <time>2026-07-21T00:17:43Z</time>
      </trkpt>
      <trkpt lat="39.89228103715244" lon="116.4613773413577">
        <ele>40.9630418587476</ele>
        <time>2026-07-21T00:17:51Z</time>
      </trkpt>
      <trkpt lat="39.892320651155075" lon="116.46176706829155">
        <ele>40.719995274208486</ele>
        <time>2026-07-21T00:18:19Z</time>
      </trkpt>
      <trkpt lat="39.892328746923475" lon="116.46186895954769">
        <ele>42.64677327033132</ele>
        <time>2026-07-21T00:18:27Z</time>
      </trkpt>
      <trkpt lat="39.89230822628221" lon="116.46209751970052">
        <ele>40.728639986366034</ele>
        <time>2026-07-21T00:18:47Z</time>
      </trkpt>
      <trkpt lat="39.89232025540789" lon="116.46219659618534">
        <ele>40.19658668059856</ele>
        <time>2026-07-21T00:18:55Z</time>
      </trkpt>
      <trkpt lat="39.892304112454354" lon="116.4622785960486">
        <ele>40.69218727853149</ele>
        <time>2026-07-21T00:19:07Z</time>
      </trkpt>
      <trkpt lat="39.892224853740295" lon="116.4623125358101">
        <ele>41.39267617554644</ele>
        <time>2026-07-21T00:19:23Z</time>
      </trkpt>
      <trkpt lat="39.89218099420874" lon="116.46228145649341">
        <ele>41.388507071953526</ele>
        <time>2026-07-21T00:19:29Z</time>
      </trkpt>
      <trkpt lat="39.892128684112805" lon="116.46233704066042">
        <ele>42.08235471131593</ele>
        <time>2026-07-21T00:19:47Z</time>
      </trkpt>
      <trkpt lat="39.892128684112805" lon="116.46233704066042">
        <ele>42.08235471131593</ele>
        <time>2026-07-21T00:19:50Z</time>
      </trkpt>
      <trkpt lat="39.89230753735772" lon="116.4625638710389">
        <ele>40.82744336500764</ele>
        <time>2026-07-21T00:37:16Z</time>
      </trkpt>
      <trkpt lat="39.8923027293732" lon="116.46264967978092">
        <ele>41.1509121209383</ele>
        <time>2026-07-21T00:37:22Z</time>
      </trkpt>
      <trkpt lat="39.892326095066466" lon="116.46270664840772">
        <ele>40.70669979136437</ele>
        <time>2026-07-21T00:37:25Z</time>
      </trkpt>
      <trkpt lat="39.892309821292415" lon="116.46279126863078">
        <ele>40.63523117080331</ele>
        <time>2026-07-21T00:37:31Z</time>
      </trkpt>
      <trkpt lat="39.892323372975895" lon="116.46311757331563">
        <ele>40.11729762237519</ele>
        <time>2026-07-21T00:37:55Z</time>
      </trkpt>
      <trkpt lat="39.89235584485009" lon="116.46317508571522">
        <ele>40.374101920984685</ele>
        <time>2026-07-21T00:38:01Z</time>
      </trkpt>
      <trkpt lat="39.8923956173707" lon="116.46320658787226">
        <ele>40.32213824708015</ele>
        <time>2026-07-21T00:38:10Z</time>
      </trkpt>
      <trkpt lat="39.89241298621386" lon="116.46312767800863">
        <ele>39.61866123136133</ele>
        <time>2026-07-21T00:38:13Z</time>
      </trkpt>
      <trkpt lat="39.89244644658296" lon="116.46307678258513">
        <ele>40.266276319511235</ele>
        <time>2026-07-21T00:38:19Z</time>
      </trkpt>
      <trkpt lat="39.89265738884696" lon="116.46308472250581">
        <ele>40.899697239510715</ele>
        <time>2026-07-21T00:38:31Z</time>
      </trkpt>
      <trkpt lat="39.89270953996337" lon="116.46310420419798">
        <ele>40.43229427468032</ele>
        <time>2026-07-21T00:38:34Z</time>
      </trkpt>
      <trkpt lat="39.89278147452572" lon="116.46308896144231">
        <ele>40.61058301106095</ele>
        <time>2026-07-21T00:38:40Z</time>
      </trkpt>
      <trkpt lat="39.89297047090636" lon="116.46315219546106">
        <ele>40.31915973778814</ele>
        <time>2026-07-21T00:38:59Z</time>
      </trkpt>
      <trkpt lat="39.89308617507203" lon="116.46312602731072">
        <ele>40.060877497307956</ele>
        <time>2026-07-21T00:39:14Z</time>
      </trkpt>
      <trkpt lat="39.89314061824407" lon="116.46316106324626">
        <ele>40.368675137870014</ele>
        <time>2026-07-21T00:39:23Z</time>
      </trkpt>
      <trkpt lat="39.893181824109384" lon="116.46321948540454">
        <ele>39.7753578312695</ele>
        <time>2026-07-21T00:39:29Z</time>
      </trkpt>
      <trkpt lat="39.893196624580156" lon="116.46346425749404">
        <ele>40.17254253104329</ele>
        <time>2026-07-21T00:39:47Z</time>
      </trkpt>
      <trkpt lat="39.893180768172726" lon="116.46354296866855">
        <ele>39.864159835502505</ele>
        <time>2026-07-21T00:39:53Z</time>
      </trkpt>
      <trkpt lat="39.89318945048197" lon="116.46370133140353">
        <ele>39.87538773287088</ele>
        <time>2026-07-21T00:40:05Z</time>
      </trkpt>
      <trkpt lat="39.893269969625685" lon="116.46383614374335">
        <ele>40.54084009863436</ele>
        <time>2026-07-21T00:40:26Z</time>
      </trkpt>
      <trkpt lat="39.89331222545359" lon="116.46403672179385">
        <ele>40.002057819627225</ele>
        <time>2026-07-21T00:40:50Z</time>
      </trkpt>
      <trkpt lat="39.893321234351944" lon="116.46384099346614">
        <ele>40.29808937148935</ele>
        <time>2026-07-21T00:41:07Z</time>
      </trkpt>
      <trkpt lat="39.89342165233027" lon="116.46361849640608">
        <ele>40.419951704040315</ele>
        <time>2026-07-21T00:41:13Z</time>
      </trkpt>
    </trkseg>
  </trk>
</gpx>