<?xml version="1.0" encoding="UTF-8"?>
<gpx xmlns="http://www.topografix.com/GPX/1/1" xmlns:gpxtpx="http://www.garmin.com/xmlschemas/TrackPointExtension/v1" xmlns:xsi="http://www.w3.org/2001/XMLSchema-instance" xsi:schemaLocation="http://www.topografix.com/GPX/1/1 http://www.topografix.com/GPX/1/1/gpx.xsd" version="1.1" creator="gpx.py -- https://github.com/tkrajina/gpxpy">
  <trk>
    <name>gpx from keep</name>
    <type>Run</type>
    <trkseg>
      <trkpt lat="39.89383059175257" lon="116.46338421665473">
        <ele>39.206465758383274</ele>
        <time>2026-07-16T23:48:44Z</time>
      </trkpt>
      <trkpt lat="39.893808560806235" lon="116.4633308476804">
        <ele>39.01794831454754</ele>
        <time>2026-07-16T23:48:50Z</time>
      </trkpt>
      <trkpt lat="39.89374843694366" lon="116.46327900274945">
        <ele>37.88973647262901</ele>
        <time>2026-07-16T23:48:56Z</time>
      </trkpt>
      <trkpt lat="39.89375460296761" lon="116.46319464228392">
        <ele>36.89619232714176</ele>
        <time>2026-07-16T23:49:02Z</time>
      </trkpt>
      <trkpt lat="39.893817619678984" lon="116.46313709052043">
        <ele>37.6422891644761</ele>
        <time>2026-07-16T23:49:08Z</time>
      </trkpt>
      <trkpt lat="39.89387827304391" lon="116.46314873056728">
        <ele>38.85596237517893</ele>
        <time>2026-07-16T23:49:14Z</time>
      </trkpt>
      <trkpt lat="39.89392072757723" lon="116.46322786114114">
        <ele>40.25636570435017</ele>
        <time>2026-07-16T23:49:23Z</time>
      </trkpt>
      <trkpt lat="39.89392236238179" lon="116.46330432670777">
        <ele>40.415256907232106</ele>
        <time>2026-07-16T23:49:29Z</time>
      </trkpt>
      <trkpt lat="39.89394783202994" lon="116.46338299692985">
        <ele>39.8995709605515</ele>
        <time>2026-07-16T23:49:35Z</time>
      </trkpt>
      <trkpt lat="39.8939020186975" lon="116.4635450875703">
        <ele>41.16509027406573</ele>
        <time>2026-07-16T23:49:50Z</time>
      </trkpt>
      <trkpt lat="39.89392987004052" lon="116.4639551921239">
        <ele>40.26497570890933</ele>
        <time>2026-07-16T23:50:22Z</time>
      </trkpt>
      <trkpt lat="39.89395464017518" lon="116.46414756074611">
        <ele>40.24253463372588</ele>
        <time>2026-07-16T23:50:36Z</time>
      </trkpt>
      <trkpt lat="39.89394767745573" lon="116.46423641200553">
        <ele>40.51180997584015</ele>
        <time>2026-07-16T23:50:42Z</time>
      </trkpt>
      <trkpt lat="39.89391399920594" lon="116.46429845372164">
        <ele>40.24571716133505</ele>
        <time>2026-07-16T23:50:48Z</time>
      </trkpt>
      <trkpt lat="39.893936751392644" lon="116.46439449066689">
        <ele>38.85763884987682</ele>
        <time>2026-07-16T23:51:03Z</time>
      </trkpt>
      <trkpt lat="39.89393135412819" lon="116.46445581834975">
        <ele>39.47641859669238</ele>
        <time>2026-07-16T23:51:09Z</time>
      </trkpt>
      <trkpt lat="39.893964749075195" lon="116.46459866459594">
        <ele>39.15313820447773</ele>
        <time>2026-07-16T23:51:24Z</time>
      </trkpt>
      <trkpt lat="39.893992579656846" lon="116.46465252502044">
        <ele>38.47852714639157</ele>
        <time>2026-07-16T23:51:30Z</time>
      </trkpt>
      <trkpt lat="39.89402284661856" lon="116.46482057408218">
        <ele>38.81085932161659</ele>
        <time>2026-07-16T23:51:45Z</time>
      </trkpt>
      <trkpt lat="39.894020901027986" lon="116.46489234371359">
        <ele>39.85444669704884</ele>
        <time>2026-07-16T23:51:51Z</time>
      </trkpt>
      <trkpt lat="39.89404632672735" lon="116.46494346313735">
        <ele>38.5516196526587</ele>
        <time>2026-07-16T23:52:06Z</time>
      </trkpt>
      <trkpt lat="39.89407909319961" lon="116.46517517516114">
        <ele>40.478940040804446</ele>
        <time>2026-07-16T23:52:24Z</time>
      </trkpt>
      <trkpt lat="39.894156956454566" lon="116.46552804590264">
        <ele>39.50839402154088</ele>
        <time>2026-07-16T23:52:51Z</time>
      </trkpt>
      <trkpt lat="39.89422294618315" lon="116.46572218289728">
        <ele>39.789688212797046</ele>
        <time>2026-07-16T23:53:00Z</time>
      </trkpt>
      <trkpt lat="39.894223627542914" lon="116.46580490456942">
        <ele>39.741816838271916</ele>
        <time>2026-07-16T23:53:03Z</time>
      </trkpt>
      <trkpt lat="39.894299823530375" lon="116.46600088632852">
        <ele>39.02414831798524</ele>
        <time>2026-07-16T23:53:12Z</time>
      </trkpt>
      <trkpt lat="39.89435941149847" lon="116.46627912706313">
        <ele>38.451838510110974</ele>
        <time>2026-07-16T23:53:24Z</time>
      </trkpt>
      <trkpt lat="39.894423537527956" lon="116.46642205028282">
        <ele>36.683686189353466</ele>
        <time>2026-07-16T23:53:30Z</time>
      </trkpt>
      <trkpt lat="39.89443900976708" lon="116.46649254755506">
        <ele>36.83257264457643</ele>
        <time>2026-07-16T23:53:33Z</time>
      </trkpt>
      <trkpt lat="39.89451096802682" lon="116.46645703368402">
        <ele>37.42553970683366</ele>
        <time>2026-07-16T23:53:36Z</time>
      </trkpt>
      <trkpt lat="39.89456402252653" lon="116.46646812566398">
        <ele>37.509674477390945</ele>
        <time>2026-07-16T23:53:39Z</time>
      </trkpt>
      <trkpt lat="39.89460901443802" lon="116.46651252549768">
        <ele>38.210205784998834</ele>
        <time>2026-07-16T23:53:42Z</time>
      </trkpt>
      <trkpt lat="39.89463204250366" lon="116.46673614603453">
        <ele>39.396592979319394</ele>
        <time>2026-07-16T23:54:00Z</time>
      </trkpt>
      <trkpt lat="39.894684207107915" lon="116.46675281370925">
        <ele>39.762772179208696</ele>
        <time>2026-07-16T23:54:07Z</time>
      </trkpt>
      <trkpt lat="39.89501558396083" lon="116.46675454695499">
        <ele>38.96825139597058</ele>
        <time>2026-07-16T23:54:27Z</time>
      </trkpt>
      <trkpt lat="39.895080864860134" lon="116.4667671059722">
        <ele>38.43870661407709</ele>
        <time>2026-07-16T23:54:31Z</time>
      </trkpt>
      <trkpt lat="39.89542317741062" lon="116.46675064655719">
        <ele>39.54888839274645</ele>
        <time>2026-07-16T23:54:47Z</time>
      </trkpt>
      <trkpt lat="39.89568502847241" lon="116.46679928673443">
        <ele>38.65332653000951</ele>
        <time>2026-07-16T23:54:59Z</time>
      </trkpt>
      <trkpt lat="39.895984173107074" lon="116.46680192460676">
        <ele>36.78313737735152</ele>
        <time>2026-07-16T23:55:35Z</time>
      </trkpt>
      <trkpt lat="39.89603035912203" lon="116.46678574672606">
        <ele>39.17219304386526</ele>
        <time>2026-07-16T23:55:43Z</time>
      </trkpt>
      <trkpt lat="39.89630213344844" lon="116.4667915714646">
        <ele>39.31296445801854</ele>
        <time>2026-07-16T23:56:03Z</time>
      </trkpt>
      <trkpt lat="39.896623965750145" lon="116.46677592456022">
        <ele>41.01549312565476</ele>
        <time>2026-07-16T23:56:22Z</time>
      </trkpt>
      <trkpt lat="39.89695000029276" lon="116.46679927974118">
        <ele>39.989332837983966</ele>
        <time>2026-07-16T23:56:42Z</time>
      </trkpt>
      <trkpt lat="39.89725770141272" lon="116.46677877573256">
        <ele>40.121020938269794</ele>
        <time>2026-07-16T23:57:14Z</time>
      </trkpt>
      <trkpt lat="39.89732111239744" lon="116.4667785307163">
        <ele>39.9743564594537</ele>
        <time>2026-07-16T23:57:22Z</time>
      </trkpt>
      <trkpt lat="39.89727567889434" lon="116.46679322963023">
        <ele>39.687283866107464</ele>
        <time>2026-07-16T23:57:30Z</time>
      </trkpt>
      <trkpt lat="39.897489846679804" lon="116.46678142875497">
        <ele>41.54599977936596</ele>
        <time>2026-07-16T23:57:50Z</time>
      </trkpt>
      <trkpt lat="39.89781212090163" lon="116.46679898767373">
        <ele>40.79126148018986</ele>
        <time>2026-07-16T23:58:02Z</time>
      </trkpt>
      <trkpt lat="39.89793093901798" lon="116.46678287966706">
        <ele>40.81326349079609</ele>
        <time>2026-07-16T23:58:06Z</time>
      </trkpt>
      <trkpt lat="39.89825833487437" lon="116.46680625690858">
        <ele>40.255433092825115</ele>
        <time>2026-07-16T23:58:17Z</time>
      </trkpt>
      <trkpt lat="39.89839372906177" lon="116.46679732030988">
        <ele>40.39009100012481</ele>
        <time>2026-07-16T23:58:21Z</time>
      </trkpt>
      <trkpt lat="39.89850422876622" lon="116.46682382532734">
        <ele>40.34458132274449</ele>
        <time>2026-07-16T23:58:25Z</time>
      </trkpt>
      <trkpt lat="39.898608842928105" lon="116.46679268316949">
        <ele>41.17187896743417</ele>
        <time>2026-07-16T23:58:29Z</time>
      </trkpt>
      <trkpt lat="39.898938179262835" lon="116.46679111082172">
        <ele>40.18013427499682</ele>
        <time>2026-07-16T23:58:41Z</time>
      </trkpt>
      <trkpt lat="39.89900903392637" lon="116.46679422590454">
        <ele>40.15005976893008</ele>
        <time>2026-07-16T23:58:45Z</time>
      </trkpt>
      <trkpt lat="39.89908414737055" lon="116.46684346716485">
        <ele>39.38852671161294</ele>
        <time>2026-07-16T23:58:53Z</time>
      </trkpt>
      <trkpt lat="39.89924591684115" lon="116.4668365789311">
        <ele>39.67891292087734</ele>
        <time>2026-07-16T23:59:01Z</time>
      </trkpt>
      <trkpt lat="39.89932126613426" lon="116.46680785157601">
        <ele>40.14045087248087</ele>
        <time>2026-07-16T23:59:05Z</time>
      </trkpt>
      <trkpt lat="39.899373870256646" lon="116.46674427746753">
        <ele>39.14576399605721</ele>
        <time>2026-07-16T23:59:09Z</time>
      </trkpt>
      <trkpt lat="39.899353088305745" lon="116.4666131512516">
        <ele>38.427130756899714</ele>
        <time>2026-07-16T23:59:13Z</time>
      </trkpt>
      <trkpt lat="39.89936689278155" lon="116.46649799793813">
        <ele>39.69305426906794</ele>
        <time>2026-07-16T23:59:17Z</time>
      </trkpt>
      <trkpt lat="39.899337537524" lon="116.46610105774538">
        <ele>40.473914180882275</ele>
        <time>2026-07-16T23:59:41Z</time>
      </trkpt>
      <trkpt lat="39.89928939866934" lon="116.46579142803934">
        <ele>40.886795620433986</ele>
        <time>2026-07-17T00:00:05Z</time>
      </trkpt>
      <trkpt lat="39.899185296333826" lon="116.46544804341852">
        <ele>38.13246966525912</ele>
        <time>2026-07-17T00:00:17Z</time>
      </trkpt>
      <trkpt lat="39.89916451485342" lon="116.46533077359123">
        <ele>39.679145788773894</ele>
        <time>2026-07-17T00:00:21Z</time>
      </trkpt>
      <trkpt lat="39.89911937349472" lon="116.46519634528664">
        <ele>39.216588971205056</ele>
        <time>2026-07-17T00:00:25Z</time>
      </trkpt>
      <trkpt lat="39.899085663592" lon="116.4650134189438">
        <ele>40.12971201725304</ele>
        <time>2026-07-17T00:00:29Z</time>
      </trkpt>
      <trkpt lat="39.899116429509775" lon="116.46491368068693">
        <ele>41.8725918000564</ele>
        <time>2026-07-17T00:00:33Z</time>
      </trkpt>
      <trkpt lat="39.89909323011988" lon="116.46480039406255">
        <ele>39.88082575984299</ele>
        <time>2026-07-17T00:00:37Z</time>
      </trkpt>
      <trkpt lat="39.899068717861475" lon="116.46468078281563">
        <ele>40.38252107333392</ele>
        <time>2026-07-17T00:00:41Z</time>
      </trkpt>
      <trkpt lat="39.89908157766953" lon="116.4645528804447">
        <ele>41.48114041984081</ele>
        <time>2026-07-17T00:00:45Z</time>
      </trkpt>
      <trkpt lat="39.89906135396014" lon="116.46443912740224">
        <ele>40.9211840974167</ele>
        <time>2026-07-17T00:00:49Z</time>
      </trkpt>
      <trkpt lat="39.899035733956666" lon="116.46400295273">
        <ele>40.487282616086304</ele>
        <time>2026-07-17T00:01:17Z</time>
      </trkpt>
      <trkpt lat="39.899022477360205" lon="116.46367953808168">
        <ele>41.59370756242424</ele>
        <time>2026-07-17T00:01:29Z</time>
      </trkpt>
      <trkpt lat="39.89900499602207" lon="116.46357210757336">
        <ele>42.24891809094697</ele>
        <time>2026-07-17T00:01:33Z</time>
      </trkpt>
      <trkpt lat="39.89903285360233" lon="116.46320780084615">
        <ele>40.51270595006645</ele>
        <time>2026-07-17T00:01:53Z</time>
      </trkpt>
      <trkpt lat="39.89906699834213" lon="116.46290308715199">
        <ele>41.93378732167184</ele>
        <time>2026-07-17T00:02:13Z</time>
      </trkpt>
      <trkpt lat="39.89909852163911" lon="116.46280769875129">
        <ele>42.62392686214298</ele>
        <time>2026-07-17T00:02:21Z</time>
      </trkpt>
      <trkpt lat="39.899130691834074" lon="116.46258085898128">
        <ele>42.1744529614225</ele>
        <time>2026-07-17T00:02:32Z</time>
      </trkpt>
      <trkpt lat="39.89915641294944" lon="116.46250683015664">
        <ele>41.44934087526053</ele>
        <time>2026-07-17T00:02:35Z</time>
      </trkpt>
      <trkpt lat="39.899157304908755" lon="116.4623452837534">
        <ele>40.28641483280808</ele>
        <time>2026-07-17T00:02:38Z</time>
      </trkpt>
      <trkpt lat="39.89924489394756" lon="116.46201932914974">
        <ele>40.063422058708966</ele>
        <time>2026-07-17T00:02:44Z</time>
      </trkpt>
      <trkpt lat="39.89930108246913" lon="116.46187698402538">
        <ele>41.029342900030315</ele>
        <time>2026-07-17T00:02:47Z</time>
      </trkpt>
      <trkpt lat="39.89932824813029" lon="116.46175858228551">
        <ele>41.758742711506784</ele>
        <time>2026-07-17T00:02:50Z</time>
      </trkpt>
      <trkpt lat="39.89933433968377" lon="116.46162682997502">
        <ele>40.83089464623481</ele>
        <time>2026-07-17T00:02:53Z</time>
      </trkpt>
      <trkpt lat="39.899381994322155" lon="116.46152765771953">
        <ele>40.03877587430179</ele>
        <time>2026-07-17T00:02:56Z</time>
      </trkpt>
      <trkpt lat="39.89942904221621" lon="116.4611559022615">
        <ele>40.319903950206935</ele>
        <time>2026-07-17T00:03:12Z</time>
      </trkpt>
      <trkpt lat="39.89944120527325" lon="116.4610047114947">
        <ele>39.98874374758452</ele>
        <time>2026-07-17T00:03:20Z</time>
      </trkpt>
      <trkpt lat="39.899423279328495" lon="116.46087358756826">
        <ele>40.76939441729337</ele>
        <time>2026-07-17T00:03:28Z</time>
      </trkpt>
      <trkpt lat="39.89946738953892" lon="116.46083669408628">
        <ele>42.9296348458156</ele>
        <time>2026-07-17T00:03:36Z</time>
      </trkpt>
      <trkpt lat="39.899472981105596" lon="116.46090101134014">
        <ele>39.566099632531404</ele>
        <time>2026-07-17T00:03:44Z</time>
      </trkpt>
      <trkpt lat="39.899487773650904" lon="116.46081603292606">
        <ele>40.1490838509053</ele>
        <time>2026-07-17T00:04:00Z</time>
      </trkpt>
      <trkpt lat="39.899517595564866" lon="116.46075955801093">
        <ele>40.77416217792779</ele>
        <time>2026-07-17T00:04:08Z</time>
      </trkpt>
      <trkpt lat="39.89951437355089" lon="116.46068231013892">
        <ele>40.49835145380348</ele>
        <time>2026-07-17T00:04:12Z</time>
      </trkpt>
      <trkpt lat="39.89954294021033" lon="116.46057381712065">
        <ele>40.76021668687463</ele>
        <time>2026-07-17T00:04:20Z</time>
      </trkpt>
      <trkpt lat="39.89960584300498" lon="116.46053767737187">
        <ele>40.66240299213678</ele>
        <time>2026-07-17T00:04:28Z</time>
      </trkpt>
      <trkpt lat="39.89960087386772" lon="116.46045758644506">
        <ele>40.594766174443066</ele>
        <time>2026-07-17T00:04:35Z</time>
      </trkpt>
      <trkpt lat="39.89956353121838" lon="116.46039921009174">
        <ele>40.20007748156786</ele>
        <time>2026-07-17T00:04:41Z</time>
      </trkpt>
      <trkpt lat="39.89959572065571" lon="116.46033171765735">
        <ele>41.3217140911147</ele>
        <time>2026-07-17T00:04:50Z</time>
      </trkpt>
      <trkpt lat="39.899617321900806" lon="116.459977936755">
        <ele>41.17220522556454</ele>
        <time>2026-07-17T00:05:16Z</time>
      </trkpt>
      <trkpt lat="39.8996817128841" lon="116.45987421616753">
        <ele>41.445944723673165</ele>
        <time>2026-07-17T00:05:32Z</time>
      </trkpt>
      <trkpt lat="39.89966672844813" lon="116.45886031917944">
        <ele>39.85393471736461</ele>
        <time>2026-07-17T00:20:42Z</time>
      </trkpt>
      <trkpt lat="39.89959502243755" lon="116.45867850122913">
        <ele>39.45426700729877</ele>
        <time>2026-07-17T00:20:50Z</time>
      </trkpt>
      <trkpt lat="39.89965198539497" lon="116.45862507933597">
        <ele>39.80518538877368</ele>
        <time>2026-07-17T00:20:54Z</time>
      </trkpt>
      <trkpt lat="39.899641349566345" lon="116.45854903552113">
        <ele>40.15291279554367</ele>
        <time>2026-07-17T00:20:58Z</time>
      </trkpt>
      <trkpt lat="39.89956719905644" lon="116.45852455386901">
        <ele>40.62954799737781</ele>
        <time>2026-07-17T00:21:02Z</time>
      </trkpt>
      <trkpt lat="39.89952590971939" lon="116.45860001145503">
        <ele>40.27335487212986</ele>
        <time>2026-07-17T00:21:06Z</time>
      </trkpt>
      <trkpt lat="39.899541915882324" lon="116.45868888452613">
        <ele>40.17886173911393</ele>
        <time>2026-07-17T00:21:10Z</time>
      </trkpt>
      <trkpt lat="39.89957981622403" lon="116.45869782463286">
        <ele>40.423051342368126</ele>
        <time>2026-07-17T00:21:18Z</time>
      </trkpt>
      <trkpt lat="39.89957975814188" lon="116.45862189041888">
        <ele>40.86351531650871</ele>
        <time>2026-07-17T00:22:01Z</time>
      </trkpt>
      <trkpt lat="39.89957975814188" lon="116.45862189041888">
        <ele>40.86351531650871</ele>
        <time>2026-07-17T00:22:06Z</time>
      </trkpt>
      <trkpt lat="39.89957823174468" lon="116.45842401033416">
        <ele>40.95667709503323</ele>
        <time>2026-07-17T00:22:31Z</time>
      </trkpt>
      <trkpt lat="39.89963509849102" lon="116.458416527165">
        <ele>40.56753692217171</ele>
        <time>2026-07-17T00:29:00Z</time>
      </trkpt>
      <trkpt lat="39.89958567507233" lon="116.45850468350433">
        <ele>40.886717460118234</ele>
        <time>2026-07-17T00:34:15Z</time>
      </trkpt>
      <trkpt lat="39.899578222715206" lon="116.45859711675692">
        <ele>41.2866990622133</ele>
        <time>2026-07-17T00:34:23Z</time>
      </trkpt>
      <trkpt lat="39.899640828937045" lon="116.45876611449818">
        <ele>40.50798880215734</ele>
        <time>2026-07-17T00:34:39Z</time>
      </trkpt>
      <trkpt lat="39.89968455474925" lon="116.45882993108584">
        <ele>40.11021294165403</ele>
        <time>2026-07-17T00:34:47Z</time>
      </trkpt>
      <trkpt lat="39.89968590584212" lon="116.45893621485811">
        <ele>40.514052622020245</ele>
        <time>2026-07-17T00:34:55Z</time>
      </trkpt>
      <trkpt lat="39.89959691702767" lon="116.45908683601078">
        <ele>41.37862440664321</ele>
        <time>2026-07-17T00:35:11Z</time>
      </trkpt>
      <trkpt lat="39.899579918041674" lon="116.45917706086723">
        <ele>40.86891434434801</ele>
        <time>2026-07-17T00:35:19Z</time>
      </trkpt>
      <trkpt lat="39.899640876285474" lon="116.45929148822232">
        <ele>41.13431593216956</ele>
        <time>2026-07-17T00:35:31Z</time>
      </trkpt>
      <trkpt lat="39.89964991057259" lon="116.45935645215448">
        <ele>41.385026747360826</ele>
        <time>2026-07-17T00:35:35Z</time>
      </trkpt>
      <trkpt lat="39.89949623968599" lon="116.45966050005418">
        <ele>40.418493249453604</ele>
        <time>2026-07-17T00:36:03Z</time>
      </trkpt>
      <trkpt lat="39.89956870529533" lon="116.45978486663489">
        <ele>40.94103876501322</ele>
        <time>2026-07-17T00:36:15Z</time>
      </trkpt>
      <trkpt lat="39.899590293139624" lon="116.45985098172596">
        <ele>41.250232863239944</ele>
        <time>2026-07-17T00:36:21Z</time>
      </trkpt>
      <trkpt lat="39.89957045172397" lon="116.46006484521868">
        <ele>40.421425480395555</ele>
        <time>2026-07-17T00:36:39Z</time>
      </trkpt>
      <trkpt lat="39.89959905299469" lon="116.46030185298335">
        <ele>41.11269032023847</ele>
        <time>2026-07-17T00:36:57Z</time>
      </trkpt>
      <trkpt lat="39.89956929452145" lon="116.46043388128096">
        <ele>40.338615668937564</ele>
        <time>2026-07-17T00:37:09Z</time>
      </trkpt>
      <trkpt lat="39.8995233030375" lon="116.46048956742521">
        <ele>40.86212243884802</ele>
        <time>2026-07-17T00:37:15Z</time>
      </trkpt>
      <trkpt lat="39.89951139088964" lon="116.46055957490742">
        <ele>40.88325697835535</ele>
        <time>2026-07-17T00:37:21Z</time>
      </trkpt>
      <trkpt lat="39.89953505545584" lon="116.46064569339754">
        <ele>40.095090828835964</ele>
        <time>2026-07-17T00:37:27Z</time>
      </trkpt>
      <trkpt lat="39.899536348320275" lon="116.4607241707121">
        <ele>40.13475883286446</ele>
        <time>2026-07-17T00:37:33Z</time>
      </trkpt>
      <trkpt lat="39.899490160349295" lon="116.46087557183347">
        <ele>40.03297209832817</ele>
        <time>2026-07-17T00:37:42Z</time>
      </trkpt>
      <trkpt lat="39.899447700118074" lon="116.46091964037257">
        <ele>39.393243732862175</ele>
        <time>2026-07-17T00:37:45Z</time>
      </trkpt>
      <trkpt lat="39.899424811717594" lon="116.46099964768203">
        <ele>39.382767986506224</ele>
        <time>2026-07-17T00:37:51Z</time>
      </trkpt>
      <trkpt lat="39.899426034921596" lon="116.46106144577851">
        <ele>39.36445822566748</ele>
        <time>2026-07-17T00:38:10Z</time>
      </trkpt>
      <trkpt lat="39.89912460322547" lon="116.4610089313437">
        <ele>39.81376246269792</ele>
        <time>2026-07-17T00:39:07Z</time>
      </trkpt>
      <trkpt lat="39.898848581932" lon="116.46099250633064">
        <ele>38.91949238535017</ele>
        <time>2026-07-17T00:39:25Z</time>
      </trkpt>
      <trkpt lat="39.898708198260046" lon="116.46103263623303">
        <ele>38.84122084733099</ele>
        <time>2026-07-17T00:39:31Z</time>
      </trkpt>
      <trkpt lat="39.89838260743988" lon="116.46103273757925">
        <ele>39.48051317129284</ele>
        <time>2026-07-17T00:39:46Z</time>
      </trkpt>
      <trkpt lat="39.89818646682295" lon="116.46106250120816">
        <ele>39.699865254573524</ele>
        <time>2026-07-17T00:39:55Z</time>
      </trkpt>
      <trkpt lat="39.89812037122636" lon="116.46103640149153">
        <ele>39.30915836151689</ele>
        <time>2026-07-17T00:39:58Z</time>
      </trkpt>
      <trkpt lat="39.898051964284925" lon="116.46103670958405">
        <ele>39.85219617281109</ele>
        <time>2026-07-17T00:40:01Z</time>
      </trkpt>
      <trkpt lat="39.89800873722536" lon="116.4610014390274">
        <ele>39.05282460898161</ele>
        <time>2026-07-17T00:40:04Z</time>
      </trkpt>
      <trkpt lat="39.8978359994683" lon="116.46095796783008">
        <ele>39.0243592588231</ele>
        <time>2026-07-17T00:40:13Z</time>
      </trkpt>
      <trkpt lat="39.89757216532918" lon="116.46097027052593">
        <ele>40.326627179048955</ele>
        <time>2026-07-17T00:40:27Z</time>
      </trkpt>
      <trkpt lat="39.89752063171854" lon="116.46095154326852">
        <ele>39.32924379687756</ele>
        <time>2026-07-17T00:40:30Z</time>
      </trkpt>
      <trkpt lat="39.89731423325459" lon="116.46095671047875">
        <ele>39.97194848395884</ele>
        <time>2026-07-17T00:40:42Z</time>
      </trkpt>
      <trkpt lat="39.897214877916305" lon="116.46093125936848">
        <ele>39.392238412983716</ele>
        <time>2026-07-17T00:40:48Z</time>
      </trkpt>
      <trkpt lat="39.89715029068933" lon="116.46095081684523">
        <ele>40.14601138141006</ele>
        <time>2026-07-17T00:40:51Z</time>
      </trkpt>
      <trkpt lat="39.8971008986362" lon="116.46093257590566">
        <ele>40.098294945433736</ele>
        <time>2026-07-17T00:40:54Z</time>
      </trkpt>
      <trkpt lat="39.89677170908798" lon="116.46093529507759">
        <ele>41.035345553420484</ele>
        <time>2026-07-17T00:41:12Z</time>
      </trkpt>
      <trkpt lat="39.89670468691706" lon="116.46092159654685">
        <ele>40.09122891537845</ele>
        <time>2026-07-17T00:41:21Z</time>
      </trkpt>
      <trkpt lat="39.89662580668681" lon="116.46093987510018">
        <ele>40.73673290014267</ele>
        <time>2026-07-17T00:41:27Z</time>
      </trkpt>
      <trkpt lat="39.8965552136878" lon="116.46091005246517">
        <ele>39.84267039876431</ele>
        <time>2026-07-17T00:41:33Z</time>
      </trkpt>
      <trkpt lat="39.896253590684765" lon="116.46093994636963">
        <ele>40.98494581505656</ele>
        <time>2026-07-17T00:41:57Z</time>
      </trkpt>
      <trkpt lat="39.89607952554601" lon="116.46093299584527">
        <ele>40.420310048386455</ele>
        <time>2026-07-17T00:42:12Z</time>
      </trkpt>
      <trkpt lat="39.89603649155229" lon="116.46095728879015">
        <ele>40.1062789298594</ele>
        <time>2026-07-17T00:42:18Z</time>
      </trkpt>
      <trkpt lat="39.89604010102512" lon="116.46113804140712">
        <ele>40.85718139912933</ele>
        <time>2026-07-17T00:42:28Z</time>
      </trkpt>
      <trkpt lat="39.89601378094789" lon="116.46121505840283">
        <ele>42.034464221447706</ele>
        <time>2026-07-17T00:42:34Z</time>
      </trkpt>
      <trkpt lat="39.89584717428456" lon="116.46122416569865">
        <ele>41.18803363852203</ele>
        <time>2026-07-17T00:42:58Z</time>
      </trkpt>
      <trkpt lat="39.89579453317944" lon="116.46124309281768">
        <ele>41.206068616360426</ele>
        <time>2026-07-17T00:43:04Z</time>
      </trkpt>
      <trkpt lat="39.89576224187701" lon="116.46135803586134">
        <ele>41.179319518618286</ele>
        <time>2026-07-17T00:43:22Z</time>
      </trkpt>
      <trkpt lat="39.89577361063732" lon="116.46144383338543">
        <ele>40.586423945613205</ele>
        <time>2026-07-17T00:43:31Z</time>
      </trkpt>
      <trkpt lat="39.895742164306235" lon="116.4614866651396">
        <ele>40.86206067819148</ele>
        <time>2026-07-17T00:43:46Z</time>
      </trkpt>
      <trkpt lat="39.895729058344294" lon="116.46155006768453">
        <ele>42.17362370621413</ele>
        <time>2026-07-17T00:44:01Z</time>
      </trkpt>
      <trkpt lat="39.89575069647981" lon="116.46165176264991">
        <ele>42.6236961716786</ele>
        <time>2026-07-17T00:44:10Z</time>
      </trkpt>
      <trkpt lat="39.895769939349584" lon="116.46196896635226">
        <ele>42.261559423059225</ele>
        <time>2026-07-17T00:44:32Z</time>
      </trkpt>
      <trkpt lat="39.89575624873476" lon="116.46207066061702">
        <ele>40.1514951242134</ele>
        <time>2026-07-17T00:44:40Z</time>
      </trkpt>
      <trkpt lat="39.89577518132457" lon="116.46218083275747">
        <ele>41.31243597250432</ele>
        <time>2026-07-17T00:44:48Z</time>
      </trkpt>
      <trkpt lat="39.89575516906981" lon="116.46256677049836">
        <ele>41.25042888708413</ele>
        <time>2026-07-17T00:45:16Z</time>
      </trkpt>
      <trkpt lat="39.895733538535254" lon="116.46272322164758">
        <ele>41.176688330248</ele>
        <time>2026-07-17T00:45:28Z</time>
      </trkpt>
      <trkpt lat="39.895733538535254" lon="116.46272322164758">
        <ele>41.176688330248</ele>
        <time>2026-07-17T00:45:29Z</time>
      </trkpt>
      <trkpt lat="39.8957215148606" lon="116.46296426480077">
        <ele>40.55764712393284</ele>
        <time>2026-07-17T00:45:47Z</time>
      </trkpt>
      <trkpt lat="39.89568724742838" lon="116.46301454449893">
        <ele>40.56030120048672</ele>
        <time>2026-07-17T00:45:56Z</time>
      </trkpt>
      <trkpt lat="39.89545049272956" lon="116.46299978926933">
        <ele>39.97804469894618</ele>
        <time>2026-07-17T00:46:26Z</time>
      </trkpt>
      <trkpt lat="39.895360485738536" lon="116.46312192523432">
        <ele>40.81058054789901</ele>
        <time>2026-07-17T00:46:39Z</time>
      </trkpt>
      <trkpt lat="39.895065597435426" lon="116.46313303043306">
        <ele>40.33735456969589</ele>
        <time>2026-07-17T00:47:19Z</time>
      </trkpt>
      <trkpt lat="39.89477003988523" lon="116.46307909120615">
        <ele>39.49290154129267</ele>
        <time>2026-07-17T00:47:47Z</time>
      </trkpt>
      <trkpt lat="39.89455021711959" lon="116.46307918509093">
        <ele>40.96438428200781</ele>
        <time>2026-07-17T00:48:08Z</time>
      </trkpt>
      <trkpt lat="39.89424853590346" lon="116.46314776622583">
        <ele>41.03072044253349</ele>
        <time>2026-07-17T00:48:38Z</time>
      </trkpt>
      <trkpt lat="39.89407611723403" lon="116.46320311697552">
        <ele>41.21429310552776</ele>
        <time>2026-07-17T00:48:57Z</time>
      </trkpt>
      <trkpt lat="39.89388687097128" lon="116.46317253608251">
        <ele>39.908311024308205</ele>
        <time>2026-07-17T00:49:18Z</time>
      </trkpt>
      <trkpt lat="39.89388687097128" lon="116.46317253608251">
        <ele>39.908311024308205</ele>
        <time>2026-07-17T00:49:31Z</time>
      </trkpt>
    </trkseg>
  </trk>
</gpx>