<?xml version="1.0" encoding="UTF-8"?>
<gpx xmlns="http://www.topografix.com/GPX/1/1" xmlns:gpxtpx="http://www.garmin.com/xmlschemas/TrackPointExtension/v1" xmlns:xsi="http://www.w3.org/2001/XMLSchema-instance" xsi:schemaLocation="http://www.topografix.com/GPX/1/1 http://www.topografix.com/GPX/1/1/gpx.xsd" version="1.1" creator="gpx.py -- https://github.com/tkrajina/gpxpy">
  <trk>
    <name>gpx from keep</name>
    <type>Run</type>
    <trkseg>
      <trkpt lat="39.89388347616444" lon="116.46403311788814">
        <ele>39.135604166425765</ele>
        <time>2026-07-07T22:57:20Z</time>
      </trkpt>
      <trkpt lat="39.89390765812997" lon="116.46426520999142">
        <ele>39.285847049206495</ele>
        <time>2026-07-07T22:57:35Z</time>
      </trkpt>
      <trkpt lat="39.893969241889" lon="116.46451222120659">
        <ele>38.56957699544728</ele>
        <time>2026-07-07T22:57:53Z</time>
      </trkpt>
      <trkpt lat="39.89400380002127" lon="116.46458198537033">
        <ele>38.266038689762354</ele>
        <time>2026-07-07T22:57:59Z</time>
      </trkpt>
      <trkpt lat="39.89403915243852" lon="116.46475510890672">
        <ele>39.412745118141174</ele>
        <time>2026-07-07T22:58:08Z</time>
      </trkpt>
      <trkpt lat="39.894095192554865" lon="116.46486929946644">
        <ele>39.6308731418103</ele>
        <time>2026-07-07T22:58:14Z</time>
      </trkpt>
      <trkpt lat="39.8941224308679" lon="116.46528046063567">
        <ele>39.86961783003062</ele>
        <time>2026-07-07T22:58:41Z</time>
      </trkpt>
      <trkpt lat="39.89416189487321" lon="116.46531826078602">
        <ele>39.44903574604541</ele>
        <time>2026-07-07T22:58:44Z</time>
      </trkpt>
      <trkpt lat="39.89417129687068" lon="116.46541810398831">
        <ele>39.14991174452007</ele>
        <time>2026-07-07T22:58:50Z</time>
      </trkpt>
      <trkpt lat="39.894218980459165" lon="116.46555557560401">
        <ele>39.35799493454397</ele>
        <time>2026-07-07T22:58:56Z</time>
      </trkpt>
      <trkpt lat="39.8942291730115" lon="116.4656364849735">
        <ele>39.026432293467224</ele>
        <time>2026-07-07T22:58:59Z</time>
      </trkpt>
      <trkpt lat="39.89428335520726" lon="116.46571930796524">
        <ele>38.655052685178816</ele>
        <time>2026-07-07T22:59:02Z</time>
      </trkpt>
      <trkpt lat="39.89432751678434" lon="116.46589892753701">
        <ele>37.81173348799348</ele>
        <time>2026-07-07T22:59:11Z</time>
      </trkpt>
      <trkpt lat="39.89434646195812" lon="116.46610670056235">
        <ele>41.00068924948573</ele>
        <time>2026-07-07T22:59:17Z</time>
      </trkpt>
      <trkpt lat="39.89440707189262" lon="116.46640154039915">
        <ele>38.48426322545856</ele>
        <time>2026-07-07T22:59:29Z</time>
      </trkpt>
      <trkpt lat="39.89445825879639" lon="116.46647623929591">
        <ele>39.08169424626976</ele>
        <time>2026-07-07T22:59:33Z</time>
      </trkpt>
      <trkpt lat="39.89459842530482" lon="116.46649114309236">
        <ele>37.202681181021035</ele>
        <time>2026-07-07T22:59:39Z</time>
      </trkpt>
      <trkpt lat="39.89462433136393" lon="116.46655323317228">
        <ele>36.958648236468434</ele>
        <time>2026-07-07T22:59:42Z</time>
      </trkpt>
      <trkpt lat="39.89461896851299" lon="116.46663696844564">
        <ele>38.267552082426846</ele>
        <time>2026-07-07T22:59:45Z</time>
      </trkpt>
      <trkpt lat="39.894683757499195" lon="116.4666794021777">
        <ele>38.02332274988294</ele>
        <time>2026-07-07T22:59:48Z</time>
      </trkpt>
      <trkpt lat="39.894904261084605" lon="116.46666262098562">
        <ele>38.983842723071575</ele>
        <time>2026-07-07T23:00:00Z</time>
      </trkpt>
      <trkpt lat="39.8952031409315" lon="116.46668269443688">
        <ele>38.90275651589036</ele>
        <time>2026-07-07T23:00:15Z</time>
      </trkpt>
      <trkpt lat="39.89554474985701" lon="116.4667049134426">
        <ele>39.76761479768902</ele>
        <time>2026-07-07T23:00:33Z</time>
      </trkpt>
      <trkpt lat="39.895807395728625" lon="116.4667814850827">
        <ele>37.84476205147803</ele>
        <time>2026-07-07T23:00:48Z</time>
      </trkpt>
      <trkpt lat="39.895933742574634" lon="116.46676149894883">
        <ele>38.57427484262735</ele>
        <time>2026-07-07T23:00:54Z</time>
      </trkpt>
      <trkpt lat="39.89601311342447" lon="116.46682888164558">
        <ele>36.773361443541944</ele>
        <time>2026-07-07T23:00:57Z</time>
      </trkpt>
      <trkpt lat="39.8960560589813" lon="116.46669023991456">
        <ele>38.514358571730554</ele>
        <time>2026-07-07T23:01:00Z</time>
      </trkpt>
      <trkpt lat="39.896115921468905" lon="116.46672646936682">
        <ele>39.756106468848884</ele>
        <time>2026-07-07T23:01:03Z</time>
      </trkpt>
      <trkpt lat="39.8963876203702" lon="116.46672875200528">
        <ele>38.58296925853938</ele>
        <time>2026-07-07T23:01:18Z</time>
      </trkpt>
      <trkpt lat="39.89659993846171" lon="116.46670950368984">
        <ele>39.522916345857084</ele>
        <time>2026-07-07T23:01:30Z</time>
      </trkpt>
      <trkpt lat="39.89664382684242" lon="116.46672549849983">
        <ele>39.852241437882185</ele>
        <time>2026-07-07T23:01:33Z</time>
      </trkpt>
      <trkpt lat="39.89696755957453" lon="116.46671698823255">
        <ele>38.7386384382844</ele>
        <time>2026-07-07T23:01:51Z</time>
      </trkpt>
      <trkpt lat="39.8970997474534" lon="116.46673097748904">
        <ele>40.05867566354573</ele>
        <time>2026-07-07T23:01:59Z</time>
      </trkpt>
      <trkpt lat="39.89741614252675" lon="116.46670532412914">
        <ele>40.7032055798918</ele>
        <time>2026-07-07T23:02:17Z</time>
      </trkpt>
      <trkpt lat="39.89758873696759" lon="116.46675661438545">
        <ele>40.073380527086556</ele>
        <time>2026-07-07T23:02:26Z</time>
      </trkpt>
      <trkpt lat="39.897757559581386" lon="116.46678702940667">
        <ele>40.51841180678457</ele>
        <time>2026-07-07T23:02:35Z</time>
      </trkpt>
      <trkpt lat="39.89804036944495" lon="116.46679221616138">
        <ele>39.68933808989823</ele>
        <time>2026-07-07T23:02:50Z</time>
      </trkpt>
      <trkpt lat="39.89809596767101" lon="116.46680967261373">
        <ele>40.093606852926314</ele>
        <time>2026-07-07T23:02:53Z</time>
      </trkpt>
      <trkpt lat="39.898373572095274" lon="116.46679999800155">
        <ele>40.67506599985063</ele>
        <time>2026-07-07T23:03:08Z</time>
      </trkpt>
      <trkpt lat="39.89865280238785" lon="116.46680952445075">
        <ele>40.565268146805465</ele>
        <time>2026-07-07T23:03:23Z</time>
      </trkpt>
      <trkpt lat="39.89895392559798" lon="116.46680638490697">
        <ele>40.86410133168101</ele>
        <time>2026-07-07T23:03:41Z</time>
      </trkpt>
      <trkpt lat="39.899054364973516" lon="116.46675701332799">
        <ele>40.180146533064544</ele>
        <time>2026-07-07T23:03:44Z</time>
      </trkpt>
      <trkpt lat="39.89909478995707" lon="116.46679981042658">
        <ele>38.880839047022164</ele>
        <time>2026-07-07T23:03:52Z</time>
      </trkpt>
      <trkpt lat="39.89931535898329" lon="116.46679652004184">
        <ele>38.56672154460102</ele>
        <time>2026-07-07T23:04:12Z</time>
      </trkpt>
      <trkpt lat="39.89936664952944" lon="116.46667310654692">
        <ele>38.0001404741779</ele>
        <time>2026-07-07T23:04:20Z</time>
      </trkpt>
      <trkpt lat="39.8994431353106" lon="116.46657734244066">
        <ele>39.23461895994842</ele>
        <time>2026-07-07T23:04:28Z</time>
      </trkpt>
      <trkpt lat="39.89949995334044" lon="116.46656973049974">
        <ele>39.16782874148339</ele>
        <time>2026-07-07T23:04:32Z</time>
      </trkpt>
      <trkpt lat="39.89954952134601" lon="116.46651157316545">
        <ele>37.42088576499373</ele>
        <time>2026-07-07T23:04:40Z</time>
      </trkpt>
      <trkpt lat="39.89959429730428" lon="116.46648871140894">
        <ele>37.63905896246433</ele>
        <time>2026-07-07T23:04:43Z</time>
      </trkpt>
      <trkpt lat="39.89978349668299" lon="116.46656134109534">
        <ele>45.80689811706543</ele>
        <time>2026-07-07T23:04:57Z</time>
      </trkpt>
      <trkpt lat="39.899961238993406" lon="116.46676193128827">
        <ele>38.281170467846096</ele>
        <time>2026-07-07T23:05:09Z</time>
      </trkpt>
      <trkpt lat="39.90006937415604" lon="116.46676255707393">
        <ele>38.66231736168265</ele>
        <time>2026-07-07T23:05:15Z</time>
      </trkpt>
      <trkpt lat="39.900116669207655" lon="116.46672860919143">
        <ele>38.41656013857573</ele>
        <time>2026-07-07T23:05:18Z</time>
      </trkpt>
      <trkpt lat="39.9002860085347" lon="116.46676122985403">
        <ele>41.06685216911137</ele>
        <time>2026-07-07T23:05:27Z</time>
      </trkpt>
      <trkpt lat="39.90037638267555" lon="116.46673566499359">
        <ele>40.51367711927742</ele>
        <time>2026-07-07T23:05:30Z</time>
      </trkpt>
      <trkpt lat="39.90042829771849" lon="116.46677552325468">
        <ele>39.93027273379266</ele>
        <time>2026-07-07T23:05:33Z</time>
      </trkpt>
      <trkpt lat="39.90067821267949" lon="116.46674787883683">
        <ele>40.02206374052912</ele>
        <time>2026-07-07T23:05:45Z</time>
      </trkpt>
      <trkpt lat="39.900734734404665" lon="116.46671305726021">
        <ele>40.79511226527393</ele>
        <time>2026-07-07T23:05:48Z</time>
      </trkpt>
      <trkpt lat="39.90078834450184" lon="116.466609646578">
        <ele>40.78188404906541</ele>
        <time>2026-07-07T23:05:52Z</time>
      </trkpt>
      <trkpt lat="39.9008874042574" lon="116.46654469356712">
        <ele>40.64662688411772</ele>
        <time>2026-07-07T23:05:56Z</time>
      </trkpt>
      <trkpt lat="39.90089449207099" lon="116.46646766126527">
        <ele>40.1916237315163</ele>
        <time>2026-07-07T23:06:00Z</time>
      </trkpt>
      <trkpt lat="39.901123726904885" lon="116.46637713586424">
        <ele>40.77613460458815</ele>
        <time>2026-07-07T23:06:16Z</time>
      </trkpt>
      <trkpt lat="39.90127111597912" lon="116.46637420635615">
        <ele>40.67035831697285</ele>
        <time>2026-07-07T23:06:24Z</time>
      </trkpt>
      <trkpt lat="39.90144339035675" lon="116.46632932471593">
        <ele>40.407191157341</ele>
        <time>2026-07-07T23:06:32Z</time>
      </trkpt>
      <trkpt lat="39.90150258815038" lon="116.46633937132893">
        <ele>38.08748597744852</ele>
        <time>2026-07-07T23:06:36Z</time>
      </trkpt>
      <trkpt lat="39.90157086187087" lon="116.46643342250373">
        <ele>39.11588118970394</ele>
        <time>2026-07-07T23:06:40Z</time>
      </trkpt>
      <trkpt lat="39.901649623159074" lon="116.466491762026">
        <ele>40.17965991515666</ele>
        <time>2026-07-07T23:06:47Z</time>
      </trkpt>
      <trkpt lat="39.90173206408825" lon="116.46649076070393">
        <ele>38.69321846961975</ele>
        <time>2026-07-07T23:06:51Z</time>
      </trkpt>
      <trkpt lat="39.90181964417904" lon="116.46652271908104">
        <ele>39.05274078529328</ele>
        <time>2026-07-07T23:06:55Z</time>
      </trkpt>
      <trkpt lat="39.90194954449613" lon="116.46643928644855">
        <ele>38.57007903512567</ele>
        <time>2026-07-07T23:07:01Z</time>
      </trkpt>
      <trkpt lat="39.90199261288402" lon="116.46647540478602">
        <ele>39.02759316563606</ele>
        <time>2026-07-07T23:07:04Z</time>
      </trkpt>
      <trkpt lat="39.90229219854131" lon="116.46645075123463">
        <ele>39.9278626954183</ele>
        <time>2026-07-07T23:07:19Z</time>
      </trkpt>
      <trkpt lat="39.902522081743506" lon="116.46641396092888">
        <ele>38.56017357483506</ele>
        <time>2026-07-07T23:07:34Z</time>
      </trkpt>
      <trkpt lat="39.90256721746932" lon="116.46642803697615">
        <ele>38.578396428376436</ele>
        <time>2026-07-07T23:07:37Z</time>
      </trkpt>
      <trkpt lat="39.90260818372652" lon="116.46639584694596">
        <ele>37.44522981066257</ele>
        <time>2026-07-07T23:07:40Z</time>
      </trkpt>
      <trkpt lat="39.902864611307436" lon="116.46637897347081">
        <ele>37.2956835962832</ele>
        <time>2026-07-07T23:07:52Z</time>
      </trkpt>
      <trkpt lat="39.90287447487124" lon="116.46658427931521">
        <ele>37.460381565615535</ele>
        <time>2026-07-07T23:08:02Z</time>
      </trkpt>
      <trkpt lat="39.90290352436449" lon="116.4666353526727">
        <ele>38.24705904349685</ele>
        <time>2026-07-07T23:08:05Z</time>
      </trkpt>
      <trkpt lat="39.90294789928175" lon="116.46682986741462">
        <ele>37.099057397805154</ele>
        <time>2026-07-07T23:08:14Z</time>
      </trkpt>
      <trkpt lat="39.9029459893647" lon="116.46689096949099">
        <ele>36.82348230946809</ele>
        <time>2026-07-07T23:08:17Z</time>
      </trkpt>
      <trkpt lat="39.90302984647733" lon="116.46709512268107">
        <ele>37.08052545692772</ele>
        <time>2026-07-07T23:08:32Z</time>
      </trkpt>
      <trkpt lat="39.903038416516964" lon="116.46740226015662">
        <ele>37.48368739336729</ele>
        <time>2026-07-07T23:08:56Z</time>
      </trkpt>
      <trkpt lat="39.9030139159892" lon="116.46750239762999">
        <ele>36.84152939449996</ele>
        <time>2026-07-07T23:09:02Z</time>
      </trkpt>
      <trkpt lat="39.90303511725975" lon="116.46757380984369">
        <ele>37.045993278734386</ele>
        <time>2026-07-07T23:09:05Z</time>
      </trkpt>
      <trkpt lat="39.90302344480757" lon="116.46764137135398">
        <ele>36.41960032377392</ele>
        <time>2026-07-07T23:09:08Z</time>
      </trkpt>
      <trkpt lat="39.903048450408825" lon="116.46776494056861">
        <ele>35.807350368238986</ele>
        <time>2026-07-07T23:09:14Z</time>
      </trkpt>
      <trkpt lat="39.90306672667592" lon="116.46801450891104">
        <ele>37.30637534894049</ele>
        <time>2026-07-07T23:09:23Z</time>
      </trkpt>
      <trkpt lat="39.90304866641467" lon="116.4680711575162">
        <ele>37.26708197314292</ele>
        <time>2026-07-07T23:09:26Z</time>
      </trkpt>
      <trkpt lat="39.903065598749095" lon="116.46844422448258">
        <ele>37.537657825276256</ele>
        <time>2026-07-07T23:09:41Z</time>
      </trkpt>
      <trkpt lat="39.903052266370736" lon="116.46877426362114">
        <ele>37.76886778511107</ele>
        <time>2026-07-07T23:09:56Z</time>
      </trkpt>
      <trkpt lat="39.90307256755407" lon="116.46911889269754">
        <ele>38.04130098037422</ele>
        <time>2026-07-07T23:10:12Z</time>
      </trkpt>
      <trkpt lat="39.90306227563131" lon="116.46919602851402">
        <ele>38.292986964806914</ele>
        <time>2026-07-07T23:10:15Z</time>
      </trkpt>
      <trkpt lat="39.90305483054204" lon="116.46954241374235">
        <ele>38.61314753256738</ele>
        <time>2026-07-07T23:10:30Z</time>
      </trkpt>
      <trkpt lat="39.9030890714619" lon="116.46975791774891">
        <ele>38.77214658819139</ele>
        <time>2026-07-07T23:10:39Z</time>
      </trkpt>
      <trkpt lat="39.903055448070994" lon="116.46998607589552">
        <ele>38.77343780267984</ele>
        <time>2026-07-07T23:10:48Z</time>
      </trkpt>
      <trkpt lat="39.9030823513463" lon="116.47019234045753">
        <ele>39.54507234878838</ele>
        <time>2026-07-07T23:10:57Z</time>
      </trkpt>
      <trkpt lat="39.9030736692761" lon="116.47040192242693">
        <ele>37.602461638860404</ele>
        <time>2026-07-07T23:11:06Z</time>
      </trkpt>
      <trkpt lat="39.9030948570174" lon="116.47054226069523">
        <ele>39.29650893621147</ele>
        <time>2026-07-07T23:11:12Z</time>
      </trkpt>
      <trkpt lat="39.903083160769" lon="116.47062957557557">
        <ele>39.87649822887033</ele>
        <time>2026-07-07T23:11:15Z</time>
      </trkpt>
      <trkpt lat="39.903103905699886" lon="116.47068773472286">
        <ele>39.396194368600845</ele>
        <time>2026-07-07T23:11:18Z</time>
      </trkpt>
      <trkpt lat="39.90308028074549" lon="116.471001534482">
        <ele>36.524386634118855</ele>
        <time>2026-07-07T23:11:30Z</time>
      </trkpt>
      <trkpt lat="39.903116078697394" lon="116.47123788133258">
        <ele>36.79986971337348</ele>
        <time>2026-07-07T23:11:39Z</time>
      </trkpt>
      <trkpt lat="39.903115554590144" lon="116.47133116330888">
        <ele>37.52869469858706</ele>
        <time>2026-07-07T23:11:45Z</time>
      </trkpt>
      <trkpt lat="39.90314590723896" lon="116.47138677698098">
        <ele>39.63312908355147</ele>
        <time>2026-07-07T23:11:48Z</time>
      </trkpt>
      <trkpt lat="39.90317054248884" lon="116.47168024467548">
        <ele>38.74161738809198</ele>
        <time>2026-07-07T23:12:03Z</time>
      </trkpt>
      <trkpt lat="39.903148421433535" lon="116.47173493568494">
        <ele>38.898150596767664</ele>
        <time>2026-07-07T23:12:06Z</time>
      </trkpt>
      <trkpt lat="39.90305815107928" lon="116.47179238829428">
        <ele>38.32569922879338</ele>
        <time>2026-07-07T23:12:10Z</time>
      </trkpt>
      <trkpt lat="39.903022741238345" lon="116.4718431043953">
        <ele>38.532881362363696</ele>
        <time>2026-07-07T23:12:13Z</time>
      </trkpt>
      <trkpt lat="39.903090856964845" lon="116.47193359104814">
        <ele>39.01074833981693</ele>
        <time>2026-07-07T23:12:16Z</time>
      </trkpt>
      <trkpt lat="39.90311138195115" lon="116.47211224541715">
        <ele>38.84118541982025</ele>
        <time>2026-07-07T23:12:31Z</time>
      </trkpt>
      <trkpt lat="39.90309404277092" lon="116.47220789787853">
        <ele>37.349885350093246</ele>
        <time>2026-07-07T23:12:37Z</time>
      </trkpt>
      <trkpt lat="39.903076232470646" lon="116.47260491130464">
        <ele>37.570361169055104</ele>
        <time>2026-07-07T23:12:55Z</time>
      </trkpt>
      <trkpt lat="39.9030655398823" lon="116.47277351299572">
        <ele>37.77345162816346</ele>
        <time>2026-07-07T23:13:01Z</time>
      </trkpt>
      <trkpt lat="39.90303411759238" lon="116.47290197899099">
        <ele>36.4280644422397</ele>
        <time>2026-07-07T23:13:07Z</time>
      </trkpt>
      <trkpt lat="39.90301615512032" lon="116.47311005035674">
        <ele>37.90794426575303</ele>
        <time>2026-07-07T23:13:16Z</time>
      </trkpt>
      <trkpt lat="39.902947130915614" lon="116.47350582999502">
        <ele>36.08482584170997</ele>
        <time>2026-07-07T23:13:34Z</time>
      </trkpt>
      <trkpt lat="39.90298007128126" lon="116.47358632527528">
        <ele>36.07391580287367</ele>
        <time>2026-07-07T23:13:37Z</time>
      </trkpt>
      <trkpt lat="39.90291709035568" lon="116.47378089615508">
        <ele>36.788594614714384</ele>
        <time>2026-07-07T23:13:46Z</time>
      </trkpt>
      <trkpt lat="39.90286605307662" lon="116.47415256574898">
        <ele>38.33298559859395</ele>
        <time>2026-07-07T23:14:01Z</time>
      </trkpt>
      <trkpt lat="39.902886189208274" lon="116.4744403763505">
        <ele>36.94657545629889</ele>
        <time>2026-07-07T23:14:13Z</time>
      </trkpt>
      <trkpt lat="39.902829141319074" lon="116.47462205031994">
        <ele>37.96548874489963</ele>
        <time>2026-07-07T23:14:21Z</time>
      </trkpt>
      <trkpt lat="39.90282931647557" lon="116.47470711916078">
        <ele>36.38652625121176</ele>
        <time>2026-07-07T23:14:25Z</time>
      </trkpt>
      <trkpt lat="39.90277248959125" lon="116.47488345298497">
        <ele>38.19031003024429</ele>
        <time>2026-07-07T23:14:33Z</time>
      </trkpt>
      <trkpt lat="39.90276989040659" lon="116.47497796857373">
        <ele>37.35219995863736</ele>
        <time>2026-07-07T23:14:37Z</time>
      </trkpt>
      <trkpt lat="39.902751497066426" lon="116.47504022552015">
        <ele>36.55839821416885</ele>
        <time>2026-07-07T23:14:41Z</time>
      </trkpt>
      <trkpt lat="39.90272698821358" lon="116.47549056842381">
        <ele>35.281460953876376</ele>
        <time>2026-07-07T23:15:01Z</time>
      </trkpt>
      <trkpt lat="39.902713009094775" lon="116.47568126117416">
        <ele>37.28097018506378</ele>
        <time>2026-07-07T23:15:10Z</time>
      </trkpt>
      <trkpt lat="39.90272283306831" lon="116.47603457790262">
        <ele>36.54156039562076</ele>
        <time>2026-07-07T23:15:25Z</time>
      </trkpt>
      <trkpt lat="39.90272425729375" lon="116.4761620717229">
        <ele>34.306217717938125</ele>
        <time>2026-07-07T23:15:31Z</time>
      </trkpt>
      <trkpt lat="39.90274702001306" lon="116.47630031975308">
        <ele>36.01436647120863</ele>
        <time>2026-07-07T23:15:37Z</time>
      </trkpt>
      <trkpt lat="39.90274607483269" lon="116.47645029029937">
        <ele>35.46726305317134</ele>
        <time>2026-07-07T23:15:43Z</time>
      </trkpt>
      <trkpt lat="39.90278100373819" lon="116.47659678160854">
        <ele>35.13095370773226</ele>
        <time>2026-07-07T23:15:49Z</time>
      </trkpt>
      <trkpt lat="39.902784003819754" lon="116.47671038644594">
        <ele>35.63392366562039</ele>
        <time>2026-07-07T23:15:55Z</time>
      </trkpt>
      <trkpt lat="39.90281735105193" lon="116.47677437397424">
        <ele>35.76038961485028</ele>
        <time>2026-07-07T23:15:58Z</time>
      </trkpt>
      <trkpt lat="39.902811392281976" lon="116.47683600559982">
        <ele>34.808590004220605</ele>
        <time>2026-07-07T23:16:01Z</time>
      </trkpt>
      <trkpt lat="39.90285147750253" lon="116.47689599983912">
        <ele>34.53776605799794</ele>
        <time>2026-07-07T23:16:04Z</time>
      </trkpt>
      <trkpt lat="39.90285859150868" lon="116.47702475195754">
        <ele>35.401400157250464</ele>
        <time>2026-07-07T23:16:10Z</time>
      </trkpt>
      <trkpt lat="39.90291955294368" lon="116.4772057072169">
        <ele>34.39404113404453</ele>
        <time>2026-07-07T23:16:19Z</time>
      </trkpt>
      <trkpt lat="39.90298839565138" lon="116.4775501582249">
        <ele>34.46535408869386</ele>
        <time>2026-07-07T23:16:35Z</time>
      </trkpt>
      <trkpt lat="39.903079034560065" lon="116.47791369590098">
        <ele>34.96738140657544</ele>
        <time>2026-07-07T23:16:51Z</time>
      </trkpt>
      <trkpt lat="39.90315929633125" lon="116.47818784658254">
        <ele>36.7411130387336</ele>
        <time>2026-07-07T23:17:03Z</time>
      </trkpt>
      <trkpt lat="39.90322540890586" lon="116.47854769723567">
        <ele>36.557278733700514</ele>
        <time>2026-07-07T23:17:19Z</time>
      </trkpt>
      <trkpt lat="39.903273330142795" lon="116.47874735132118">
        <ele>35.42518554441631</ele>
        <time>2026-07-07T23:17:28Z</time>
      </trkpt>
      <trkpt lat="39.90332960261875" lon="116.47907568499336">
        <ele>33.03619920834899</ele>
        <time>2026-07-07T23:17:43Z</time>
      </trkpt>
      <trkpt lat="39.90342727077102" lon="116.47939272044813">
        <ele>35.782011655159295</ele>
        <time>2026-07-07T23:18:04Z</time>
      </trkpt>
      <trkpt lat="39.90349246279525" lon="116.4797558888468">
        <ele>35.76124979183078</ele>
        <time>2026-07-07T23:18:30Z</time>
      </trkpt>
      <trkpt lat="39.903511186831466" lon="116.47990008581736">
        <ele>36.31374029163271</ele>
        <time>2026-07-07T23:18:38Z</time>
      </trkpt>
      <trkpt lat="39.903607505081965" lon="116.48027202180965">
        <ele>36.59182045329362</ele>
        <time>2026-07-07T23:19:06Z</time>
      </trkpt>
      <trkpt lat="39.90368570131309" lon="116.48066157152577">
        <ele>37.02234181202948</ele>
        <time>2026-07-07T23:19:25Z</time>
      </trkpt>
      <trkpt lat="39.90376053896868" lon="116.48100475293708">
        <ele>37.34020464401692</ele>
        <time>2026-07-07T23:19:40Z</time>
      </trkpt>
      <trkpt lat="39.903836119015935" lon="116.48135399849605">
        <ele>36.746616531163454</ele>
        <time>2026-07-07T23:19:55Z</time>
      </trkpt>
      <trkpt lat="39.90388904999632" lon="116.48177726910279">
        <ele>37.09275390673429</ele>
        <time>2026-07-07T23:20:16Z</time>
      </trkpt>
      <trkpt lat="39.90393555279747" lon="116.4821514654441">
        <ele>36.61099695134908</ele>
        <time>2026-07-07T23:20:39Z</time>
      </trkpt>
      <trkpt lat="39.90397347857323" lon="116.48255912082602">
        <ele>36.6764486534521</ele>
        <time>2026-07-07T23:21:03Z</time>
      </trkpt>
      <trkpt lat="39.90397771373844" lon="116.48294270834286">
        <ele>36.81450522970408</ele>
        <time>2026-07-07T23:21:24Z</time>
      </trkpt>
      <trkpt lat="39.90395624904639" lon="116.48311153571919">
        <ele>36.164428343996406</ele>
        <time>2026-07-07T23:21:33Z</time>
      </trkpt>
      <trkpt lat="39.903963626131066" lon="116.48346889538622">
        <ele>37.09933777805418</ele>
        <time>2026-07-07T23:21:45Z</time>
      </trkpt>
      <trkpt lat="39.9038686146603" lon="116.483848108204">
        <ele>37.038398353382945</ele>
        <time>2026-07-07T23:22:03Z</time>
      </trkpt>
      <trkpt lat="39.90395238612354" lon="116.4841100509181">
        <ele>36.63864303007722</ele>
        <time>2026-07-07T23:22:09Z</time>
      </trkpt>
      <trkpt lat="39.9039460762533" lon="116.48426594735898">
        <ele>36.298759744502604</ele>
        <time>2026-07-07T23:22:15Z</time>
      </trkpt>
      <trkpt lat="39.90397336000344" lon="116.48434591554698">
        <ele>37.39854490291327</ele>
        <time>2026-07-07T23:22:18Z</time>
      </trkpt>
      <trkpt lat="39.90395956538483" lon="116.48462021261905">
        <ele>36.16849201079458</ele>
        <time>2026-07-07T23:22:30Z</time>
      </trkpt>
      <trkpt lat="39.90397453466777" lon="116.48469678236926">
        <ele>36.11006446648389</ele>
        <time>2026-07-07T23:22:33Z</time>
      </trkpt>
      <trkpt lat="39.90395931892866" lon="116.48494465730222">
        <ele>37.56780905742198</ele>
        <time>2026-07-07T23:22:43Z</time>
      </trkpt>
      <trkpt lat="39.90397916271362" lon="116.48532504799195">
        <ele>36.47944140993059</ele>
        <time>2026-07-07T23:22:59Z</time>
      </trkpt>
      <trkpt lat="39.90398548500884" lon="116.48574420640263">
        <ele>36.840189456008375</ele>
        <time>2026-07-07T23:23:19Z</time>
      </trkpt>
      <trkpt lat="39.903985711320814" lon="116.4861119336542">
        <ele>36.04988966882229</ele>
        <time>2026-07-07T23:23:36Z</time>
      </trkpt>
      <trkpt lat="39.903988287326264" lon="116.48646503805419">
        <ele>35.29825727455318</ele>
        <time>2026-07-07T23:23:51Z</time>
      </trkpt>
      <trkpt lat="39.90399421798533" lon="116.48682769843413">
        <ele>36.85415853280574</ele>
        <time>2026-07-07T23:24:06Z</time>
      </trkpt>
      <trkpt lat="39.90400657437054" lon="116.4869112423496">
        <ele>36.16690064128488</ele>
        <time>2026-07-07T23:24:09Z</time>
      </trkpt>
      <trkpt lat="39.90399214493298" lon="116.48719084479427">
        <ele>36.28543009608984</ele>
        <time>2026-07-07T23:24:21Z</time>
      </trkpt>
      <trkpt lat="39.90402012680672" lon="116.48742277279348">
        <ele>38.284575442783535</ele>
        <time>2026-07-07T23:24:30Z</time>
      </trkpt>
      <trkpt lat="39.904009649830755" lon="116.48756932104905">
        <ele>37.88033220823854</ele>
        <time>2026-07-07T23:24:36Z</time>
      </trkpt>
      <trkpt lat="39.90403686160211" lon="116.48766110737428">
        <ele>37.01712450105697</ele>
        <time>2026-07-07T23:24:39Z</time>
      </trkpt>
      <trkpt lat="39.90403433466148" lon="116.48775788516127">
        <ele>35.75309414137155</ele>
        <time>2026-07-07T23:24:45Z</time>
      </trkpt>
      <trkpt lat="39.90400962135666" lon="116.48784658976251">
        <ele>35.50792843941599</ele>
        <time>2026-07-07T23:24:49Z</time>
      </trkpt>
      <trkpt lat="39.90402493599074" lon="116.48822336391748">
        <ele>36.5057672476396</ele>
        <time>2026-07-07T23:25:05Z</time>
      </trkpt>
      <trkpt lat="39.904035270774685" lon="116.48847457373365">
        <ele>34.66862940508872</ele>
        <time>2026-07-07T23:25:17Z</time>
      </trkpt>
      <trkpt lat="39.90408501239137" lon="116.48882242666573">
        <ele>35.53647812735289</ele>
        <time>2026-07-07T23:25:33Z</time>
      </trkpt>
      <trkpt lat="39.90408079157927" lon="116.48888865760816">
        <ele>35.226153461262584</ele>
        <time>2026-07-07T23:25:37Z</time>
      </trkpt>
      <trkpt lat="39.90403883021539" lon="116.48850788968255">
        <ele>35.1500384779647</ele>
        <time>2026-07-07T23:26:16Z</time>
      </trkpt>
      <trkpt lat="39.90401768507211" lon="116.48810960149568">
        <ele>36.7023242674768</ele>
        <time>2026-07-07T23:26:34Z</time>
      </trkpt>
      <trkpt lat="39.9040042866254" lon="116.48773559573408">
        <ele>35.95705672074109</ele>
        <time>2026-07-07T23:26:50Z</time>
      </trkpt>
      <trkpt lat="39.90398017205414" lon="116.4876668811678">
        <ele>34.901814077980816</ele>
        <time>2026-07-07T23:26:53Z</time>
      </trkpt>
      <trkpt lat="39.90400623743929" lon="116.48725466008847">
        <ele>37.62607827875763</ele>
        <time>2026-07-07T23:27:10Z</time>
      </trkpt>
      <trkpt lat="39.90400026098613" lon="116.4868786461039">
        <ele>36.24274970963597</ele>
        <time>2026-07-07T23:27:26Z</time>
      </trkpt>
      <trkpt lat="39.90399115804016" lon="116.48650218308485">
        <ele>36.104390531778336</ele>
        <time>2026-07-07T23:27:42Z</time>
      </trkpt>
      <trkpt lat="39.90398630674181" lon="116.48613972700275">
        <ele>35.52933293953538</ele>
        <time>2026-07-07T23:27:57Z</time>
      </trkpt>
      <trkpt lat="39.903984548295035" lon="116.48575397831394">
        <ele>36.347467568702996</ele>
        <time>2026-07-07T23:28:13Z</time>
      </trkpt>
      <trkpt lat="39.90397008824619" lon="116.48548369718375">
        <ele>35.73602585494518</ele>
        <time>2026-07-07T23:28:28Z</time>
      </trkpt>
      <trkpt lat="39.903919483676056" lon="116.4854039646156">
        <ele>33.09906754642725</ele>
        <time>2026-07-07T23:28:32Z</time>
      </trkpt>
      <trkpt lat="39.90397454198101" lon="116.48515000021831">
        <ele>35.916296541690826</ele>
        <time>2026-07-07T23:28:46Z</time>
      </trkpt>
      <trkpt lat="39.90398295658862" lon="116.48498294204511">
        <ele>35.65930517669767</ele>
        <time>2026-07-07T23:28:56Z</time>
      </trkpt>
      <trkpt lat="39.90400021740821" lon="116.48492811456515">
        <ele>36.694124072790146</ele>
        <time>2026-07-07T23:29:00Z</time>
      </trkpt>
      <trkpt lat="39.903990199010366" lon="116.4848541163873">
        <ele>38.375696554780006</ele>
        <time>2026-07-07T23:29:04Z</time>
      </trkpt>
      <trkpt lat="39.903945402322904" lon="116.48480513367458">
        <ele>37.521614513359964</ele>
        <time>2026-07-07T23:29:12Z</time>
      </trkpt>
      <trkpt lat="39.90395007973701" lon="116.48468872952948">
        <ele>37.48664700705558</ele>
        <time>2026-07-07T23:29:16Z</time>
      </trkpt>
      <trkpt lat="39.903995690081004" lon="116.48459867818794">
        <ele>37.287003027275205</ele>
        <time>2026-07-07T23:29:20Z</time>
      </trkpt>
      <trkpt lat="39.90400168723869" lon="116.48451100665143">
        <ele>37.69254485704005</ele>
        <time>2026-07-07T23:29:24Z</time>
      </trkpt>
      <trkpt lat="39.90398911168678" lon="116.48444474404938">
        <ele>36.59918508399278</ele>
        <time>2026-07-07T23:29:28Z</time>
      </trkpt>
      <trkpt lat="39.90399468901541" lon="116.4843700127636">
        <ele>37.47007955331355</ele>
        <time>2026-07-07T23:29:32Z</time>
      </trkpt>
      <trkpt lat="39.9039581571208" lon="116.48419621818171">
        <ele>35.787602392956614</ele>
        <time>2026-07-07T23:29:40Z</time>
      </trkpt>
      <trkpt lat="39.903892810002866" lon="116.48405556442138">
        <ele>36.252961101941764</ele>
        <time>2026-07-07T23:29:44Z</time>
      </trkpt>
      <trkpt lat="39.903914589860065" lon="116.48399156839851">
        <ele>36.26343871746212</ele>
        <time>2026-07-07T23:29:48Z</time>
      </trkpt>
      <trkpt lat="39.903922823730326" lon="116.48354239289293">
        <ele>36.976086414419115</ele>
        <time>2026-07-07T23:30:08Z</time>
      </trkpt>
      <trkpt lat="39.904002413190284" lon="116.4833576831529">
        <ele>36.06272542476654</ele>
        <time>2026-07-07T23:30:12Z</time>
      </trkpt>
      <trkpt lat="39.903964315113136" lon="116.4831995402643">
        <ele>37.03376206289977</ele>
        <time>2026-07-07T23:30:16Z</time>
      </trkpt>
      <trkpt lat="39.9039674297593" lon="116.48311645026709">
        <ele>36.294017700478435</ele>
        <time>2026-07-07T23:30:20Z</time>
      </trkpt>
      <trkpt lat="39.904007673590975" lon="116.48303190478447">
        <ele>36.00302071124315</ele>
        <time>2026-07-07T23:30:28Z</time>
      </trkpt>
      <trkpt lat="39.90397374600563" lon="116.48282088784835">
        <ele>37.260355087928474</ele>
        <time>2026-07-07T23:30:36Z</time>
      </trkpt>
      <trkpt lat="39.904003333197934" lon="116.48271490049083">
        <ele>36.816779948771</ele>
        <time>2026-07-07T23:30:40Z</time>
      </trkpt>
      <trkpt lat="39.90397611083595" lon="116.4823102649031">
        <ele>36.68120782263577</ele>
        <time>2026-07-07T23:30:56Z</time>
      </trkpt>
      <trkpt lat="39.90395875121293" lon="116.48221652540227">
        <ele>34.59225692227483</ele>
        <time>2026-07-07T23:31:00Z</time>
      </trkpt>
      <trkpt lat="39.903967693966834" lon="116.48212576532664">
        <ele>36.084763708524406</ele>
        <time>2026-07-07T23:31:04Z</time>
      </trkpt>
      <trkpt lat="39.90389533177482" lon="116.48197129446955">
        <ele>35.44032483827323</ele>
        <time>2026-07-07T23:31:10Z</time>
      </trkpt>
      <trkpt lat="39.90390202152002" lon="116.48175117309428">
        <ele>35.785354651510715</ele>
        <time>2026-07-07T23:31:19Z</time>
      </trkpt>
      <trkpt lat="39.90389077183134" lon="116.48168760851135">
        <ele>35.73699744325131</ele>
        <time>2026-07-07T23:31:22Z</time>
      </trkpt>
      <trkpt lat="39.90385636203581" lon="116.48161389165827">
        <ele>35.55478472728282</ele>
        <time>2026-07-07T23:31:25Z</time>
      </trkpt>
      <trkpt lat="39.903825591439904" lon="116.48136631603923">
        <ele>35.095345517620444</ele>
        <time>2026-07-07T23:31:34Z</time>
      </trkpt>
      <trkpt lat="39.903748668885555" lon="116.48111213044709">
        <ele>34.48665554262698</ele>
        <time>2026-07-07T23:31:46Z</time>
      </trkpt>
      <trkpt lat="39.90370526364397" lon="116.48104185956907">
        <ele>33.96371291670948</ele>
        <time>2026-07-07T23:31:49Z</time>
      </trkpt>
      <trkpt lat="39.90370813271486" lon="116.48097624472818">
        <ele>35.00122442562133</ele>
        <time>2026-07-07T23:31:52Z</time>
      </trkpt>
      <trkpt lat="39.903665713893645" lon="116.48087226835557">
        <ele>34.87536005768925</ele>
        <time>2026-07-07T23:31:58Z</time>
      </trkpt>
      <trkpt lat="39.9036580075594" lon="116.48064112410638">
        <ele>35.27097035758197</ele>
        <time>2026-07-07T23:32:07Z</time>
      </trkpt>
      <trkpt lat="39.903618813091526" lon="116.48036042864778">
        <ele>35.03340638615191</ele>
        <time>2026-07-07T23:32:19Z</time>
      </trkpt>
      <trkpt lat="39.90351643641181" lon="116.47995797112021">
        <ele>36.91059482470155</ele>
        <time>2026-07-07T23:32:38Z</time>
      </trkpt>
      <trkpt lat="39.90345360093931" lon="116.47958642884016">
        <ele>37.989605356007814</ele>
        <time>2026-07-07T23:32:55Z</time>
      </trkpt>
      <trkpt lat="39.90336494646867" lon="116.47916164511298">
        <ele>37.36494032945484</ele>
        <time>2026-07-07T23:33:14Z</time>
      </trkpt>
      <trkpt lat="39.903316238533435" lon="116.47893049861122">
        <ele>37.65910646878183</ele>
        <time>2026-07-07T23:33:25Z</time>
      </trkpt>
      <trkpt lat="39.90331146350149" lon="116.47881808450272">
        <ele>37.40290020406246</ele>
        <time>2026-07-07T23:33:29Z</time>
      </trkpt>
      <trkpt lat="39.90327201033382" lon="116.47874476034573">
        <ele>36.9830870423466</ele>
        <time>2026-07-07T23:33:33Z</time>
      </trkpt>
      <trkpt lat="39.90319638850033" lon="116.47839698053383">
        <ele>36.39765512663871</ele>
        <time>2026-07-07T23:33:49Z</time>
      </trkpt>
      <trkpt lat="39.90312862908138" lon="116.47816186355836">
        <ele>36.88495755661279</ele>
        <time>2026-07-07T23:34:01Z</time>
      </trkpt>
      <trkpt lat="39.90304229004789" lon="116.47774227137522">
        <ele>36.6774751348421</ele>
        <time>2026-07-07T23:34:20Z</time>
      </trkpt>
      <trkpt lat="39.902959234397734" lon="116.47734322556718">
        <ele>34.6534857256338</ele>
        <time>2026-07-07T23:34:38Z</time>
      </trkpt>
      <trkpt lat="39.9028561150052" lon="116.47690891815547">
        <ele>35.47835670039058</ele>
        <time>2026-07-07T23:34:57Z</time>
      </trkpt>
      <trkpt lat="39.902783723749266" lon="116.47652661315904">
        <ele>36.89332601521164</ele>
        <time>2026-07-07T23:35:12Z</time>
      </trkpt>
      <trkpt lat="39.90273046225848" lon="116.47612043703123">
        <ele>35.23004715144634</ele>
        <time>2026-07-07T23:35:31Z</time>
      </trkpt>
      <trkpt lat="39.90272701489792" lon="116.47574471256523">
        <ele>34.298471765592694</ele>
        <time>2026-07-07T23:35:47Z</time>
      </trkpt>
      <trkpt lat="39.90272785007838" lon="116.47546834216216">
        <ele>37.197448465041816</ele>
        <time>2026-07-07T23:36:07Z</time>
      </trkpt>
      <trkpt lat="39.902737270350066" lon="116.47516319065495">
        <ele>36.758813188411295</ele>
        <time>2026-07-07T23:36:27Z</time>
      </trkpt>
      <trkpt lat="39.9028283961717" lon="116.47481884473277">
        <ele>32.616784111596644</ele>
        <time>2026-07-07T23:36:47Z</time>
      </trkpt>
      <trkpt lat="39.902859156426636" lon="116.47474189791298">
        <ele>36.91357425227761</ele>
        <time>2026-07-07T23:36:51Z</time>
      </trkpt>
      <trkpt lat="39.90285050267397" lon="116.47467516512617">
        <ele>36.689588396809995</ele>
        <time>2026-07-07T23:36:55Z</time>
      </trkpt>
      <trkpt lat="39.90288993421436" lon="116.47449295565882">
        <ele>36.68253627792001</ele>
        <time>2026-07-07T23:37:07Z</time>
      </trkpt>
      <trkpt lat="39.90288303955956" lon="116.47442046614043">
        <ele>39.428706786595285</ele>
        <time>2026-07-07T23:37:11Z</time>
      </trkpt>
      <trkpt lat="39.902934776893815" lon="116.47403920200007">
        <ele>38.99326188955456</ele>
        <time>2026-07-07T23:37:35Z</time>
      </trkpt>
      <trkpt lat="39.90296808956516" lon="116.4737545978974">
        <ele>36.78441241942346</ele>
        <time>2026-07-07T23:37:51Z</time>
      </trkpt>
      <trkpt lat="39.902947156055085" lon="116.47354336883586">
        <ele>36.90888116508722</ele>
        <time>2026-07-07T23:37:59Z</time>
      </trkpt>
      <trkpt lat="39.90299096555907" lon="116.47344259546541">
        <ele>36.68406428769231</ele>
        <time>2026-07-07T23:38:03Z</time>
      </trkpt>
      <trkpt lat="39.90297864382655" lon="116.47335632039061">
        <ele>36.55385734885931</ele>
        <time>2026-07-07T23:38:07Z</time>
      </trkpt>
      <trkpt lat="39.903033605327636" lon="116.47316296341972">
        <ele>38.530487603507936</ele>
        <time>2026-07-07T23:38:15Z</time>
      </trkpt>
      <trkpt lat="39.90305881799518" lon="116.47287359386993">
        <ele>37.15241371560842</ele>
        <time>2026-07-07T23:38:27Z</time>
      </trkpt>
      <trkpt lat="39.90308790482093" lon="116.47280360764768">
        <ele>36.66109335049987</ele>
        <time>2026-07-07T23:38:31Z</time>
      </trkpt>
      <trkpt lat="39.9030834919437" lon="116.4724988819292">
        <ele>37.9742840481922</ele>
        <time>2026-07-07T23:38:43Z</time>
      </trkpt>
      <trkpt lat="39.903132042488785" lon="116.47231577951541">
        <ele>36.32993375696242</ele>
        <time>2026-07-07T23:38:51Z</time>
      </trkpt>
      <trkpt lat="39.90309938331657" lon="116.47213142100944">
        <ele>37.87684477120638</ele>
        <time>2026-07-07T23:38:59Z</time>
      </trkpt>
      <trkpt lat="39.903114930156896" lon="116.47203655522775">
        <ele>36.7599291941151</ele>
        <time>2026-07-07T23:39:02Z</time>
      </trkpt>
      <trkpt lat="39.903077986857355" lon="116.47194766978944">
        <ele>37.416970442049205</ele>
        <time>2026-07-07T23:39:06Z</time>
      </trkpt>
      <trkpt lat="39.903069604486625" lon="116.47177759349643">
        <ele>38.65761179663241</ele>
        <time>2026-07-07T23:39:14Z</time>
      </trkpt>
      <trkpt lat="39.903102039533465" lon="116.47172694121393">
        <ele>38.89788900595158</ele>
        <time>2026-07-07T23:39:26Z</time>
      </trkpt>
      <trkpt lat="39.90311650017755" lon="116.47121922485931">
        <ele>39.30982462596148</ele>
        <time>2026-07-07T23:39:35Z</time>
      </trkpt>
      <trkpt lat="39.90312174251804" lon="116.47102523591515">
        <ele>38.57802177965641</ele>
        <time>2026-07-07T23:39:41Z</time>
      </trkpt>
      <trkpt lat="39.90308466131706" lon="116.47068685113052">
        <ele>37.032538869418204</ele>
        <time>2026-07-07T23:39:56Z</time>
      </trkpt>
      <trkpt lat="39.90308260441782" lon="116.47054947565579">
        <ele>38.60810502432287</ele>
        <time>2026-07-07T23:40:02Z</time>
      </trkpt>
      <trkpt lat="39.90306537474259" lon="116.47045762534867">
        <ele>39.308892311528325</ele>
        <time>2026-07-07T23:40:05Z</time>
      </trkpt>
      <trkpt lat="39.90310708994481" lon="116.47040340543472">
        <ele>39.72407467570156</ele>
        <time>2026-07-07T23:40:08Z</time>
      </trkpt>
      <trkpt lat="39.903039283168695" lon="116.47026432098899">
        <ele>39.33613638021052</ele>
        <time>2026-07-07T23:40:14Z</time>
      </trkpt>
      <trkpt lat="39.90307727650365" lon="116.4701735035647">
        <ele>38.851794520393014</ele>
        <time>2026-07-07T23:40:17Z</time>
      </trkpt>
      <trkpt lat="39.90306709438873" lon="116.47007795454063">
        <ele>38.61303412448615</ele>
        <time>2026-07-07T23:40:21Z</time>
      </trkpt>
      <trkpt lat="39.90310206254101" lon="116.47000376640541">
        <ele>38.53930729907006</ele>
        <time>2026-07-07T23:40:25Z</time>
      </trkpt>
      <trkpt lat="39.90306182102077" lon="116.46975963771526">
        <ele>40.18150117713958</ele>
        <time>2026-07-07T23:40:37Z</time>
      </trkpt>
      <trkpt lat="39.9030626093722" lon="116.46965455325075">
        <ele>39.840579418465495</ele>
        <time>2026-07-07T23:40:41Z</time>
      </trkpt>
      <trkpt lat="39.90308352920141" lon="116.46954701936363">
        <ele>39.908349628560245</ele>
        <time>2026-07-07T23:40:45Z</time>
      </trkpt>
      <trkpt lat="39.90307065405255" lon="116.46920718111161">
        <ele>39.5384749090299</ele>
        <time>2026-07-07T23:41:01Z</time>
      </trkpt>
      <trkpt lat="39.903051859337594" lon="116.46909033830178">
        <ele>39.84531351085752</ele>
        <time>2026-07-07T23:41:05Z</time>
      </trkpt>
      <trkpt lat="39.903086375305804" lon="116.46879338577594">
        <ele>38.758677245117724</ele>
        <time>2026-07-07T23:41:17Z</time>
      </trkpt>
      <trkpt lat="39.903076074488204" lon="116.46869856792955">
        <ele>38.16186770610511</ele>
        <time>2026-07-07T23:41:21Z</time>
      </trkpt>
      <trkpt lat="39.903084044051106" lon="116.46861054750488">
        <ele>38.2757702274248</ele>
        <time>2026-07-07T23:41:25Z</time>
      </trkpt>
      <trkpt lat="39.90306303293881" lon="116.4685413739668">
        <ele>37.645616984926164</ele>
        <time>2026-07-07T23:41:29Z</time>
      </trkpt>
      <trkpt lat="39.90305178356283" lon="116.46828445259493">
        <ele>37.07173701468855</ele>
        <time>2026-07-07T23:41:39Z</time>
      </trkpt>
      <trkpt lat="39.903102750188005" lon="116.46812055886595">
        <ele>38.22846503555775</ele>
        <time>2026-07-07T23:41:54Z</time>
      </trkpt>
      <trkpt lat="39.90303585127522" lon="116.46790828859339">
        <ele>37.66192402597517</ele>
        <time>2026-07-07T23:42:09Z</time>
      </trkpt>
      <trkpt lat="39.90305892329686" lon="116.46772296884212">
        <ele>37.61899620294571</ele>
        <time>2026-07-07T23:42:21Z</time>
      </trkpt>
      <trkpt lat="39.90299845802917" lon="116.46761841652884">
        <ele>37.62132914829999</ele>
        <time>2026-07-07T23:42:27Z</time>
      </trkpt>
      <trkpt lat="39.903030954522535" lon="116.4675741901686">
        <ele>37.68057477939874</ele>
        <time>2026-07-07T23:42:30Z</time>
      </trkpt>
      <trkpt lat="39.903051314889126" lon="116.46733318212246">
        <ele>37.80798508413136</ele>
        <time>2026-07-07T23:42:45Z</time>
      </trkpt>
      <trkpt lat="39.903035363999074" lon="116.46713754303673">
        <ele>37.94744805432856</ele>
        <time>2026-07-07T23:42:57Z</time>
      </trkpt>
      <trkpt lat="39.90294941288849" lon="116.46683052326215">
        <ele>38.38247857801616</ele>
        <time>2026-07-07T23:43:15Z</time>
      </trkpt>
      <trkpt lat="39.902943434768055" lon="116.46676469849912">
        <ele>38.66139434557408</ele>
        <time>2026-07-07T23:43:19Z</time>
      </trkpt>
      <trkpt lat="39.902829602037365" lon="116.46642816513987">
        <ele>37.33814138174057</ele>
        <time>2026-07-07T23:43:44Z</time>
      </trkpt>
      <trkpt lat="39.90268005127492" lon="116.46635893139808">
        <ele>38.07901754695922</ele>
        <time>2026-07-07T23:43:59Z</time>
      </trkpt>
      <trkpt lat="39.902630962846686" lon="116.46628014684617">
        <ele>38.46419530548155</ele>
        <time>2026-07-07T23:44:05Z</time>
      </trkpt>
      <trkpt lat="39.90257324800174" lon="116.4662311245491">
        <ele>39.0384267102927</ele>
        <time>2026-07-07T23:44:11Z</time>
      </trkpt>
      <trkpt lat="39.90249586244728" lon="116.46620209082566">
        <ele>38.78691708110273</ele>
        <time>2026-07-07T23:44:17Z</time>
      </trkpt>
      <trkpt lat="39.90221571784364" lon="116.46624435407949">
        <ele>39.64279867615551</ele>
        <time>2026-07-07T23:44:39Z</time>
      </trkpt>
      <trkpt lat="39.90197079649193" lon="116.4662654512629">
        <ele>39.99483504705131</ele>
        <time>2026-07-07T23:44:58Z</time>
      </trkpt>
      <trkpt lat="39.9016793524738" lon="116.46633225332242">
        <ele>40.74375253263861</ele>
        <time>2026-07-07T23:45:21Z</time>
      </trkpt>
      <trkpt lat="39.901452465895005" lon="116.46638410913835">
        <ele>40.78326387796551</ele>
        <time>2026-07-07T23:45:42Z</time>
      </trkpt>
      <trkpt lat="39.90135794910662" lon="116.46634487765728">
        <ele>41.112661411985755</ele>
        <time>2026-07-07T23:45:49Z</time>
      </trkpt>
      <trkpt lat="39.90120633867994" lon="116.4663826206295">
        <ele>40.79902747832239</ele>
        <time>2026-07-07T23:45:57Z</time>
      </trkpt>
      <trkpt lat="39.90113740249403" lon="116.46636933371023">
        <ele>39.787608542479575</ele>
        <time>2026-07-07T23:46:01Z</time>
      </trkpt>
      <trkpt lat="39.90099371277659" lon="116.46640478667415">
        <ele>40.33060247730464</ele>
        <time>2026-07-07T23:46:09Z</time>
      </trkpt>
      <trkpt lat="39.900889507635405" lon="116.46638786822915">
        <ele>40.35814372636378</ele>
        <time>2026-07-07T23:46:13Z</time>
      </trkpt>
      <trkpt lat="39.900818594213455" lon="116.46641735645541">
        <ele>40.17031232174486</ele>
        <time>2026-07-07T23:46:21Z</time>
      </trkpt>
      <trkpt lat="39.900740927485174" lon="116.4664146489874">
        <ele>40.38217087555677</ele>
        <time>2026-07-07T23:46:25Z</time>
      </trkpt>
      <trkpt lat="39.900562054754985" lon="116.46652100621695">
        <ele>41.24372189864516</ele>
        <time>2026-07-07T23:46:37Z</time>
      </trkpt>
      <trkpt lat="39.90042058768588" lon="116.46662183160748">
        <ele>39.60530855692923</ele>
        <time>2026-07-07T23:46:45Z</time>
      </trkpt>
      <trkpt lat="39.900152421090304" lon="116.46670653662032">
        <ele>38.4343620184809</ele>
        <time>2026-07-07T23:47:01Z</time>
      </trkpt>
      <trkpt lat="39.90003037215412" lon="116.4666382543807">
        <ele>39.14312683418393</ele>
        <time>2026-07-07T23:47:09Z</time>
      </trkpt>
      <trkpt lat="39.89992948188664" lon="116.4666569496578">
        <ele>38.928834268823266</ele>
        <time>2026-07-07T23:47:13Z</time>
      </trkpt>
      <trkpt lat="39.899846400489984" lon="116.46650552258149">
        <ele>40.82121718209237</ele>
        <time>2026-07-07T23:47:21Z</time>
      </trkpt>
      <trkpt lat="39.899818821576964" lon="116.46637222450342">
        <ele>36.542344271205366</ele>
        <time>2026-07-07T23:47:33Z</time>
      </trkpt>
      <trkpt lat="39.899541278776454" lon="116.46649772012596">
        <ele>40.372349511832</ele>
        <time>2026-07-07T23:47:37Z</time>
      </trkpt>
      <trkpt lat="39.89948059819528" lon="116.46657827799417">
        <ele>41.37176455371082</ele>
        <time>2026-07-07T23:47:41Z</time>
      </trkpt>
      <trkpt lat="39.89935268325267" lon="116.46650325448579">
        <ele>38.03073505591601</ele>
        <time>2026-07-07T23:47:49Z</time>
      </trkpt>
      <trkpt lat="39.89918924745414" lon="116.46653438019717">
        <ele>38.00610093958676</ele>
        <time>2026-07-07T23:48:01Z</time>
      </trkpt>
      <trkpt lat="39.89916733139322" lon="116.46646766500328">
        <ele>36.884701672941446</ele>
        <time>2026-07-07T23:48:07Z</time>
      </trkpt>
      <trkpt lat="39.89916961434474" lon="116.46641704282808">
        <ele>40.27543648891151</ele>
        <time>2026-07-07T23:48:19Z</time>
      </trkpt>
    </trkseg>
  </trk>
</gpx>